<?xml version="1.0" encoding="UTF-8"?>
<gpx version="1.1" creator="gpx2print sample" xmlns="http://www.topografix.com/GPX/1/1">
  <trk>
    <name>Route A west-east</name>
    <trkseg>
      <trkpt lat="56.800000" lon="-5.070000"><ele>300.0</ele><time>2026-05-12T08:00:00Z</time></trkpt>
      <trkpt lat="56.800000" lon="-5.069749"><ele>306.3</ele><time>2026-05-12T08:00:15Z</time></trkpt>
      <trkpt lat="56.800000" lon="-5.069497"><ele>312.6</ele><time>2026-05-12T08:00:30Z</time></trkpt>
      <trkpt lat="56.800000" lon="-5.069246"><ele>318.9</ele><time>2026-05-12T08:00:45Z</time></trkpt>
      <trkpt lat="56.800000" lon="-5.068995"><ele>325.2</ele><time>2026-05-12T08:01:00Z</time></trkpt>
      <trkpt lat="56.800000" lon="-5.068744"><ele>331.5</ele><time>2026-05-12T08:01:15Z</time></trkpt>
      <trkpt lat="56.800000" lon="-5.068492"><ele>337.8</ele><time>2026-05-12T08:01:30Z</time></trkpt>
      <trkpt lat="56.800000" lon="-5.068241"><ele>344.1</ele><time>2026-05-12T08:01:45Z</time></trkpt>
      <trkpt lat="56.800000" lon="-5.067990"><ele>350.4</ele><time>2026-05-12T08:02:00Z</time></trkpt>
      <trkpt lat="56.800000" lon="-5.067739"><ele>356.6</ele><time>2026-05-12T08:02:15Z</time></trkpt>
      <trkpt lat="56.800000" lon="-5.067487"><ele>362.9</ele><time>2026-05-12T08:02:30Z</time></trkpt>
      <trkpt lat="56.800000" lon="-5.067236"><ele>369.1</ele><time>2026-05-12T08:02:45Z</time></trkpt>
      <trkpt lat="56.800000" lon="-5.066985"><ele>375.3</ele><time>2026-05-12T08:03:00Z</time></trkpt>
      <trkpt lat="56.800000" lon="-5.066734"><ele>381.5</ele><time>2026-05-12T08:03:15Z</time></trkpt>
      <trkpt lat="56.800000" lon="-5.066482"><ele>387.7</ele><time>2026-05-12T08:03:30Z</time></trkpt>
      <trkpt lat="56.800000" lon="-5.066231"><ele>393.8</ele><time>2026-05-12T08:03:45Z</time></trkpt>
      <trkpt lat="56.800000" lon="-5.065980"><ele>400.0</ele><time>2026-05-12T08:04:00Z</time></trkpt>
      <trkpt lat="56.800000" lon="-5.065729"><ele>406.1</ele><time>2026-05-12T08:04:15Z</time></trkpt>
      <trkpt lat="56.800000" lon="-5.065477"><ele>412.1</ele><time>2026-05-12T08:04:30Z</time></trkpt>
      <trkpt lat="56.800000" lon="-5.065226"><ele>418.2</ele><time>2026-05-12T08:04:45Z</time></trkpt>
      <trkpt lat="56.800000" lon="-5.064975"><ele>424.2</ele><time>2026-05-12T08:05:00Z</time></trkpt>
      <trkpt lat="56.800000" lon="-5.064724"><ele>430.2</ele><time>2026-05-12T08:05:15Z</time></trkpt>
      <trkpt lat="56.800000" lon="-5.064472"><ele>436.1</ele><time>2026-05-12T08:05:30Z</time></trkpt>
      <trkpt lat="56.800000" lon="-5.064221"><ele>442.1</ele><time>2026-05-12T08:05:45Z</time></trkpt>
      <trkpt lat="56.800000" lon="-5.063970"><ele>448.0</ele><time>2026-05-12T08:06:00Z</time></trkpt>
      <trkpt lat="56.800000" lon="-5.063719"><ele>453.8</ele><time>2026-05-12T08:06:15Z</time></trkpt>
      <trkpt lat="56.800000" lon="-5.063467"><ele>459.6</ele><time>2026-05-12T08:06:30Z</time></trkpt>
      <trkpt lat="56.800000" lon="-5.063216"><ele>465.4</ele><time>2026-05-12T08:06:45Z</time></trkpt>
      <trkpt lat="56.800000" lon="-5.062965"><ele>471.1</ele><time>2026-05-12T08:07:00Z</time></trkpt>
      <trkpt lat="56.800000" lon="-5.062714"><ele>476.8</ele><time>2026-05-12T08:07:15Z</time></trkpt>
      <trkpt lat="56.800000" lon="-5.062462"><ele>482.4</ele><time>2026-05-12T08:07:30Z</time></trkpt>
      <trkpt lat="56.800000" lon="-5.062211"><ele>488.0</ele><time>2026-05-12T08:07:45Z</time></trkpt>
      <trkpt lat="56.800000" lon="-5.061960"><ele>493.6</ele><time>2026-05-12T08:08:00Z</time></trkpt>
      <trkpt lat="56.800000" lon="-5.061709"><ele>499.1</ele><time>2026-05-12T08:08:15Z</time></trkpt>
      <trkpt lat="56.800000" lon="-5.061457"><ele>504.5</ele><time>2026-05-12T08:08:30Z</time></trkpt>
      <trkpt lat="56.800000" lon="-5.061206"><ele>509.9</ele><time>2026-05-12T08:08:45Z</time></trkpt>
      <trkpt lat="56.800000" lon="-5.060955"><ele>515.3</ele><time>2026-05-12T08:09:00Z</time></trkpt>
      <trkpt lat="56.800000" lon="-5.060704"><ele>520.6</ele><time>2026-05-12T08:09:15Z</time></trkpt>
      <trkpt lat="56.800000" lon="-5.060452"><ele>525.8</ele><time>2026-05-12T08:09:30Z</time></trkpt>
      <trkpt lat="56.800000" lon="-5.060201"><ele>531.0</ele><time>2026-05-12T08:09:45Z</time></trkpt>
      <trkpt lat="56.800000" lon="-5.059950"><ele>536.1</ele><time>2026-05-12T08:10:00Z</time></trkpt>
      <trkpt lat="56.800000" lon="-5.059698"><ele>541.2</ele><time>2026-05-12T08:10:15Z</time></trkpt>
      <trkpt lat="56.800000" lon="-5.059447"><ele>546.2</ele><time>2026-05-12T08:10:30Z</time></trkpt>
      <trkpt lat="56.800000" lon="-5.059196"><ele>551.2</ele><time>2026-05-12T08:10:45Z</time></trkpt>
      <trkpt lat="56.800000" lon="-5.058945"><ele>556.0</ele><time>2026-05-12T08:11:00Z</time></trkpt>
      <trkpt lat="56.800000" lon="-5.058693"><ele>560.9</ele><time>2026-05-12T08:11:15Z</time></trkpt>
      <trkpt lat="56.800000" lon="-5.058442"><ele>565.6</ele><time>2026-05-12T08:11:30Z</time></trkpt>
      <trkpt lat="56.800000" lon="-5.058191"><ele>570.3</ele><time>2026-05-12T08:11:45Z</time></trkpt>
      <trkpt lat="56.800000" lon="-5.057940"><ele>574.9</ele><time>2026-05-12T08:12:00Z</time></trkpt>
      <trkpt lat="56.800000" lon="-5.057688"><ele>579.5</ele><time>2026-05-12T08:12:15Z</time></trkpt>
      <trkpt lat="56.800000" lon="-5.057437"><ele>584.0</ele><time>2026-05-12T08:12:30Z</time></trkpt>
      <trkpt lat="56.800000" lon="-5.057186"><ele>588.4</ele><time>2026-05-12T08:12:45Z</time></trkpt>
      <trkpt lat="56.800000" lon="-5.056935"><ele>592.7</ele><time>2026-05-12T08:13:00Z</time></trkpt>
      <trkpt lat="56.800000" lon="-5.056683"><ele>597.0</ele><time>2026-05-12T08:13:15Z</time></trkpt>
      <trkpt lat="56.800000" lon="-5.056432"><ele>601.2</ele><time>2026-05-12T08:13:30Z</time></trkpt>
      <trkpt lat="56.800000" lon="-5.056181"><ele>605.3</ele><time>2026-05-12T08:13:45Z</time></trkpt>
      <trkpt lat="56.800000" lon="-5.055930"><ele>609.3</ele><time>2026-05-12T08:14:00Z</time></trkpt>
      <trkpt lat="56.800000" lon="-5.055678"><ele>613.3</ele><time>2026-05-12T08:14:15Z</time></trkpt>
      <trkpt lat="56.800000" lon="-5.055427"><ele>617.2</ele><time>2026-05-12T08:14:30Z</time></trkpt>
      <trkpt lat="56.800000" lon="-5.055176"><ele>621.0</ele><time>2026-05-12T08:14:45Z</time></trkpt>
      <trkpt lat="56.800000" lon="-5.054925"><ele>624.7</ele><time>2026-05-12T08:15:00Z</time></trkpt>
      <trkpt lat="56.800000" lon="-5.054673"><ele>628.4</ele><time>2026-05-12T08:15:15Z</time></trkpt>
      <trkpt lat="56.800000" lon="-5.054422"><ele>631.9</ele><time>2026-05-12T08:15:30Z</time></trkpt>
      <trkpt lat="56.800000" lon="-5.054171"><ele>635.4</ele><time>2026-05-12T08:15:45Z</time></trkpt>
      <trkpt lat="56.800000" lon="-5.053920"><ele>638.8</ele><time>2026-05-12T08:16:00Z</time></trkpt>
      <trkpt lat="56.800000" lon="-5.053668"><ele>642.1</ele><time>2026-05-12T08:16:15Z</time></trkpt>
      <trkpt lat="56.800000" lon="-5.053417"><ele>645.4</ele><time>2026-05-12T08:16:30Z</time></trkpt>
      <trkpt lat="56.800000" lon="-5.053166"><ele>648.5</ele><time>2026-05-12T08:16:45Z</time></trkpt>
      <trkpt lat="56.800000" lon="-5.052915"><ele>651.6</ele><time>2026-05-12T08:17:00Z</time></trkpt>
      <trkpt lat="56.800000" lon="-5.052663"><ele>654.5</ele><time>2026-05-12T08:17:15Z</time></trkpt>
      <trkpt lat="56.800000" lon="-5.052412"><ele>657.4</ele><time>2026-05-12T08:17:30Z</time></trkpt>
      <trkpt lat="56.800000" lon="-5.052161"><ele>660.2</ele><time>2026-05-12T08:17:45Z</time></trkpt>
      <trkpt lat="56.800000" lon="-5.051910"><ele>662.9</ele><time>2026-05-12T08:18:00Z</time></trkpt>
      <trkpt lat="56.800000" lon="-5.051658"><ele>665.5</ele><time>2026-05-12T08:18:15Z</time></trkpt>
      <trkpt lat="56.800000" lon="-5.051407"><ele>668.0</ele><time>2026-05-12T08:18:30Z</time></trkpt>
      <trkpt lat="56.800000" lon="-5.051156"><ele>670.5</ele><time>2026-05-12T08:18:45Z</time></trkpt>
      <trkpt lat="56.800000" lon="-5.050905"><ele>672.8</ele><time>2026-05-12T08:19:00Z</time></trkpt>
      <trkpt lat="56.800000" lon="-5.050653"><ele>675.0</ele><time>2026-05-12T08:19:15Z</time></trkpt>
      <trkpt lat="56.800000" lon="-5.050402"><ele>677.2</ele><time>2026-05-12T08:19:30Z</time></trkpt>
      <trkpt lat="56.800000" lon="-5.050151"><ele>679.2</ele><time>2026-05-12T08:19:45Z</time></trkpt>
      <trkpt lat="56.800000" lon="-5.049899"><ele>681.2</ele><time>2026-05-12T08:20:00Z</time></trkpt>
      <trkpt lat="56.800000" lon="-5.049648"><ele>683.1</ele><time>2026-05-12T08:20:15Z</time></trkpt>
      <trkpt lat="56.800000" lon="-5.049397"><ele>684.8</ele><time>2026-05-12T08:20:30Z</time></trkpt>
      <trkpt lat="56.800000" lon="-5.049146"><ele>686.5</ele><time>2026-05-12T08:20:45Z</time></trkpt>
      <trkpt lat="56.800000" lon="-5.048894"><ele>688.1</ele><time>2026-05-12T08:21:00Z</time></trkpt>
      <trkpt lat="56.800000" lon="-5.048643"><ele>689.6</ele><time>2026-05-12T08:21:15Z</time></trkpt>
      <trkpt lat="56.800000" lon="-5.048392"><ele>691.0</ele><time>2026-05-12T08:21:30Z</time></trkpt>
      <trkpt lat="56.800000" lon="-5.048141"><ele>692.2</ele><time>2026-05-12T08:21:45Z</time></trkpt>
      <trkpt lat="56.800000" lon="-5.047889"><ele>693.4</ele><time>2026-05-12T08:22:00Z</time></trkpt>
      <trkpt lat="56.800000" lon="-5.047638"><ele>694.5</ele><time>2026-05-12T08:22:15Z</time></trkpt>
      <trkpt lat="56.800000" lon="-5.047387"><ele>695.5</ele><time>2026-05-12T08:22:30Z</time></trkpt>
      <trkpt lat="56.800000" lon="-5.047136"><ele>696.4</ele><time>2026-05-12T08:22:45Z</time></trkpt>
      <trkpt lat="56.800000" lon="-5.046884"><ele>697.2</ele><time>2026-05-12T08:23:00Z</time></trkpt>
      <trkpt lat="56.800000" lon="-5.046633"><ele>697.9</ele><time>2026-05-12T08:23:15Z</time></trkpt>
      <trkpt lat="56.800000" lon="-5.046382"><ele>698.5</ele><time>2026-05-12T08:23:30Z</time></trkpt>
      <trkpt lat="56.800000" lon="-5.046131"><ele>699.0</ele><time>2026-05-12T08:23:45Z</time></trkpt>
      <trkpt lat="56.800000" lon="-5.045879"><ele>699.4</ele><time>2026-05-12T08:24:00Z</time></trkpt>
      <trkpt lat="56.800000" lon="-5.045628"><ele>699.7</ele><time>2026-05-12T08:24:15Z</time></trkpt>
      <trkpt lat="56.800000" lon="-5.045377"><ele>699.9</ele><time>2026-05-12T08:24:30Z</time></trkpt>
      <trkpt lat="56.800000" lon="-5.045126"><ele>700.0</ele><time>2026-05-12T08:24:45Z</time></trkpt>
      <trkpt lat="56.800000" lon="-5.044874"><ele>700.0</ele><time>2026-05-12T08:25:00Z</time></trkpt>
      <trkpt lat="56.800000" lon="-5.044623"><ele>699.9</ele><time>2026-05-12T08:25:15Z</time></trkpt>
      <trkpt lat="56.800000" lon="-5.044372"><ele>699.7</ele><time>2026-05-12T08:25:30Z</time></trkpt>
      <trkpt lat="56.800000" lon="-5.044121"><ele>699.4</ele><time>2026-05-12T08:25:45Z</time></trkpt>
      <trkpt lat="56.800000" lon="-5.043869"><ele>699.0</ele><time>2026-05-12T08:26:00Z</time></trkpt>
      <trkpt lat="56.800000" lon="-5.043618"><ele>698.5</ele><time>2026-05-12T08:26:15Z</time></trkpt>
      <trkpt lat="56.800000" lon="-5.043367"><ele>697.9</ele><time>2026-05-12T08:26:30Z</time></trkpt>
      <trkpt lat="56.800000" lon="-5.043116"><ele>697.2</ele><time>2026-05-12T08:26:45Z</time></trkpt>
      <trkpt lat="56.800000" lon="-5.042864"><ele>696.4</ele><time>2026-05-12T08:27:00Z</time></trkpt>
      <trkpt lat="56.800000" lon="-5.042613"><ele>695.5</ele><time>2026-05-12T08:27:15Z</time></trkpt>
      <trkpt lat="56.800000" lon="-5.042362"><ele>694.5</ele><time>2026-05-12T08:27:30Z</time></trkpt>
      <trkpt lat="56.800000" lon="-5.042111"><ele>693.4</ele><time>2026-05-12T08:27:45Z</time></trkpt>
      <trkpt lat="56.800000" lon="-5.041859"><ele>692.2</ele><time>2026-05-12T08:28:00Z</time></trkpt>
      <trkpt lat="56.800000" lon="-5.041608"><ele>691.0</ele><time>2026-05-12T08:28:15Z</time></trkpt>
      <trkpt lat="56.800000" lon="-5.041357"><ele>689.6</ele><time>2026-05-12T08:28:30Z</time></trkpt>
      <trkpt lat="56.800000" lon="-5.041106"><ele>688.1</ele><time>2026-05-12T08:28:45Z</time></trkpt>
      <trkpt lat="56.800000" lon="-5.040854"><ele>686.5</ele><time>2026-05-12T08:29:00Z</time></trkpt>
      <trkpt lat="56.800000" lon="-5.040603"><ele>684.8</ele><time>2026-05-12T08:29:15Z</time></trkpt>
      <trkpt lat="56.800000" lon="-5.040352"><ele>683.1</ele><time>2026-05-12T08:29:30Z</time></trkpt>
      <trkpt lat="56.800000" lon="-5.040101"><ele>681.2</ele><time>2026-05-12T08:29:45Z</time></trkpt>
      <trkpt lat="56.800000" lon="-5.039849"><ele>679.2</ele><time>2026-05-12T08:30:00Z</time></trkpt>
      <trkpt lat="56.800000" lon="-5.039598"><ele>677.2</ele><time>2026-05-12T08:30:15Z</time></trkpt>
      <trkpt lat="56.800000" lon="-5.039347"><ele>675.0</ele><time>2026-05-12T08:30:30Z</time></trkpt>
      <trkpt lat="56.800000" lon="-5.039095"><ele>672.8</ele><time>2026-05-12T08:30:45Z</time></trkpt>
      <trkpt lat="56.800000" lon="-5.038844"><ele>670.5</ele><time>2026-05-12T08:31:00Z</time></trkpt>
      <trkpt lat="56.800000" lon="-5.038593"><ele>668.0</ele><time>2026-05-12T08:31:15Z</time></trkpt>
      <trkpt lat="56.800000" lon="-5.038342"><ele>665.5</ele><time>2026-05-12T08:31:30Z</time></trkpt>
      <trkpt lat="56.800000" lon="-5.038090"><ele>662.9</ele><time>2026-05-12T08:31:45Z</time></trkpt>
      <trkpt lat="56.800000" lon="-5.037839"><ele>660.2</ele><time>2026-05-12T08:32:00Z</time></trkpt>
      <trkpt lat="56.800000" lon="-5.037588"><ele>657.4</ele><time>2026-05-12T08:32:15Z</time></trkpt>
      <trkpt lat="56.800000" lon="-5.037337"><ele>654.5</ele><time>2026-05-12T08:32:30Z</time></trkpt>
      <trkpt lat="56.800000" lon="-5.037085"><ele>651.6</ele><time>2026-05-12T08:32:45Z</time></trkpt>
      <trkpt lat="56.800000" lon="-5.036834"><ele>648.5</ele><time>2026-05-12T08:33:00Z</time></trkpt>
      <trkpt lat="56.800000" lon="-5.036583"><ele>645.4</ele><time>2026-05-12T08:33:15Z</time></trkpt>
      <trkpt lat="56.800000" lon="-5.036332"><ele>642.1</ele><time>2026-05-12T08:33:30Z</time></trkpt>
      <trkpt lat="56.800000" lon="-5.036080"><ele>638.8</ele><time>2026-05-12T08:33:45Z</time></trkpt>
      <trkpt lat="56.800000" lon="-5.035829"><ele>635.4</ele><time>2026-05-12T08:34:00Z</time></trkpt>
      <trkpt lat="56.800000" lon="-5.035578"><ele>631.9</ele><time>2026-05-12T08:34:15Z</time></trkpt>
      <trkpt lat="56.800000" lon="-5.035327"><ele>628.4</ele><time>2026-05-12T08:34:30Z</time></trkpt>
      <trkpt lat="56.800000" lon="-5.035075"><ele>624.7</ele><time>2026-05-12T08:34:45Z</time></trkpt>
      <trkpt lat="56.800000" lon="-5.034824"><ele>621.0</ele><time>2026-05-12T08:35:00Z</time></trkpt>
      <trkpt lat="56.800000" lon="-5.034573"><ele>617.2</ele><time>2026-05-12T08:35:15Z</time></trkpt>
      <trkpt lat="56.800000" lon="-5.034322"><ele>613.3</ele><time>2026-05-12T08:35:30Z</time></trkpt>
      <trkpt lat="56.800000" lon="-5.034070"><ele>609.3</ele><time>2026-05-12T08:35:45Z</time></trkpt>
      <trkpt lat="56.800000" lon="-5.033819"><ele>605.3</ele><time>2026-05-12T08:36:00Z</time></trkpt>
      <trkpt lat="56.800000" lon="-5.033568"><ele>601.2</ele><time>2026-05-12T08:36:15Z</time></trkpt>
      <trkpt lat="56.800000" lon="-5.033317"><ele>597.0</ele><time>2026-05-12T08:36:30Z</time></trkpt>
      <trkpt lat="56.800000" lon="-5.033065"><ele>592.7</ele><time>2026-05-12T08:36:45Z</time></trkpt>
      <trkpt lat="56.800000" lon="-5.032814"><ele>588.4</ele><time>2026-05-12T08:37:00Z</time></trkpt>
      <trkpt lat="56.800000" lon="-5.032563"><ele>584.0</ele><time>2026-05-12T08:37:15Z</time></trkpt>
      <trkpt lat="56.800000" lon="-5.032312"><ele>579.5</ele><time>2026-05-12T08:37:30Z</time></trkpt>
      <trkpt lat="56.800000" lon="-5.032060"><ele>574.9</ele><time>2026-05-12T08:37:45Z</time></trkpt>
      <trkpt lat="56.800000" lon="-5.031809"><ele>570.3</ele><time>2026-05-12T08:38:00Z</time></trkpt>
      <trkpt lat="56.800000" lon="-5.031558"><ele>565.6</ele><time>2026-05-12T08:38:15Z</time></trkpt>
      <trkpt lat="56.800000" lon="-5.031307"><ele>560.9</ele><time>2026-05-12T08:38:30Z</time></trkpt>
      <trkpt lat="56.800000" lon="-5.031055"><ele>556.0</ele><time>2026-05-12T08:38:45Z</time></trkpt>
      <trkpt lat="56.800000" lon="-5.030804"><ele>551.2</ele><time>2026-05-12T08:39:00Z</time></trkpt>
      <trkpt lat="56.800000" lon="-5.030553"><ele>546.2</ele><time>2026-05-12T08:39:15Z</time></trkpt>
      <trkpt lat="56.800000" lon="-5.030302"><ele>541.2</ele><time>2026-05-12T08:39:30Z</time></trkpt>
      <trkpt lat="56.800000" lon="-5.030050"><ele>536.1</ele><time>2026-05-12T08:39:45Z</time></trkpt>
      <trkpt lat="56.800000" lon="-5.029799"><ele>531.0</ele><time>2026-05-12T08:40:00Z</time></trkpt>
      <trkpt lat="56.800000" lon="-5.029548"><ele>525.8</ele><time>2026-05-12T08:40:15Z</time></trkpt>
      <trkpt lat="56.800000" lon="-5.029296"><ele>520.6</ele><time>2026-05-12T08:40:30Z</time></trkpt>
      <trkpt lat="56.800000" lon="-5.029045"><ele>515.3</ele><time>2026-05-12T08:40:45Z</time></trkpt>
      <trkpt lat="56.800000" lon="-5.028794"><ele>509.9</ele><time>2026-05-12T08:41:00Z</time></trkpt>
      <trkpt lat="56.800000" lon="-5.028543"><ele>504.5</ele><time>2026-05-12T08:41:15Z</time></trkpt>
      <trkpt lat="56.800000" lon="-5.028291"><ele>499.1</ele><time>2026-05-12T08:41:30Z</time></trkpt>
      <trkpt lat="56.800000" lon="-5.028040"><ele>493.6</ele><time>2026-05-12T08:41:45Z</time></trkpt>
      <trkpt lat="56.800000" lon="-5.027789"><ele>488.0</ele><time>2026-05-12T08:42:00Z</time></trkpt>
      <trkpt lat="56.800000" lon="-5.027538"><ele>482.4</ele><time>2026-05-12T08:42:15Z</time></trkpt>
      <trkpt lat="56.800000" lon="-5.027286"><ele>476.8</ele><time>2026-05-12T08:42:30Z</time></trkpt>
      <trkpt lat="56.800000" lon="-5.027035"><ele>471.1</ele><time>2026-05-12T08:42:45Z</time></trkpt>
      <trkpt lat="56.800000" lon="-5.026784"><ele>465.4</ele><time>2026-05-12T08:43:00Z</time></trkpt>
      <trkpt lat="56.800000" lon="-5.026533"><ele>459.6</ele><time>2026-05-12T08:43:15Z</time></trkpt>
      <trkpt lat="56.800000" lon="-5.026281"><ele>453.8</ele><time>2026-05-12T08:43:30Z</time></trkpt>
      <trkpt lat="56.800000" lon="-5.026030"><ele>448.0</ele><time>2026-05-12T08:43:45Z</time></trkpt>
      <trkpt lat="56.800000" lon="-5.025779"><ele>442.1</ele><time>2026-05-12T08:44:00Z</time></trkpt>
      <trkpt lat="56.800000" lon="-5.025528"><ele>436.1</ele><time>2026-05-12T08:44:15Z</time></trkpt>
      <trkpt lat="56.800000" lon="-5.025276"><ele>430.2</ele><time>2026-05-12T08:44:30Z</time></trkpt>
      <trkpt lat="56.800000" lon="-5.025025"><ele>424.2</ele><time>2026-05-12T08:44:45Z</time></trkpt>
      <trkpt lat="56.800000" lon="-5.024774"><ele>418.2</ele><time>2026-05-12T08:45:00Z</time></trkpt>
      <trkpt lat="56.800000" lon="-5.024523"><ele>412.1</ele><time>2026-05-12T08:45:15Z</time></trkpt>
      <trkpt lat="56.800000" lon="-5.024271"><ele>406.1</ele><time>2026-05-12T08:45:30Z</time></trkpt>
      <trkpt lat="56.800000" lon="-5.024020"><ele>400.0</ele><time>2026-05-12T08:45:45Z</time></trkpt>
      <trkpt lat="56.800000" lon="-5.023769"><ele>393.8</ele><time>2026-05-12T08:46:00Z</time></trkpt>
      <trkpt lat="56.800000" lon="-5.023518"><ele>387.7</ele><time>2026-05-12T08:46:15Z</time></trkpt>
      <trkpt lat="56.800000" lon="-5.023266"><ele>381.5</ele><time>2026-05-12T08:46:30Z</time></trkpt>
      <trkpt lat="56.800000" lon="-5.023015"><ele>375.3</ele><time>2026-05-12T08:46:45Z</time></trkpt>
      <trkpt lat="56.800000" lon="-5.022764"><ele>369.1</ele><time>2026-05-12T08:47:00Z</time></trkpt>
      <trkpt lat="56.800000" lon="-5.022513"><ele>362.9</ele><time>2026-05-12T08:47:15Z</time></trkpt>
      <trkpt lat="56.800000" lon="-5.022261"><ele>356.6</ele><time>2026-05-12T08:47:30Z</time></trkpt>
      <trkpt lat="56.800000" lon="-5.022010"><ele>350.4</ele><time>2026-05-12T08:47:45Z</time></trkpt>
      <trkpt lat="56.800000" lon="-5.021759"><ele>344.1</ele><time>2026-05-12T08:48:00Z</time></trkpt>
      <trkpt lat="56.800000" lon="-5.021508"><ele>337.8</ele><time>2026-05-12T08:48:15Z</time></trkpt>
      <trkpt lat="56.800000" lon="-5.021256"><ele>331.5</ele><time>2026-05-12T08:48:30Z</time></trkpt>
      <trkpt lat="56.800000" lon="-5.021005"><ele>325.2</ele><time>2026-05-12T08:48:45Z</time></trkpt>
      <trkpt lat="56.800000" lon="-5.020754"><ele>318.9</ele><time>2026-05-12T08:49:00Z</time></trkpt>
      <trkpt lat="56.800000" lon="-5.020503"><ele>312.6</ele><time>2026-05-12T08:49:15Z</time></trkpt>
      <trkpt lat="56.800000" lon="-5.020251"><ele>306.3</ele><time>2026-05-12T08:49:30Z</time></trkpt>
      <trkpt lat="56.800000" lon="-5.020000"><ele>300.0</ele><time>2026-05-12T08:49:45Z</time></trkpt>
    </trkseg>
  </trk>
</gpx>
