<?xml version="1.0" encoding="UTF-8"?>
<gpx version="1.1" creator="gpx2print sample" xmlns="http://www.topografix.com/GPX/1/1">
  <trk>
    <name>Route B south-north</name>
    <trkseg>
      <trkpt lat="56.788000" lon="-5.045000"><ele>300.0</ele><time>2026-05-12T08:00:00Z</time></trkpt>
      <trkpt lat="56.788121" lon="-5.045000"><ele>304.7</ele><time>2026-05-12T08:00:15Z</time></trkpt>
      <trkpt lat="56.788241" lon="-5.045000"><ele>309.5</ele><time>2026-05-12T08:00:30Z</time></trkpt>
      <trkpt lat="56.788362" lon="-5.045000"><ele>314.2</ele><time>2026-05-12T08:00:45Z</time></trkpt>
      <trkpt lat="56.788482" lon="-5.045000"><ele>318.9</ele><time>2026-05-12T08:01:00Z</time></trkpt>
      <trkpt lat="56.788603" lon="-5.045000"><ele>323.7</ele><time>2026-05-12T08:01:15Z</time></trkpt>
      <trkpt lat="56.788724" lon="-5.045000"><ele>328.4</ele><time>2026-05-12T08:01:30Z</time></trkpt>
      <trkpt lat="56.788844" lon="-5.045000"><ele>333.1</ele><time>2026-05-12T08:01:45Z</time></trkpt>
      <trkpt lat="56.788965" lon="-5.045000"><ele>337.8</ele><time>2026-05-12T08:02:00Z</time></trkpt>
      <trkpt lat="56.789085" lon="-5.045000"><ele>342.5</ele><time>2026-05-12T08:02:15Z</time></trkpt>
      <trkpt lat="56.789206" lon="-5.045000"><ele>347.2</ele><time>2026-05-12T08:02:30Z</time></trkpt>
      <trkpt lat="56.789327" lon="-5.045000"><ele>351.8</ele><time>2026-05-12T08:02:45Z</time></trkpt>
      <trkpt lat="56.789447" lon="-5.045000"><ele>356.5</ele><time>2026-05-12T08:03:00Z</time></trkpt>
      <trkpt lat="56.789568" lon="-5.045000"><ele>361.1</ele><time>2026-05-12T08:03:15Z</time></trkpt>
      <trkpt lat="56.789688" lon="-5.045000"><ele>365.8</ele><time>2026-05-12T08:03:30Z</time></trkpt>
      <trkpt lat="56.789809" lon="-5.045000"><ele>370.4</ele><time>2026-05-12T08:03:45Z</time></trkpt>
      <trkpt lat="56.789930" lon="-5.045000"><ele>375.0</ele><time>2026-05-12T08:04:00Z</time></trkpt>
      <trkpt lat="56.790050" lon="-5.045000"><ele>379.6</ele><time>2026-05-12T08:04:15Z</time></trkpt>
      <trkpt lat="56.790171" lon="-5.045000"><ele>384.1</ele><time>2026-05-12T08:04:30Z</time></trkpt>
      <trkpt lat="56.790291" lon="-5.045000"><ele>388.6</ele><time>2026-05-12T08:04:45Z</time></trkpt>
      <trkpt lat="56.790412" lon="-5.045000"><ele>393.2</ele><time>2026-05-12T08:05:00Z</time></trkpt>
      <trkpt lat="56.790533" lon="-5.045000"><ele>397.6</ele><time>2026-05-12T08:05:15Z</time></trkpt>
      <trkpt lat="56.790653" lon="-5.045000"><ele>402.1</ele><time>2026-05-12T08:05:30Z</time></trkpt>
      <trkpt lat="56.790774" lon="-5.045000"><ele>406.6</ele><time>2026-05-12T08:05:45Z</time></trkpt>
      <trkpt lat="56.790894" lon="-5.045000"><ele>411.0</ele><time>2026-05-12T08:06:00Z</time></trkpt>
      <trkpt lat="56.791015" lon="-5.045000"><ele>415.4</ele><time>2026-05-12T08:06:15Z</time></trkpt>
      <trkpt lat="56.791136" lon="-5.045000"><ele>419.7</ele><time>2026-05-12T08:06:30Z</time></trkpt>
      <trkpt lat="56.791256" lon="-5.045000"><ele>424.0</ele><time>2026-05-12T08:06:45Z</time></trkpt>
      <trkpt lat="56.791377" lon="-5.045000"><ele>428.3</ele><time>2026-05-12T08:07:00Z</time></trkpt>
      <trkpt lat="56.791497" lon="-5.045000"><ele>432.6</ele><time>2026-05-12T08:07:15Z</time></trkpt>
      <trkpt lat="56.791618" lon="-5.045000"><ele>436.8</ele><time>2026-05-12T08:07:30Z</time></trkpt>
      <trkpt lat="56.791739" lon="-5.045000"><ele>441.0</ele><time>2026-05-12T08:07:45Z</time></trkpt>
      <trkpt lat="56.791859" lon="-5.045000"><ele>445.2</ele><time>2026-05-12T08:08:00Z</time></trkpt>
      <trkpt lat="56.791980" lon="-5.045000"><ele>449.3</ele><time>2026-05-12T08:08:15Z</time></trkpt>
      <trkpt lat="56.792101" lon="-5.045000"><ele>453.4</ele><time>2026-05-12T08:08:30Z</time></trkpt>
      <trkpt lat="56.792221" lon="-5.045000"><ele>457.5</ele><time>2026-05-12T08:08:45Z</time></trkpt>
      <trkpt lat="56.792342" lon="-5.045000"><ele>461.5</ele><time>2026-05-12T08:09:00Z</time></trkpt>
      <trkpt lat="56.792462" lon="-5.045000"><ele>465.4</ele><time>2026-05-12T08:09:15Z</time></trkpt>
      <trkpt lat="56.792583" lon="-5.045000"><ele>469.4</ele><time>2026-05-12T08:09:30Z</time></trkpt>
      <trkpt lat="56.792704" lon="-5.045000"><ele>473.3</ele><time>2026-05-12T08:09:45Z</time></trkpt>
      <trkpt lat="56.792824" lon="-5.045000"><ele>477.1</ele><time>2026-05-12T08:10:00Z</time></trkpt>
      <trkpt lat="56.792945" lon="-5.045000"><ele>480.9</ele><time>2026-05-12T08:10:15Z</time></trkpt>
      <trkpt lat="56.793065" lon="-5.045000"><ele>484.7</ele><time>2026-05-12T08:10:30Z</time></trkpt>
      <trkpt lat="56.793186" lon="-5.045000"><ele>488.4</ele><time>2026-05-12T08:10:45Z</time></trkpt>
      <trkpt lat="56.793307" lon="-5.045000"><ele>492.0</ele><time>2026-05-12T08:11:00Z</time></trkpt>
      <trkpt lat="56.793427" lon="-5.045000"><ele>495.6</ele><time>2026-05-12T08:11:15Z</time></trkpt>
      <trkpt lat="56.793548" lon="-5.045000"><ele>499.2</ele><time>2026-05-12T08:11:30Z</time></trkpt>
      <trkpt lat="56.793668" lon="-5.045000"><ele>502.7</ele><time>2026-05-12T08:11:45Z</time></trkpt>
      <trkpt lat="56.793789" lon="-5.045000"><ele>506.2</ele><time>2026-05-12T08:12:00Z</time></trkpt>
      <trkpt lat="56.793910" lon="-5.045000"><ele>509.6</ele><time>2026-05-12T08:12:15Z</time></trkpt>
      <trkpt lat="56.794030" lon="-5.045000"><ele>513.0</ele><time>2026-05-12T08:12:30Z</time></trkpt>
      <trkpt lat="56.794151" lon="-5.045000"><ele>516.3</ele><time>2026-05-12T08:12:45Z</time></trkpt>
      <trkpt lat="56.794271" lon="-5.045000"><ele>519.5</ele><time>2026-05-12T08:13:00Z</time></trkpt>
      <trkpt lat="56.794392" lon="-5.045000"><ele>522.7</ele><time>2026-05-12T08:13:15Z</time></trkpt>
      <trkpt lat="56.794513" lon="-5.045000"><ele>525.9</ele><time>2026-05-12T08:13:30Z</time></trkpt>
      <trkpt lat="56.794633" lon="-5.045000"><ele>529.0</ele><time>2026-05-12T08:13:45Z</time></trkpt>
      <trkpt lat="56.794754" lon="-5.045000"><ele>532.0</ele><time>2026-05-12T08:14:00Z</time></trkpt>
      <trkpt lat="56.794874" lon="-5.045000"><ele>535.0</ele><time>2026-05-12T08:14:15Z</time></trkpt>
      <trkpt lat="56.794995" lon="-5.045000"><ele>537.9</ele><time>2026-05-12T08:14:30Z</time></trkpt>
      <trkpt lat="56.795116" lon="-5.045000"><ele>540.7</ele><time>2026-05-12T08:14:45Z</time></trkpt>
      <trkpt lat="56.795236" lon="-5.045000"><ele>543.5</ele><time>2026-05-12T08:15:00Z</time></trkpt>
      <trkpt lat="56.795357" lon="-5.045000"><ele>546.3</ele><time>2026-05-12T08:15:15Z</time></trkpt>
      <trkpt lat="56.795477" lon="-5.045000"><ele>548.9</ele><time>2026-05-12T08:15:30Z</time></trkpt>
      <trkpt lat="56.795598" lon="-5.045000"><ele>551.6</ele><time>2026-05-12T08:15:45Z</time></trkpt>
      <trkpt lat="56.795719" lon="-5.045000"><ele>554.1</ele><time>2026-05-12T08:16:00Z</time></trkpt>
      <trkpt lat="56.795839" lon="-5.045000"><ele>556.6</ele><time>2026-05-12T08:16:15Z</time></trkpt>
      <trkpt lat="56.795960" lon="-5.045000"><ele>559.0</ele><time>2026-05-12T08:16:30Z</time></trkpt>
      <trkpt lat="56.796080" lon="-5.045000"><ele>561.4</ele><time>2026-05-12T08:16:45Z</time></trkpt>
      <trkpt lat="56.796201" lon="-5.045000"><ele>563.7</ele><time>2026-05-12T08:17:00Z</time></trkpt>
      <trkpt lat="56.796322" lon="-5.045000"><ele>565.9</ele><time>2026-05-12T08:17:15Z</time></trkpt>
      <trkpt lat="56.796442" lon="-5.045000"><ele>568.1</ele><time>2026-05-12T08:17:30Z</time></trkpt>
      <trkpt lat="56.796563" lon="-5.045000"><ele>570.1</ele><time>2026-05-12T08:17:45Z</time></trkpt>
      <trkpt lat="56.796683" lon="-5.045000"><ele>572.2</ele><time>2026-05-12T08:18:00Z</time></trkpt>
      <trkpt lat="56.796804" lon="-5.045000"><ele>574.1</ele><time>2026-05-12T08:18:15Z</time></trkpt>
      <trkpt lat="56.796925" lon="-5.045000"><ele>576.0</ele><time>2026-05-12T08:18:30Z</time></trkpt>
      <trkpt lat="56.797045" lon="-5.045000"><ele>577.8</ele><time>2026-05-12T08:18:45Z</time></trkpt>
      <trkpt lat="56.797166" lon="-5.045000"><ele>579.6</ele><time>2026-05-12T08:19:00Z</time></trkpt>
      <trkpt lat="56.797286" lon="-5.045000"><ele>581.3</ele><time>2026-05-12T08:19:15Z</time></trkpt>
      <trkpt lat="56.797407" lon="-5.045000"><ele>582.9</ele><time>2026-05-12T08:19:30Z</time></trkpt>
      <trkpt lat="56.797528" lon="-5.045000"><ele>584.4</ele><time>2026-05-12T08:19:45Z</time></trkpt>
      <trkpt lat="56.797648" lon="-5.045000"><ele>585.9</ele><time>2026-05-12T08:20:00Z</time></trkpt>
      <trkpt lat="56.797769" lon="-5.045000"><ele>587.3</ele><time>2026-05-12T08:20:15Z</time></trkpt>
      <trkpt lat="56.797889" lon="-5.045000"><ele>588.6</ele><time>2026-05-12T08:20:30Z</time></trkpt>
      <trkpt lat="56.798010" lon="-5.045000"><ele>589.9</ele><time>2026-05-12T08:20:45Z</time></trkpt>
      <trkpt lat="56.798131" lon="-5.045000"><ele>591.1</ele><time>2026-05-12T08:21:00Z</time></trkpt>
      <trkpt lat="56.798251" lon="-5.045000"><ele>592.2</ele><time>2026-05-12T08:21:15Z</time></trkpt>
      <trkpt lat="56.798372" lon="-5.045000"><ele>593.2</ele><time>2026-05-12T08:21:30Z</time></trkpt>
      <trkpt lat="56.798492" lon="-5.045000"><ele>594.2</ele><time>2026-05-12T08:21:45Z</time></trkpt>
      <trkpt lat="56.798613" lon="-5.045000"><ele>595.1</ele><time>2026-05-12T08:22:00Z</time></trkpt>
      <trkpt lat="56.798734" lon="-5.045000"><ele>595.9</ele><time>2026-05-12T08:22:15Z</time></trkpt>
      <trkpt lat="56.798854" lon="-5.045000"><ele>596.6</ele><time>2026-05-12T08:22:30Z</time></trkpt>
      <trkpt lat="56.798975" lon="-5.045000"><ele>597.3</ele><time>2026-05-12T08:22:45Z</time></trkpt>
      <trkpt lat="56.799095" lon="-5.045000"><ele>597.9</ele><time>2026-05-12T08:23:00Z</time></trkpt>
      <trkpt lat="56.799216" lon="-5.045000"><ele>598.4</ele><time>2026-05-12T08:23:15Z</time></trkpt>
      <trkpt lat="56.799337" lon="-5.045000"><ele>598.9</ele><time>2026-05-12T08:23:30Z</time></trkpt>
      <trkpt lat="56.799457" lon="-5.045000"><ele>599.2</ele><time>2026-05-12T08:23:45Z</time></trkpt>
      <trkpt lat="56.799578" lon="-5.045000"><ele>599.5</ele><time>2026-05-12T08:24:00Z</time></trkpt>
      <trkpt lat="56.799698" lon="-5.045000"><ele>599.8</ele><time>2026-05-12T08:24:15Z</time></trkpt>
      <trkpt lat="56.799819" lon="-5.045000"><ele>599.9</ele><time>2026-05-12T08:24:30Z</time></trkpt>
      <trkpt lat="56.799940" lon="-5.045000"><ele>600.0</ele><time>2026-05-12T08:24:45Z</time></trkpt>
      <trkpt lat="56.800060" lon="-5.045000"><ele>600.0</ele><time>2026-05-12T08:25:00Z</time></trkpt>
      <trkpt lat="56.800181" lon="-5.045000"><ele>599.9</ele><time>2026-05-12T08:25:15Z</time></trkpt>
      <trkpt lat="56.800302" lon="-5.045000"><ele>599.8</ele><time>2026-05-12T08:25:30Z</time></trkpt>
      <trkpt lat="56.800422" lon="-5.045000"><ele>599.5</ele><time>2026-05-12T08:25:45Z</time></trkpt>
      <trkpt lat="56.800543" lon="-5.045000"><ele>599.2</ele><time>2026-05-12T08:26:00Z</time></trkpt>
      <trkpt lat="56.800663" lon="-5.045000"><ele>598.9</ele><time>2026-05-12T08:26:15Z</time></trkpt>
      <trkpt lat="56.800784" lon="-5.045000"><ele>598.4</ele><time>2026-05-12T08:26:30Z</time></trkpt>
      <trkpt lat="56.800905" lon="-5.045000"><ele>597.9</ele><time>2026-05-12T08:26:45Z</time></trkpt>
      <trkpt lat="56.801025" lon="-5.045000"><ele>597.3</ele><time>2026-05-12T08:27:00Z</time></trkpt>
      <trkpt lat="56.801146" lon="-5.045000"><ele>596.6</ele><time>2026-05-12T08:27:15Z</time></trkpt>
      <trkpt lat="56.801266" lon="-5.045000"><ele>595.9</ele><time>2026-05-12T08:27:30Z</time></trkpt>
      <trkpt lat="56.801387" lon="-5.045000"><ele>595.1</ele><time>2026-05-12T08:27:45Z</time></trkpt>
      <trkpt lat="56.801508" lon="-5.045000"><ele>594.2</ele><time>2026-05-12T08:28:00Z</time></trkpt>
      <trkpt lat="56.801628" lon="-5.045000"><ele>593.2</ele><time>2026-05-12T08:28:15Z</time></trkpt>
      <trkpt lat="56.801749" lon="-5.045000"><ele>592.2</ele><time>2026-05-12T08:28:30Z</time></trkpt>
      <trkpt lat="56.801869" lon="-5.045000"><ele>591.1</ele><time>2026-05-12T08:28:45Z</time></trkpt>
      <trkpt lat="56.801990" lon="-5.045000"><ele>589.9</ele><time>2026-05-12T08:29:00Z</time></trkpt>
      <trkpt lat="56.802111" lon="-5.045000"><ele>588.6</ele><time>2026-05-12T08:29:15Z</time></trkpt>
      <trkpt lat="56.802231" lon="-5.045000"><ele>587.3</ele><time>2026-05-12T08:29:30Z</time></trkpt>
      <trkpt lat="56.802352" lon="-5.045000"><ele>585.9</ele><time>2026-05-12T08:29:45Z</time></trkpt>
      <trkpt lat="56.802472" lon="-5.045000"><ele>584.4</ele><time>2026-05-12T08:30:00Z</time></trkpt>
      <trkpt lat="56.802593" lon="-5.045000"><ele>582.9</ele><time>2026-05-12T08:30:15Z</time></trkpt>
      <trkpt lat="56.802714" lon="-5.045000"><ele>581.3</ele><time>2026-05-12T08:30:30Z</time></trkpt>
      <trkpt lat="56.802834" lon="-5.045000"><ele>579.6</ele><time>2026-05-12T08:30:45Z</time></trkpt>
      <trkpt lat="56.802955" lon="-5.045000"><ele>577.8</ele><time>2026-05-12T08:31:00Z</time></trkpt>
      <trkpt lat="56.803075" lon="-5.045000"><ele>576.0</ele><time>2026-05-12T08:31:15Z</time></trkpt>
      <trkpt lat="56.803196" lon="-5.045000"><ele>574.1</ele><time>2026-05-12T08:31:30Z</time></trkpt>
      <trkpt lat="56.803317" lon="-5.045000"><ele>572.2</ele><time>2026-05-12T08:31:45Z</time></trkpt>
      <trkpt lat="56.803437" lon="-5.045000"><ele>570.1</ele><time>2026-05-12T08:32:00Z</time></trkpt>
      <trkpt lat="56.803558" lon="-5.045000"><ele>568.1</ele><time>2026-05-12T08:32:15Z</time></trkpt>
      <trkpt lat="56.803678" lon="-5.045000"><ele>565.9</ele><time>2026-05-12T08:32:30Z</time></trkpt>
      <trkpt lat="56.803799" lon="-5.045000"><ele>563.7</ele><time>2026-05-12T08:32:45Z</time></trkpt>
      <trkpt lat="56.803920" lon="-5.045000"><ele>561.4</ele><time>2026-05-12T08:33:00Z</time></trkpt>
      <trkpt lat="56.804040" lon="-5.045000"><ele>559.0</ele><time>2026-05-12T08:33:15Z</time></trkpt>
      <trkpt lat="56.804161" lon="-5.045000"><ele>556.6</ele><time>2026-05-12T08:33:30Z</time></trkpt>
      <trkpt lat="56.804281" lon="-5.045000"><ele>554.1</ele><time>2026-05-12T08:33:45Z</time></trkpt>
      <trkpt lat="56.804402" lon="-5.045000"><ele>551.6</ele><time>2026-05-12T08:34:00Z</time></trkpt>
      <trkpt lat="56.804523" lon="-5.045000"><ele>548.9</ele><time>2026-05-12T08:34:15Z</time></trkpt>
      <trkpt lat="56.804643" lon="-5.045000"><ele>546.3</ele><time>2026-05-12T08:34:30Z</time></trkpt>
      <trkpt lat="56.804764" lon="-5.045000"><ele>543.5</ele><time>2026-05-12T08:34:45Z</time></trkpt>
      <trkpt lat="56.804884" lon="-5.045000"><ele>540.7</ele><time>2026-05-12T08:35:00Z</time></trkpt>
      <trkpt lat="56.805005" lon="-5.045000"><ele>537.9</ele><time>2026-05-12T08:35:15Z</time></trkpt>
      <trkpt lat="56.805126" lon="-5.045000"><ele>535.0</ele><time>2026-05-12T08:35:30Z</time></trkpt>
      <trkpt lat="56.805246" lon="-5.045000"><ele>532.0</ele><time>2026-05-12T08:35:45Z</time></trkpt>
      <trkpt lat="56.805367" lon="-5.045000"><ele>529.0</ele><time>2026-05-12T08:36:00Z</time></trkpt>
      <trkpt lat="56.805487" lon="-5.045000"><ele>525.9</ele><time>2026-05-12T08:36:15Z</time></trkpt>
      <trkpt lat="56.805608" lon="-5.045000"><ele>522.7</ele><time>2026-05-12T08:36:30Z</time></trkpt>
      <trkpt lat="56.805729" lon="-5.045000"><ele>519.5</ele><time>2026-05-12T08:36:45Z</time></trkpt>
      <trkpt lat="56.805849" lon="-5.045000"><ele>516.3</ele><time>2026-05-12T08:37:00Z</time></trkpt>
      <trkpt lat="56.805970" lon="-5.045000"><ele>513.0</ele><time>2026-05-12T08:37:15Z</time></trkpt>
      <trkpt lat="56.806090" lon="-5.045000"><ele>509.6</ele><time>2026-05-12T08:37:30Z</time></trkpt>
      <trkpt lat="56.806211" lon="-5.045000"><ele>506.2</ele><time>2026-05-12T08:37:45Z</time></trkpt>
      <trkpt lat="56.806332" lon="-5.045000"><ele>502.7</ele><time>2026-05-12T08:38:00Z</time></trkpt>
      <trkpt lat="56.806452" lon="-5.045000"><ele>499.2</ele><time>2026-05-12T08:38:15Z</time></trkpt>
      <trkpt lat="56.806573" lon="-5.045000"><ele>495.6</ele><time>2026-05-12T08:38:30Z</time></trkpt>
      <trkpt lat="56.806693" lon="-5.045000"><ele>492.0</ele><time>2026-05-12T08:38:45Z</time></trkpt>
      <trkpt lat="56.806814" lon="-5.045000"><ele>488.4</ele><time>2026-05-12T08:39:00Z</time></trkpt>
      <trkpt lat="56.806935" lon="-5.045000"><ele>484.7</ele><time>2026-05-12T08:39:15Z</time></trkpt>
      <trkpt lat="56.807055" lon="-5.045000"><ele>480.9</ele><time>2026-05-12T08:39:30Z</time></trkpt>
      <trkpt lat="56.807176" lon="-5.045000"><ele>477.1</ele><time>2026-05-12T08:39:45Z</time></trkpt>
      <trkpt lat="56.807296" lon="-5.045000"><ele>473.3</ele><time>2026-05-12T08:40:00Z</time></trkpt>
      <trkpt lat="56.807417" lon="-5.045000"><ele>469.4</ele><time>2026-05-12T08:40:15Z</time></trkpt>
      <trkpt lat="56.807538" lon="-5.045000"><ele>465.4</ele><time>2026-05-12T08:40:30Z</time></trkpt>
      <trkpt lat="56.807658" lon="-5.045000"><ele>461.5</ele><time>2026-05-12T08:40:45Z</time></trkpt>
      <trkpt lat="56.807779" lon="-5.045000"><ele>457.5</ele><time>2026-05-12T08:41:00Z</time></trkpt>
      <trkpt lat="56.807899" lon="-5.045000"><ele>453.4</ele><time>2026-05-12T08:41:15Z</time></trkpt>
      <trkpt lat="56.808020" lon="-5.045000"><ele>449.3</ele><time>2026-05-12T08:41:30Z</time></trkpt>
      <trkpt lat="56.808141" lon="-5.045000"><ele>445.2</ele><time>2026-05-12T08:41:45Z</time></trkpt>
      <trkpt lat="56.808261" lon="-5.045000"><ele>441.0</ele><time>2026-05-12T08:42:00Z</time></trkpt>
      <trkpt lat="56.808382" lon="-5.045000"><ele>436.8</ele><time>2026-05-12T08:42:15Z</time></trkpt>
      <trkpt lat="56.808503" lon="-5.045000"><ele>432.6</ele><time>2026-05-12T08:42:30Z</time></trkpt>
      <trkpt lat="56.808623" lon="-5.045000"><ele>428.3</ele><time>2026-05-12T08:42:45Z</time></trkpt>
      <trkpt lat="56.808744" lon="-5.045000"><ele>424.0</ele><time>2026-05-12T08:43:00Z</time></trkpt>
      <trkpt lat="56.808864" lon="-5.045000"><ele>419.7</ele><time>2026-05-12T08:43:15Z</time></trkpt>
      <trkpt lat="56.808985" lon="-5.045000"><ele>415.4</ele><time>2026-05-12T08:43:30Z</time></trkpt>
      <trkpt lat="56.809106" lon="-5.045000"><ele>411.0</ele><time>2026-05-12T08:43:45Z</time></trkpt>
      <trkpt lat="56.809226" lon="-5.045000"><ele>406.6</ele><time>2026-05-12T08:44:00Z</time></trkpt>
      <trkpt lat="56.809347" lon="-5.045000"><ele>402.1</ele><time>2026-05-12T08:44:15Z</time></trkpt>
      <trkpt lat="56.809467" lon="-5.045000"><ele>397.6</ele><time>2026-05-12T08:44:30Z</time></trkpt>
      <trkpt lat="56.809588" lon="-5.045000"><ele>393.2</ele><time>2026-05-12T08:44:45Z</time></trkpt>
      <trkpt lat="56.809709" lon="-5.045000"><ele>388.6</ele><time>2026-05-12T08:45:00Z</time></trkpt>
      <trkpt lat="56.809829" lon="-5.045000"><ele>384.1</ele><time>2026-05-12T08:45:15Z</time></trkpt>
      <trkpt lat="56.809950" lon="-5.045000"><ele>379.6</ele><time>2026-05-12T08:45:30Z</time></trkpt>
      <trkpt lat="56.810070" lon="-5.045000"><ele>375.0</ele><time>2026-05-12T08:45:45Z</time></trkpt>
      <trkpt lat="56.810191" lon="-5.045000"><ele>370.4</ele><time>2026-05-12T08:46:00Z</time></trkpt>
      <trkpt lat="56.810312" lon="-5.045000"><ele>365.8</ele><time>2026-05-12T08:46:15Z</time></trkpt>
      <trkpt lat="56.810432" lon="-5.045000"><ele>361.1</ele><time>2026-05-12T08:46:30Z</time></trkpt>
      <trkpt lat="56.810553" lon="-5.045000"><ele>356.5</ele><time>2026-05-12T08:46:45Z</time></trkpt>
      <trkpt lat="56.810673" lon="-5.045000"><ele>351.8</ele><time>2026-05-12T08:47:00Z</time></trkpt>
      <trkpt lat="56.810794" lon="-5.045000"><ele>347.2</ele><time>2026-05-12T08:47:15Z</time></trkpt>
      <trkpt lat="56.810915" lon="-5.045000"><ele>342.5</ele><time>2026-05-12T08:47:30Z</time></trkpt>
      <trkpt lat="56.811035" lon="-5.045000"><ele>337.8</ele><time>2026-05-12T08:47:45Z</time></trkpt>
      <trkpt lat="56.811156" lon="-5.045000"><ele>333.1</ele><time>2026-05-12T08:48:00Z</time></trkpt>
      <trkpt lat="56.811276" lon="-5.045000"><ele>328.4</ele><time>2026-05-12T08:48:15Z</time></trkpt>
      <trkpt lat="56.811397" lon="-5.045000"><ele>323.7</ele><time>2026-05-12T08:48:30Z</time></trkpt>
      <trkpt lat="56.811518" lon="-5.045000"><ele>318.9</ele><time>2026-05-12T08:48:45Z</time></trkpt>
      <trkpt lat="56.811638" lon="-5.045000"><ele>314.2</ele><time>2026-05-12T08:49:00Z</time></trkpt>
      <trkpt lat="56.811759" lon="-5.045000"><ele>309.5</ele><time>2026-05-12T08:49:15Z</time></trkpt>
      <trkpt lat="56.811879" lon="-5.045000"><ele>304.7</ele><time>2026-05-12T08:49:30Z</time></trkpt>
      <trkpt lat="56.812000" lon="-5.045000"><ele>300.0</ele><time>2026-05-12T08:49:45Z</time></trkpt>
    </trkseg>
  </trk>
</gpx>
