<?xml version="1.0" encoding="UTF-8"?>
<gpx version="1.1" creator="gpx2print sample" xmlns="http://www.topografix.com/GPX/1/1">
  <trk>
    <name>Ben Nevis Mountain Track</name>
    <desc>Invented track on a real hill, for testing gpx2print. Not a real recording.</desc>
    <trkseg>
      <trkpt lat="56.804674" lon="-5.096797"><ele>225.3</ele><time>2026-05-12T08:00:00Z</time></trkpt>
      <trkpt lat="56.804743" lon="-5.096668"><ele>226.5</ele><time>2026-05-12T08:00:12Z</time></trkpt>
      <trkpt lat="56.804761" lon="-5.096503"><ele>227.3</ele><time>2026-05-12T08:00:24Z</time></trkpt>
      <trkpt lat="56.804799" lon="-5.096385"><ele>228.2</ele><time>2026-05-12T08:00:36Z</time></trkpt>
      <trkpt lat="56.804801" lon="-5.096264"><ele>228.9</ele><time>2026-05-12T08:00:48Z</time></trkpt>
      <trkpt lat="56.804817" lon="-5.096164"><ele>229.7</ele><time>2026-05-12T08:01:00Z</time></trkpt>
      <trkpt lat="56.804884" lon="-5.096044"><ele>230.6</ele><time>2026-05-12T08:01:12Z</time></trkpt>
      <trkpt lat="56.804894" lon="-5.095863"><ele>231.5</ele><time>2026-05-12T08:01:24Z</time></trkpt>
      <trkpt lat="56.804929" lon="-5.095763"><ele>232.4</ele><time>2026-05-12T08:01:36Z</time></trkpt>
      <trkpt lat="56.804949" lon="-5.095617"><ele>233.0</ele><time>2026-05-12T08:01:48Z</time></trkpt>
      <trkpt lat="56.804965" lon="-5.095499"><ele>233.8</ele><time>2026-05-12T08:02:00Z</time></trkpt>
      <trkpt lat="56.805003" lon="-5.095352"><ele>235.0</ele><time>2026-05-12T08:02:12Z</time></trkpt>
      <trkpt lat="56.805003" lon="-5.095235"><ele>235.7</ele><time>2026-05-12T08:02:24Z</time></trkpt>
      <trkpt lat="56.805102" lon="-5.095086"><ele>236.3</ele><time>2026-05-12T08:02:36Z</time></trkpt>
      <trkpt lat="56.805056" lon="-5.094950"><ele>237.1</ele><time>2026-05-12T08:02:48Z</time></trkpt>
      <trkpt lat="56.805078" lon="-5.094851"><ele>237.8</ele><time>2026-05-12T08:03:00Z</time></trkpt>
      <trkpt lat="56.805123" lon="-5.094713"><ele>238.8</ele><time>2026-05-12T08:03:12Z</time></trkpt>
      <trkpt lat="56.805146" lon="-5.094561"><ele>239.6</ele><time>2026-05-12T08:03:24Z</time></trkpt>
      <trkpt lat="56.805220" lon="-5.094454"><ele>240.7</ele><time>2026-05-12T08:03:36Z</time></trkpt>
      <trkpt lat="56.805208" lon="-5.094316"><ele>241.9</ele><time>2026-05-12T08:03:48Z</time></trkpt>
      <trkpt lat="56.805249" lon="-5.094160"><ele>242.9</ele><time>2026-05-12T08:04:00Z</time></trkpt>
      <trkpt lat="56.805317" lon="-5.094046"><ele>243.9</ele><time>2026-05-12T08:04:12Z</time></trkpt>
      <trkpt lat="56.805285" lon="-5.093909"><ele>244.9</ele><time>2026-05-12T08:04:24Z</time></trkpt>
      <trkpt lat="56.805349" lon="-5.093824"><ele>245.5</ele><time>2026-05-12T08:04:36Z</time></trkpt>
      <trkpt lat="56.805323" lon="-5.093644"><ele>246.4</ele><time>2026-05-12T08:04:48Z</time></trkpt>
      <trkpt lat="56.805367" lon="-5.093509"><ele>247.1</ele><time>2026-05-12T08:05:00Z</time></trkpt>
      <trkpt lat="56.805411" lon="-5.093418"><ele>248.0</ele><time>2026-05-12T08:05:12Z</time></trkpt>
      <trkpt lat="56.805440" lon="-5.093285"><ele>248.6</ele><time>2026-05-12T08:05:24Z</time></trkpt>
      <trkpt lat="56.805403" lon="-5.093150"><ele>249.5</ele><time>2026-05-12T08:05:36Z</time></trkpt>
      <trkpt lat="56.805462" lon="-5.093016"><ele>250.4</ele><time>2026-05-12T08:05:48Z</time></trkpt>
      <trkpt lat="56.805469" lon="-5.092891"><ele>251.4</ele><time>2026-05-12T08:06:00Z</time></trkpt>
      <trkpt lat="56.805538" lon="-5.092784"><ele>252.5</ele><time>2026-05-12T08:06:12Z</time></trkpt>
      <trkpt lat="56.805553" lon="-5.092640"><ele>253.4</ele><time>2026-05-12T08:06:24Z</time></trkpt>
      <trkpt lat="56.805572" lon="-5.092498"><ele>253.9</ele><time>2026-05-12T08:06:36Z</time></trkpt>
      <trkpt lat="56.805626" lon="-5.092407"><ele>254.6</ele><time>2026-05-12T08:06:48Z</time></trkpt>
      <trkpt lat="56.805582" lon="-5.092267"><ele>255.5</ele><time>2026-05-12T08:07:00Z</time></trkpt>
      <trkpt lat="56.805668" lon="-5.092152"><ele>256.1</ele><time>2026-05-12T08:07:12Z</time></trkpt>
      <trkpt lat="56.805640" lon="-5.092002"><ele>257.0</ele><time>2026-05-12T08:07:24Z</time></trkpt>
      <trkpt lat="56.805673" lon="-5.091905"><ele>257.9</ele><time>2026-05-12T08:07:36Z</time></trkpt>
      <trkpt lat="56.805714" lon="-5.091758"><ele>258.6</ele><time>2026-05-12T08:07:48Z</time></trkpt>
      <trkpt lat="56.805738" lon="-5.091640"><ele>259.4</ele><time>2026-05-12T08:08:00Z</time></trkpt>
      <trkpt lat="56.805785" lon="-5.091512"><ele>260.5</ele><time>2026-05-12T08:08:12Z</time></trkpt>
      <trkpt lat="56.805782" lon="-5.091388"><ele>261.3</ele><time>2026-05-12T08:08:24Z</time></trkpt>
      <trkpt lat="56.805774" lon="-5.091279"><ele>262.2</ele><time>2026-05-12T08:08:36Z</time></trkpt>
      <trkpt lat="56.805831" lon="-5.091097"><ele>262.9</ele><time>2026-05-12T08:08:48Z</time></trkpt>
      <trkpt lat="56.805846" lon="-5.090984"><ele>263.6</ele><time>2026-05-12T08:09:00Z</time></trkpt>
      <trkpt lat="56.805882" lon="-5.090882"><ele>264.5</ele><time>2026-05-12T08:09:12Z</time></trkpt>
      <trkpt lat="56.805895" lon="-5.090739"><ele>265.3</ele><time>2026-05-12T08:09:24Z</time></trkpt>
      <trkpt lat="56.805939" lon="-5.090643"><ele>266.0</ele><time>2026-05-12T08:09:36Z</time></trkpt>
      <trkpt lat="56.805976" lon="-5.090480"><ele>266.5</ele><time>2026-05-12T08:09:48Z</time></trkpt>
      <trkpt lat="56.805969" lon="-5.090427"><ele>267.8</ele><time>2026-05-12T08:10:00Z</time></trkpt>
      <trkpt lat="56.805992" lon="-5.090277"><ele>268.4</ele><time>2026-05-12T08:10:12Z</time></trkpt>
      <trkpt lat="56.806012" lon="-5.090159"><ele>269.3</ele><time>2026-05-12T08:10:24Z</time></trkpt>
      <trkpt lat="56.806063" lon="-5.090034"><ele>270.4</ele><time>2026-05-12T08:10:36Z</time></trkpt>
      <trkpt lat="56.806054" lon="-5.089897"><ele>271.3</ele><time>2026-05-12T08:10:48Z</time></trkpt>
      <trkpt lat="56.806033" lon="-5.089773"><ele>271.9</ele><time>2026-05-12T08:11:00Z</time></trkpt>
      <trkpt lat="56.806079" lon="-5.089684"><ele>272.8</ele><time>2026-05-12T08:11:12Z</time></trkpt>
      <trkpt lat="56.806140" lon="-5.089569"><ele>273.8</ele><time>2026-05-12T08:11:24Z</time></trkpt>
      <trkpt lat="56.806153" lon="-5.089436"><ele>274.5</ele><time>2026-05-12T08:11:36Z</time></trkpt>
      <trkpt lat="56.806183" lon="-5.089310"><ele>275.3</ele><time>2026-05-12T08:11:48Z</time></trkpt>
      <trkpt lat="56.806147" lon="-5.089191"><ele>276.1</ele><time>2026-05-12T08:12:00Z</time></trkpt>
      <trkpt lat="56.806197" lon="-5.089085"><ele>277.0</ele><time>2026-05-12T08:12:12Z</time></trkpt>
      <trkpt lat="56.806237" lon="-5.088963"><ele>277.8</ele><time>2026-05-12T08:12:24Z</time></trkpt>
      <trkpt lat="56.806253" lon="-5.088852"><ele>279.0</ele><time>2026-05-12T08:12:36Z</time></trkpt>
      <trkpt lat="56.806245" lon="-5.088735"><ele>279.8</ele><time>2026-05-12T08:12:48Z</time></trkpt>
      <trkpt lat="56.806277" lon="-5.088612"><ele>280.6</ele><time>2026-05-12T08:13:00Z</time></trkpt>
      <trkpt lat="56.806298" lon="-5.088487"><ele>281.4</ele><time>2026-05-12T08:13:12Z</time></trkpt>
      <trkpt lat="56.806298" lon="-5.088373"><ele>282.5</ele><time>2026-05-12T08:13:24Z</time></trkpt>
      <trkpt lat="56.806334" lon="-5.088234"><ele>283.4</ele><time>2026-05-12T08:13:36Z</time></trkpt>
      <trkpt lat="56.806346" lon="-5.088175"><ele>284.2</ele><time>2026-05-12T08:13:48Z</time></trkpt>
      <trkpt lat="56.806363" lon="-5.088054"><ele>285.2</ele><time>2026-05-12T08:14:00Z</time></trkpt>
      <trkpt lat="56.806398" lon="-5.087938"><ele>286.3</ele><time>2026-05-12T08:14:12Z</time></trkpt>
      <trkpt lat="56.806422" lon="-5.087784"><ele>287.1</ele><time>2026-05-12T08:14:24Z</time></trkpt>
      <trkpt lat="56.806413" lon="-5.087725"><ele>288.0</ele><time>2026-05-12T08:14:36Z</time></trkpt>
      <trkpt lat="56.806467" lon="-5.087578"><ele>288.7</ele><time>2026-05-12T08:14:48Z</time></trkpt>
      <trkpt lat="56.806472" lon="-5.087457"><ele>289.5</ele><time>2026-05-12T08:15:00Z</time></trkpt>
      <trkpt lat="56.806484" lon="-5.087342"><ele>290.3</ele><time>2026-05-12T08:15:12Z</time></trkpt>
      <trkpt lat="56.806476" lon="-5.087283"><ele>291.0</ele><time>2026-05-12T08:15:24Z</time></trkpt>
      <trkpt lat="56.806508" lon="-5.087112"><ele>291.8</ele><time>2026-05-12T08:15:36Z</time></trkpt>
      <trkpt lat="56.806540" lon="-5.087023"><ele>292.6</ele><time>2026-05-12T08:15:48Z</time></trkpt>
      <trkpt lat="56.806513" lon="-5.086959"><ele>293.6</ele><time>2026-05-12T08:16:00Z</time></trkpt>
      <trkpt lat="56.806508" lon="-5.086821"><ele>294.4</ele><time>2026-05-12T08:16:12Z</time></trkpt>
      <trkpt lat="56.806593" lon="-5.086707"><ele>295.3</ele><time>2026-05-12T08:16:24Z</time></trkpt>
      <trkpt lat="56.806590" lon="-5.086630"><ele>296.3</ele><time>2026-05-12T08:16:36Z</time></trkpt>
      <trkpt lat="56.806571" lon="-5.086528"><ele>297.1</ele><time>2026-05-12T08:16:48Z</time></trkpt>
      <trkpt lat="56.806601" lon="-5.086406"><ele>297.8</ele><time>2026-05-12T08:17:00Z</time></trkpt>
      <trkpt lat="56.806621" lon="-5.086285"><ele>298.4</ele><time>2026-05-12T08:17:12Z</time></trkpt>
      <trkpt lat="56.806630" lon="-5.086198"><ele>299.2</ele><time>2026-05-12T08:17:24Z</time></trkpt>
      <trkpt lat="56.806657" lon="-5.086086"><ele>299.8</ele><time>2026-05-12T08:17:36Z</time></trkpt>
      <trkpt lat="56.806671" lon="-5.085992"><ele>300.8</ele><time>2026-05-12T08:17:48Z</time></trkpt>
      <trkpt lat="56.806693" lon="-5.085864"><ele>301.4</ele><time>2026-05-12T08:18:00Z</time></trkpt>
      <trkpt lat="56.806663" lon="-5.085765"><ele>299.7</ele><time>2026-05-12T08:18:12Z</time></trkpt>
      <trkpt lat="56.806705" lon="-5.085686"><ele>298.1</ele><time>2026-05-12T08:18:24Z</time></trkpt>
      <trkpt lat="56.806703" lon="-5.085557"><ele>296.3</ele><time>2026-05-12T08:18:36Z</time></trkpt>
      <trkpt lat="56.806726" lon="-5.085451"><ele>295.0</ele><time>2026-05-12T08:18:48Z</time></trkpt>
      <trkpt lat="56.806730" lon="-5.085354"><ele>293.5</ele><time>2026-05-12T08:19:00Z</time></trkpt>
      <trkpt lat="56.806737" lon="-5.085252"><ele>291.7</ele><time>2026-05-12T08:19:12Z</time></trkpt>
      <trkpt lat="56.806745" lon="-5.085173"><ele>290.0</ele><time>2026-05-12T08:19:24Z</time></trkpt>
      <trkpt lat="56.806817" lon="-5.085060"><ele>288.5</ele><time>2026-05-12T08:19:36Z</time></trkpt>
      <trkpt lat="56.806796" lon="-5.084922"><ele>286.8</ele><time>2026-05-12T08:19:48Z</time></trkpt>
      <trkpt lat="56.806785" lon="-5.084847"><ele>285.1</ele><time>2026-05-12T08:20:00Z</time></trkpt>
      <trkpt lat="56.806808" lon="-5.084780"><ele>283.5</ele><time>2026-05-12T08:20:12Z</time></trkpt>
      <trkpt lat="56.806779" lon="-5.084676"><ele>281.9</ele><time>2026-05-12T08:20:24Z</time></trkpt>
      <trkpt lat="56.806804" lon="-5.084585"><ele>280.0</ele><time>2026-05-12T08:20:36Z</time></trkpt>
      <trkpt lat="56.806810" lon="-5.084468"><ele>278.2</ele><time>2026-05-12T08:20:48Z</time></trkpt>
      <trkpt lat="56.806845" lon="-5.084393"><ele>276.8</ele><time>2026-05-12T08:21:00Z</time></trkpt>
      <trkpt lat="56.806813" lon="-5.084261"><ele>275.3</ele><time>2026-05-12T08:21:12Z</time></trkpt>
      <trkpt lat="56.806821" lon="-5.084136"><ele>273.7</ele><time>2026-05-12T08:21:24Z</time></trkpt>
      <trkpt lat="56.806856" lon="-5.084045"><ele>272.4</ele><time>2026-05-12T08:21:36Z</time></trkpt>
      <trkpt lat="56.806832" lon="-5.083964"><ele>270.6</ele><time>2026-05-12T08:21:48Z</time></trkpt>
      <trkpt lat="56.806874" lon="-5.083853"><ele>268.7</ele><time>2026-05-12T08:22:00Z</time></trkpt>
      <trkpt lat="56.806887" lon="-5.083809"><ele>267.0</ele><time>2026-05-12T08:22:12Z</time></trkpt>
      <trkpt lat="56.806870" lon="-5.083689"><ele>265.4</ele><time>2026-05-12T08:22:24Z</time></trkpt>
      <trkpt lat="56.806956" lon="-5.083598"><ele>263.7</ele><time>2026-05-12T08:22:36Z</time></trkpt>
      <trkpt lat="56.806898" lon="-5.083506"><ele>262.3</ele><time>2026-05-12T08:22:48Z</time></trkpt>
      <trkpt lat="56.806874" lon="-5.083428"><ele>260.4</ele><time>2026-05-12T08:23:00Z</time></trkpt>
      <trkpt lat="56.806880" lon="-5.083338"><ele>258.8</ele><time>2026-05-12T08:23:12Z</time></trkpt>
      <trkpt lat="56.806875" lon="-5.083275"><ele>257.3</ele><time>2026-05-12T08:23:24Z</time></trkpt>
      <trkpt lat="56.806927" lon="-5.083167"><ele>256.0</ele><time>2026-05-12T08:23:36Z</time></trkpt>
      <trkpt lat="56.806884" lon="-5.083034"><ele>254.4</ele><time>2026-05-12T08:23:48Z</time></trkpt>
      <trkpt lat="56.806895" lon="-5.082946"><ele>252.6</ele><time>2026-05-12T08:24:00Z</time></trkpt>
      <trkpt lat="56.806882" lon="-5.082895"><ele>250.9</ele><time>2026-05-12T08:24:12Z</time></trkpt>
      <trkpt lat="56.806908" lon="-5.082810"><ele>249.1</ele><time>2026-05-12T08:24:24Z</time></trkpt>
      <trkpt lat="56.806891" lon="-5.082710"><ele>247.6</ele><time>2026-05-12T08:24:36Z</time></trkpt>
      <trkpt lat="56.806909" lon="-5.082653"><ele>246.0</ele><time>2026-05-12T08:24:48Z</time></trkpt>
      <trkpt lat="56.806887" lon="-5.082544"><ele>244.5</ele><time>2026-05-12T08:25:00Z</time></trkpt>
      <trkpt lat="56.806915" lon="-5.082455"><ele>242.7</ele><time>2026-05-12T08:25:12Z</time></trkpt>
      <trkpt lat="56.806928" lon="-5.082374"><ele>241.1</ele><time>2026-05-12T08:25:24Z</time></trkpt>
      <trkpt lat="56.806874" lon="-5.082323"><ele>239.4</ele><time>2026-05-12T08:25:36Z</time></trkpt>
      <trkpt lat="56.806903" lon="-5.082211"><ele>237.9</ele><time>2026-05-12T08:25:48Z</time></trkpt>
      <trkpt lat="56.806898" lon="-5.082134"><ele>236.1</ele><time>2026-05-12T08:26:00Z</time></trkpt>
      <trkpt lat="56.806899" lon="-5.082012"><ele>234.6</ele><time>2026-05-12T08:26:12Z</time></trkpt>
      <trkpt lat="56.806899" lon="-5.081932"><ele>232.9</ele><time>2026-05-12T08:26:24Z</time></trkpt>
      <trkpt lat="56.806877" lon="-5.081839"><ele>231.3</ele><time>2026-05-12T08:26:36Z</time></trkpt>
      <trkpt lat="56.806880" lon="-5.081787"><ele>229.6</ele><time>2026-05-12T08:26:48Z</time></trkpt>
      <trkpt lat="56.806918" lon="-5.081688"><ele>227.6</ele><time>2026-05-12T08:27:00Z</time></trkpt>
      <trkpt lat="56.806935" lon="-5.081612"><ele>225.9</ele><time>2026-05-12T08:27:12Z</time></trkpt>
      <trkpt lat="56.806897" lon="-5.081498"><ele>224.3</ele><time>2026-05-12T08:27:24Z</time></trkpt>
      <trkpt lat="56.806867" lon="-5.081393"><ele>222.7</ele><time>2026-05-12T08:27:36Z</time></trkpt>
      <trkpt lat="56.806882" lon="-5.081352"><ele>221.2</ele><time>2026-05-12T08:27:48Z</time></trkpt>
      <trkpt lat="56.806856" lon="-5.081252"><ele>219.8</ele><time>2026-05-12T08:28:00Z</time></trkpt>
      <trkpt lat="56.806884" lon="-5.081175"><ele>217.9</ele><time>2026-05-12T08:28:12Z</time></trkpt>
      <trkpt lat="56.806881" lon="-5.081099"><ele>216.1</ele><time>2026-05-12T08:28:24Z</time></trkpt>
      <trkpt lat="56.806844" lon="-5.081019"><ele>214.6</ele><time>2026-05-12T08:28:36Z</time></trkpt>
      <trkpt lat="56.806842" lon="-5.080946"><ele>212.9</ele><time>2026-05-12T08:28:48Z</time></trkpt>
      <trkpt lat="56.806842" lon="-5.080864"><ele>211.3</ele><time>2026-05-12T08:29:00Z</time></trkpt>
      <trkpt lat="56.806861" lon="-5.080768"><ele>209.5</ele><time>2026-05-12T08:29:12Z</time></trkpt>
      <trkpt lat="56.806875" lon="-5.080711"><ele>207.8</ele><time>2026-05-12T08:29:24Z</time></trkpt>
      <trkpt lat="56.806784" lon="-5.080615"><ele>206.0</ele><time>2026-05-12T08:29:36Z</time></trkpt>
      <trkpt lat="56.806789" lon="-5.080593"><ele>204.4</ele><time>2026-05-12T08:29:48Z</time></trkpt>
      <trkpt lat="56.806753" lon="-5.080466"><ele>202.9</ele><time>2026-05-12T08:30:00Z</time></trkpt>
      <trkpt lat="56.806806" lon="-5.080363"><ele>201.1</ele><time>2026-05-12T08:30:12Z</time></trkpt>
      <trkpt lat="56.806801" lon="-5.080308"><ele>199.5</ele><time>2026-05-12T08:30:24Z</time></trkpt>
      <trkpt lat="56.806783" lon="-5.080203"><ele>197.7</ele><time>2026-05-12T08:30:36Z</time></trkpt>
      <trkpt lat="56.806739" lon="-5.080144"><ele>195.7</ele><time>2026-05-12T08:30:48Z</time></trkpt>
      <trkpt lat="56.806692" lon="-5.080080"><ele>194.0</ele><time>2026-05-12T08:31:00Z</time></trkpt>
      <trkpt lat="56.806767" lon="-5.080030"><ele>192.5</ele><time>2026-05-12T08:31:12Z</time></trkpt>
      <trkpt lat="56.806721" lon="-5.079925"><ele>191.0</ele><time>2026-05-12T08:31:24Z</time></trkpt>
      <trkpt lat="56.806720" lon="-5.079791"><ele>189.2</ele><time>2026-05-12T08:31:36Z</time></trkpt>
      <trkpt lat="56.806706" lon="-5.079750"><ele>187.5</ele><time>2026-05-12T08:31:48Z</time></trkpt>
      <trkpt lat="56.806711" lon="-5.079707"><ele>185.8</ele><time>2026-05-12T08:32:00Z</time></trkpt>
      <trkpt lat="56.806698" lon="-5.079603"><ele>183.9</ele><time>2026-05-12T08:32:12Z</time></trkpt>
      <trkpt lat="56.806657" lon="-5.079511"><ele>182.0</ele><time>2026-05-12T08:32:24Z</time></trkpt>
      <trkpt lat="56.806635" lon="-5.079475"><ele>180.6</ele><time>2026-05-12T08:32:36Z</time></trkpt>
      <trkpt lat="56.806645" lon="-5.079367"><ele>179.0</ele><time>2026-05-12T08:32:48Z</time></trkpt>
      <trkpt lat="56.806639" lon="-5.079306"><ele>177.6</ele><time>2026-05-12T08:33:00Z</time></trkpt>
      <trkpt lat="56.806576" lon="-5.079190"><ele>176.1</ele><time>2026-05-12T08:33:12Z</time></trkpt>
      <trkpt lat="56.806597" lon="-5.079143"><ele>174.7</ele><time>2026-05-12T08:33:24Z</time></trkpt>
      <trkpt lat="56.806609" lon="-5.079067"><ele>172.6</ele><time>2026-05-12T08:33:36Z</time></trkpt>
      <trkpt lat="56.806562" lon="-5.078968"><ele>171.0</ele><time>2026-05-12T08:33:48Z</time></trkpt>
      <trkpt lat="56.806541" lon="-5.078894"><ele>169.2</ele><time>2026-05-12T08:34:00Z</time></trkpt>
      <trkpt lat="56.806515" lon="-5.078819"><ele>167.6</ele><time>2026-05-12T08:34:12Z</time></trkpt>
      <trkpt lat="56.806505" lon="-5.078774"><ele>165.8</ele><time>2026-05-12T08:34:24Z</time></trkpt>
      <trkpt lat="56.806504" lon="-5.078691"><ele>164.2</ele><time>2026-05-12T08:34:36Z</time></trkpt>
      <trkpt lat="56.806464" lon="-5.078591"><ele>162.8</ele><time>2026-05-12T08:34:48Z</time></trkpt>
      <trkpt lat="56.806468" lon="-5.078539"><ele>161.0</ele><time>2026-05-12T08:35:00Z</time></trkpt>
      <trkpt lat="56.806404" lon="-5.078410"><ele>159.2</ele><time>2026-05-12T08:35:12Z</time></trkpt>
      <trkpt lat="56.806424" lon="-5.078361"><ele>157.3</ele><time>2026-05-12T08:35:24Z</time></trkpt>
      <trkpt lat="56.806386" lon="-5.078303"><ele>155.8</ele><time>2026-05-12T08:35:36Z</time></trkpt>
      <trkpt lat="56.806375" lon="-5.078183"><ele>153.9</ele><time>2026-05-12T08:35:48Z</time></trkpt>
      <trkpt lat="56.806395" lon="-5.078146"><ele>152.3</ele><time>2026-05-12T08:36:00Z</time></trkpt>
      <trkpt lat="56.806368" lon="-5.078086"><ele>150.4</ele><time>2026-05-12T08:36:12Z</time></trkpt>
      <trkpt lat="56.806330" lon="-5.077983"><ele>149.0</ele><time>2026-05-12T08:36:24Z</time></trkpt>
      <trkpt lat="56.806337" lon="-5.077955"><ele>147.4</ele><time>2026-05-12T08:36:36Z</time></trkpt>
      <trkpt lat="56.806268" lon="-5.077850"><ele>145.7</ele><time>2026-05-12T08:36:48Z</time></trkpt>
      <trkpt lat="56.806279" lon="-5.077774"><ele>144.0</ele><time>2026-05-12T08:37:00Z</time></trkpt>
      <trkpt lat="56.806244" lon="-5.077703"><ele>142.4</ele><time>2026-05-12T08:37:12Z</time></trkpt>
      <trkpt lat="56.806228" lon="-5.077655"><ele>140.9</ele><time>2026-05-12T08:37:24Z</time></trkpt>
      <trkpt lat="56.806197" lon="-5.077537"><ele>139.2</ele><time>2026-05-12T08:37:36Z</time></trkpt>
      <trkpt lat="56.806183" lon="-5.077455"><ele>137.4</ele><time>2026-05-12T08:37:48Z</time></trkpt>
      <trkpt lat="56.806133" lon="-5.077386"><ele>135.6</ele><time>2026-05-12T08:38:00Z</time></trkpt>
      <trkpt lat="56.806152" lon="-5.077288"><ele>134.0</ele><time>2026-05-12T08:38:12Z</time></trkpt>
      <trkpt lat="56.806111" lon="-5.077232"><ele>132.6</ele><time>2026-05-12T08:38:24Z</time></trkpt>
      <trkpt lat="56.806102" lon="-5.077156"><ele>130.8</ele><time>2026-05-12T08:38:36Z</time></trkpt>
      <trkpt lat="56.806075" lon="-5.077081"><ele>128.8</ele><time>2026-05-12T08:38:48Z</time></trkpt>
      <trkpt lat="56.806065" lon="-5.077001"><ele>126.9</ele><time>2026-05-12T08:39:00Z</time></trkpt>
      <trkpt lat="56.806017" lon="-5.076927"><ele>125.5</ele><time>2026-05-12T08:39:12Z</time></trkpt>
      <trkpt lat="56.805956" lon="-5.076844"><ele>123.8</ele><time>2026-05-12T08:39:24Z</time></trkpt>
      <trkpt lat="56.805953" lon="-5.076768"><ele>122.3</ele><time>2026-05-12T08:39:36Z</time></trkpt>
      <trkpt lat="56.805933" lon="-5.076690"><ele>121.3</ele><time>2026-05-12T08:39:48Z</time></trkpt>
      <trkpt lat="56.805907" lon="-5.076620"><ele>120.1</ele><time>2026-05-12T08:40:00Z</time></trkpt>
      <trkpt lat="56.805895" lon="-5.076495"><ele>119.0</ele><time>2026-05-12T08:40:12Z</time></trkpt>
      <trkpt lat="56.805865" lon="-5.076466"><ele>118.1</ele><time>2026-05-12T08:40:24Z</time></trkpt>
      <trkpt lat="56.805826" lon="-5.076421"><ele>116.9</ele><time>2026-05-12T08:40:36Z</time></trkpt>
      <trkpt lat="56.805795" lon="-5.076341"><ele>116.1</ele><time>2026-05-12T08:40:48Z</time></trkpt>
      <trkpt lat="56.805791" lon="-5.076234"><ele>115.0</ele><time>2026-05-12T08:41:00Z</time></trkpt>
      <trkpt lat="56.805747" lon="-5.076166"><ele>114.1</ele><time>2026-05-12T08:41:12Z</time></trkpt>
      <trkpt lat="56.805712" lon="-5.076077"><ele>113.0</ele><time>2026-05-12T08:41:24Z</time></trkpt>
      <trkpt lat="56.805701" lon="-5.075973"><ele>112.1</ele><time>2026-05-12T08:41:36Z</time></trkpt>
      <trkpt lat="56.805635" lon="-5.075953"><ele>110.9</ele><time>2026-05-12T08:41:48Z</time></trkpt>
      <trkpt lat="56.805623" lon="-5.075836"><ele>109.6</ele><time>2026-05-12T08:42:00Z</time></trkpt>
      <trkpt lat="56.805588" lon="-5.075764"><ele>108.7</ele><time>2026-05-12T08:42:12Z</time></trkpt>
      <trkpt lat="56.805588" lon="-5.075687"><ele>107.6</ele><time>2026-05-12T08:42:24Z</time></trkpt>
      <trkpt lat="56.805533" lon="-5.075594"><ele>106.6</ele><time>2026-05-12T08:42:36Z</time></trkpt>
      <trkpt lat="56.805469" lon="-5.075520"><ele>105.3</ele><time>2026-05-12T08:42:48Z</time></trkpt>
      <trkpt lat="56.805450" lon="-5.075417"><ele>104.3</ele><time>2026-05-12T08:43:00Z</time></trkpt>
      <trkpt lat="56.805445" lon="-5.075350"><ele>103.0</ele><time>2026-05-12T08:43:12Z</time></trkpt>
      <trkpt lat="56.805408" lon="-5.075217"><ele>102.2</ele><time>2026-05-12T08:43:24Z</time></trkpt>
      <trkpt lat="56.805378" lon="-5.075212"><ele>101.0</ele><time>2026-05-12T08:43:36Z</time></trkpt>
      <trkpt lat="56.805352" lon="-5.075138"><ele>100.1</ele><time>2026-05-12T08:43:48Z</time></trkpt>
      <trkpt lat="56.805291" lon="-5.075010"><ele>99.1</ele><time>2026-05-12T08:44:00Z</time></trkpt>
      <trkpt lat="56.805292" lon="-5.074969"><ele>98.3</ele><time>2026-05-12T08:44:12Z</time></trkpt>
      <trkpt lat="56.805246" lon="-5.074844"><ele>97.2</ele><time>2026-05-12T08:44:24Z</time></trkpt>
      <trkpt lat="56.805213" lon="-5.074784"><ele>96.4</ele><time>2026-05-12T08:44:36Z</time></trkpt>
      <trkpt lat="56.805167" lon="-5.074665"><ele>95.2</ele><time>2026-05-12T08:44:48Z</time></trkpt>
      <trkpt lat="56.805154" lon="-5.074628"><ele>94.3</ele><time>2026-05-12T08:45:00Z</time></trkpt>
      <trkpt lat="56.805139" lon="-5.074519"><ele>93.3</ele><time>2026-05-12T08:45:12Z</time></trkpt>
      <trkpt lat="56.805060" lon="-5.074439"><ele>92.3</ele><time>2026-05-12T08:45:24Z</time></trkpt>
      <trkpt lat="56.805070" lon="-5.074362"><ele>91.5</ele><time>2026-05-12T08:45:36Z</time></trkpt>
      <trkpt lat="56.804993" lon="-5.074262"><ele>90.3</ele><time>2026-05-12T08:45:48Z</time></trkpt>
      <trkpt lat="56.804943" lon="-5.074228"><ele>89.4</ele><time>2026-05-12T08:46:00Z</time></trkpt>
      <trkpt lat="56.804927" lon="-5.074108"><ele>88.3</ele><time>2026-05-12T08:46:12Z</time></trkpt>
      <trkpt lat="56.804894" lon="-5.074015"><ele>87.5</ele><time>2026-05-12T08:46:24Z</time></trkpt>
      <trkpt lat="56.804841" lon="-5.073950"><ele>86.2</ele><time>2026-05-12T08:46:36Z</time></trkpt>
      <trkpt lat="56.804863" lon="-5.073833"><ele>85.4</ele><time>2026-05-12T08:46:48Z</time></trkpt>
      <trkpt lat="56.804756" lon="-5.073694"><ele>84.3</ele><time>2026-05-12T08:47:00Z</time></trkpt>
      <trkpt lat="56.804715" lon="-5.073678"><ele>83.2</ele><time>2026-05-12T08:47:12Z</time></trkpt>
      <trkpt lat="56.804697" lon="-5.073558"><ele>81.9</ele><time>2026-05-12T08:47:24Z</time></trkpt>
      <trkpt lat="56.804663" lon="-5.073481"><ele>80.7</ele><time>2026-05-12T08:47:36Z</time></trkpt>
      <trkpt lat="56.804643" lon="-5.073349"><ele>79.8</ele><time>2026-05-12T08:47:48Z</time></trkpt>
      <trkpt lat="56.804590" lon="-5.073337"><ele>78.6</ele><time>2026-05-12T08:48:00Z</time></trkpt>
      <trkpt lat="56.804594" lon="-5.073217"><ele>77.6</ele><time>2026-05-12T08:48:12Z</time></trkpt>
      <trkpt lat="56.804532" lon="-5.073159"><ele>76.6</ele><time>2026-05-12T08:48:24Z</time></trkpt>
      <trkpt lat="56.804525" lon="-5.073046"><ele>75.5</ele><time>2026-05-12T08:48:36Z</time></trkpt>
      <trkpt lat="56.804492" lon="-5.072970"><ele>74.3</ele><time>2026-05-12T08:48:48Z</time></trkpt>
      <trkpt lat="56.804398" lon="-5.072863"><ele>72.9</ele><time>2026-05-12T08:49:00Z</time></trkpt>
      <trkpt lat="56.804357" lon="-5.072734"><ele>71.8</ele><time>2026-05-12T08:49:12Z</time></trkpt>
      <trkpt lat="56.804338" lon="-5.072694"><ele>70.8</ele><time>2026-05-12T08:49:24Z</time></trkpt>
      <trkpt lat="56.804304" lon="-5.072589"><ele>70.0</ele><time>2026-05-12T08:49:36Z</time></trkpt>
      <trkpt lat="56.804254" lon="-5.072467"><ele>69.0</ele><time>2026-05-12T08:49:48Z</time></trkpt>
      <trkpt lat="56.804218" lon="-5.072404"><ele>67.8</ele><time>2026-05-12T08:50:00Z</time></trkpt>
      <trkpt lat="56.804205" lon="-5.072287"><ele>66.7</ele><time>2026-05-12T08:50:12Z</time></trkpt>
      <trkpt lat="56.804139" lon="-5.072235"><ele>65.8</ele><time>2026-05-12T08:50:24Z</time></trkpt>
      <trkpt lat="56.804101" lon="-5.072098"><ele>64.8</ele><time>2026-05-12T08:50:36Z</time></trkpt>
      <trkpt lat="56.804059" lon="-5.071998"><ele>63.7</ele><time>2026-05-12T08:50:48Z</time></trkpt>
      <trkpt lat="56.804012" lon="-5.071921"><ele>62.8</ele><time>2026-05-12T08:51:00Z</time></trkpt>
      <trkpt lat="56.803999" lon="-5.071809"><ele>61.9</ele><time>2026-05-12T08:51:12Z</time></trkpt>
      <trkpt lat="56.803957" lon="-5.071724"><ele>60.9</ele><time>2026-05-12T08:51:24Z</time></trkpt>
      <trkpt lat="56.803910" lon="-5.071607"><ele>59.6</ele><time>2026-05-12T08:51:36Z</time></trkpt>
      <trkpt lat="56.803890" lon="-5.071522"><ele>58.6</ele><time>2026-05-12T08:51:48Z</time></trkpt>
      <trkpt lat="56.803822" lon="-5.071469"><ele>57.8</ele><time>2026-05-12T08:52:00Z</time></trkpt>
      <trkpt lat="56.803782" lon="-5.071297"><ele>56.9</ele><time>2026-05-12T08:52:12Z</time></trkpt>
      <trkpt lat="56.803710" lon="-5.071233"><ele>55.8</ele><time>2026-05-12T08:52:24Z</time></trkpt>
      <trkpt lat="56.803697" lon="-5.071111"><ele>54.6</ele><time>2026-05-12T08:52:36Z</time></trkpt>
      <trkpt lat="56.803682" lon="-5.071027"><ele>53.6</ele><time>2026-05-12T08:52:48Z</time></trkpt>
      <trkpt lat="56.803615" lon="-5.070912"><ele>52.4</ele><time>2026-05-12T08:53:00Z</time></trkpt>
      <trkpt lat="56.803577" lon="-5.070815"><ele>51.5</ele><time>2026-05-12T08:53:12Z</time></trkpt>
      <trkpt lat="56.803534" lon="-5.070732"><ele>50.4</ele><time>2026-05-12T08:53:24Z</time></trkpt>
      <trkpt lat="56.803512" lon="-5.070628"><ele>49.2</ele><time>2026-05-12T08:53:36Z</time></trkpt>
      <trkpt lat="56.803475" lon="-5.070472"><ele>48.1</ele><time>2026-05-12T08:53:48Z</time></trkpt>
      <trkpt lat="56.803389" lon="-5.070393"><ele>47.1</ele><time>2026-05-12T08:54:00Z</time></trkpt>
      <trkpt lat="56.803331" lon="-5.070328"><ele>46.0</ele><time>2026-05-12T08:54:12Z</time></trkpt>
      <trkpt lat="56.803295" lon="-5.070195"><ele>44.8</ele><time>2026-05-12T08:54:24Z</time></trkpt>
      <trkpt lat="56.803276" lon="-5.070086"><ele>43.7</ele><time>2026-05-12T08:54:36Z</time></trkpt>
      <trkpt lat="56.803222" lon="-5.069998"><ele>42.9</ele><time>2026-05-12T08:54:48Z</time></trkpt>
      <trkpt lat="56.803181" lon="-5.069873"><ele>41.9</ele><time>2026-05-12T08:55:00Z</time></trkpt>
      <trkpt lat="56.803108" lon="-5.069772"><ele>40.5</ele><time>2026-05-12T08:55:12Z</time></trkpt>
      <trkpt lat="56.803098" lon="-5.069670"><ele>39.7</ele><time>2026-05-12T08:55:24Z</time></trkpt>
      <trkpt lat="56.803068" lon="-5.069564"><ele>38.6</ele><time>2026-05-12T08:55:36Z</time></trkpt>
      <trkpt lat="56.802988" lon="-5.069439"><ele>37.4</ele><time>2026-05-12T08:55:48Z</time></trkpt>
      <trkpt lat="56.802960" lon="-5.069361"><ele>36.4</ele><time>2026-05-12T08:56:00Z</time></trkpt>
      <trkpt lat="56.802905" lon="-5.069232"><ele>35.4</ele><time>2026-05-12T08:56:12Z</time></trkpt>
      <trkpt lat="56.802875" lon="-5.069116"><ele>34.3</ele><time>2026-05-12T08:56:24Z</time></trkpt>
      <trkpt lat="56.802835" lon="-5.069028"><ele>33.2</ele><time>2026-05-12T08:56:36Z</time></trkpt>
      <trkpt lat="56.802810" lon="-5.068931"><ele>32.3</ele><time>2026-05-12T08:56:48Z</time></trkpt>
      <trkpt lat="56.802752" lon="-5.068807"><ele>31.1</ele><time>2026-05-12T08:57:00Z</time></trkpt>
      <trkpt lat="56.802729" lon="-5.068707"><ele>30.1</ele><time>2026-05-12T08:57:12Z</time></trkpt>
      <trkpt lat="56.802635" lon="-5.068553"><ele>29.1</ele><time>2026-05-12T08:57:24Z</time></trkpt>
      <trkpt lat="56.802609" lon="-5.068471"><ele>29.5</ele><time>2026-05-12T08:57:36Z</time></trkpt>
      <trkpt lat="56.802560" lon="-5.068369"><ele>33.2</ele><time>2026-05-12T08:57:48Z</time></trkpt>
      <trkpt lat="56.802512" lon="-5.068216"><ele>36.8</ele><time>2026-05-12T08:58:00Z</time></trkpt>
      <trkpt lat="56.802477" lon="-5.068149"><ele>41.0</ele><time>2026-05-12T08:58:12Z</time></trkpt>
      <trkpt lat="56.802445" lon="-5.068008"><ele>44.8</ele><time>2026-05-12T08:58:24Z</time></trkpt>
      <trkpt lat="56.802377" lon="-5.067877"><ele>48.5</ele><time>2026-05-12T08:58:36Z</time></trkpt>
      <trkpt lat="56.802345" lon="-5.067780"><ele>52.3</ele><time>2026-05-12T08:58:48Z</time></trkpt>
      <trkpt lat="56.802292" lon="-5.067642"><ele>55.9</ele><time>2026-05-12T08:59:00Z</time></trkpt>
      <trkpt lat="56.802271" lon="-5.067539"><ele>59.8</ele><time>2026-05-12T08:59:12Z</time></trkpt>
      <trkpt lat="56.802257" lon="-5.067423"><ele>63.5</ele><time>2026-05-12T08:59:24Z</time></trkpt>
      <trkpt lat="56.802174" lon="-5.067303"><ele>67.7</ele><time>2026-05-12T08:59:36Z</time></trkpt>
      <trkpt lat="56.802163" lon="-5.067211"><ele>71.7</ele><time>2026-05-12T08:59:48Z</time></trkpt>
      <trkpt lat="56.802060" lon="-5.067070"><ele>75.1</ele><time>2026-05-12T09:00:00Z</time></trkpt>
      <trkpt lat="56.802055" lon="-5.066984"><ele>78.8</ele><time>2026-05-12T09:00:12Z</time></trkpt>
      <trkpt lat="56.802041" lon="-5.066829"><ele>82.3</ele><time>2026-05-12T09:00:24Z</time></trkpt>
      <trkpt lat="56.801949" lon="-5.066721"><ele>86.5</ele><time>2026-05-12T09:00:36Z</time></trkpt>
      <trkpt lat="56.801864" lon="-5.066608"><ele>90.6</ele><time>2026-05-12T09:00:48Z</time></trkpt>
      <trkpt lat="56.801852" lon="-5.066494"><ele>94.6</ele><time>2026-05-12T09:01:00Z</time></trkpt>
      <trkpt lat="56.801796" lon="-5.066363"><ele>98.4</ele><time>2026-05-12T09:01:12Z</time></trkpt>
      <trkpt lat="56.801758" lon="-5.066264"><ele>101.9</ele><time>2026-05-12T09:01:24Z</time></trkpt>
      <trkpt lat="56.801698" lon="-5.066140"><ele>105.7</ele><time>2026-05-12T09:01:36Z</time></trkpt>
      <trkpt lat="56.801673" lon="-5.066009"><ele>109.7</ele><time>2026-05-12T09:01:48Z</time></trkpt>
      <trkpt lat="56.801637" lon="-5.065890"><ele>113.3</ele><time>2026-05-12T09:02:00Z</time></trkpt>
      <trkpt lat="56.801579" lon="-5.065752"><ele>116.9</ele><time>2026-05-12T09:02:12Z</time></trkpt>
      <trkpt lat="56.801564" lon="-5.065661"><ele>120.7</ele><time>2026-05-12T09:02:24Z</time></trkpt>
      <trkpt lat="56.801530" lon="-5.065477"><ele>124.6</ele><time>2026-05-12T09:02:36Z</time></trkpt>
      <trkpt lat="56.801468" lon="-5.065374"><ele>128.7</ele><time>2026-05-12T09:02:48Z</time></trkpt>
      <trkpt lat="56.801475" lon="-5.065272"><ele>132.5</ele><time>2026-05-12T09:03:00Z</time></trkpt>
      <trkpt lat="56.801384" lon="-5.065136"><ele>136.3</ele><time>2026-05-12T09:03:12Z</time></trkpt>
      <trkpt lat="56.801384" lon="-5.065037"><ele>139.9</ele><time>2026-05-12T09:03:24Z</time></trkpt>
      <trkpt lat="56.801306" lon="-5.064894"><ele>143.8</ele><time>2026-05-12T09:03:36Z</time></trkpt>
      <trkpt lat="56.801273" lon="-5.064764"><ele>147.6</ele><time>2026-05-12T09:03:48Z</time></trkpt>
      <trkpt lat="56.801197" lon="-5.064650"><ele>151.4</ele><time>2026-05-12T09:04:00Z</time></trkpt>
      <trkpt lat="56.801170" lon="-5.064510"><ele>155.4</ele><time>2026-05-12T09:04:12Z</time></trkpt>
      <trkpt lat="56.801157" lon="-5.064390"><ele>159.5</ele><time>2026-05-12T09:04:24Z</time></trkpt>
      <trkpt lat="56.801103" lon="-5.064276"><ele>163.6</ele><time>2026-05-12T09:04:36Z</time></trkpt>
      <trkpt lat="56.801073" lon="-5.064130"><ele>167.3</ele><time>2026-05-12T09:04:48Z</time></trkpt>
      <trkpt lat="56.800961" lon="-5.064031"><ele>171.2</ele><time>2026-05-12T09:05:00Z</time></trkpt>
      <trkpt lat="56.800941" lon="-5.063886"><ele>175.0</ele><time>2026-05-12T09:05:12Z</time></trkpt>
      <trkpt lat="56.800916" lon="-5.063781"><ele>178.9</ele><time>2026-05-12T09:05:24Z</time></trkpt>
      <trkpt lat="56.800849" lon="-5.063631"><ele>182.9</ele><time>2026-05-12T09:05:36Z</time></trkpt>
      <trkpt lat="56.800803" lon="-5.063497"><ele>186.8</ele><time>2026-05-12T09:05:48Z</time></trkpt>
      <trkpt lat="56.800812" lon="-5.063338"><ele>190.4</ele><time>2026-05-12T09:06:00Z</time></trkpt>
      <trkpt lat="56.800763" lon="-5.063277"><ele>194.5</ele><time>2026-05-12T09:06:12Z</time></trkpt>
      <trkpt lat="56.800677" lon="-5.063118"><ele>198.3</ele><time>2026-05-12T09:06:24Z</time></trkpt>
      <trkpt lat="56.800632" lon="-5.062998"><ele>202.3</ele><time>2026-05-12T09:06:36Z</time></trkpt>
      <trkpt lat="56.800624" lon="-5.062826"><ele>206.2</ele><time>2026-05-12T09:06:48Z</time></trkpt>
      <trkpt lat="56.800546" lon="-5.062751"><ele>210.2</ele><time>2026-05-12T09:07:00Z</time></trkpt>
      <trkpt lat="56.800531" lon="-5.062615"><ele>214.1</ele><time>2026-05-12T09:07:12Z</time></trkpt>
      <trkpt lat="56.800521" lon="-5.062491"><ele>218.1</ele><time>2026-05-12T09:07:24Z</time></trkpt>
      <trkpt lat="56.800459" lon="-5.062329"><ele>222.1</ele><time>2026-05-12T09:07:36Z</time></trkpt>
      <trkpt lat="56.800410" lon="-5.062250"><ele>225.9</ele><time>2026-05-12T09:07:48Z</time></trkpt>
      <trkpt lat="56.800323" lon="-5.062111"><ele>229.8</ele><time>2026-05-12T09:08:00Z</time></trkpt>
      <trkpt lat="56.800313" lon="-5.061978"><ele>233.5</ele><time>2026-05-12T09:08:12Z</time></trkpt>
      <trkpt lat="56.800240" lon="-5.061834"><ele>237.3</ele><time>2026-05-12T09:08:24Z</time></trkpt>
      <trkpt lat="56.800207" lon="-5.061696"><ele>241.2</ele><time>2026-05-12T09:08:36Z</time></trkpt>
      <trkpt lat="56.800216" lon="-5.061542"><ele>245.3</ele><time>2026-05-12T09:08:48Z</time></trkpt>
      <trkpt lat="56.800091" lon="-5.061483"><ele>249.0</ele><time>2026-05-12T09:09:00Z</time></trkpt>
      <trkpt lat="56.800145" lon="-5.061323"><ele>252.6</ele><time>2026-05-12T09:09:12Z</time></trkpt>
      <trkpt lat="56.800071" lon="-5.061213"><ele>256.5</ele><time>2026-05-12T09:09:24Z</time></trkpt>
      <trkpt lat="56.800053" lon="-5.061023"><ele>260.2</ele><time>2026-05-12T09:09:36Z</time></trkpt>
      <trkpt lat="56.799998" lon="-5.060940"><ele>264.0</ele><time>2026-05-12T09:09:48Z</time></trkpt>
      <trkpt lat="56.799969" lon="-5.060757"><ele>268.3</ele><time>2026-05-12T09:10:00Z</time></trkpt>
      <trkpt lat="56.799895" lon="-5.060663"><ele>272.5</ele><time>2026-05-12T09:10:12Z</time></trkpt>
      <trkpt lat="56.799859" lon="-5.060542"><ele>276.5</ele><time>2026-05-12T09:10:24Z</time></trkpt>
      <trkpt lat="56.799822" lon="-5.060348"><ele>280.5</ele><time>2026-05-12T09:10:36Z</time></trkpt>
      <trkpt lat="56.799771" lon="-5.060270"><ele>284.3</ele><time>2026-05-12T09:10:48Z</time></trkpt>
      <trkpt lat="56.799719" lon="-5.060142"><ele>288.4</ele><time>2026-05-12T09:11:00Z</time></trkpt>
      <trkpt lat="56.799737" lon="-5.059992"><ele>292.1</ele><time>2026-05-12T09:11:12Z</time></trkpt>
      <trkpt lat="56.799667" lon="-5.059868"><ele>295.9</ele><time>2026-05-12T09:11:24Z</time></trkpt>
      <trkpt lat="56.799638" lon="-5.059734"><ele>299.8</ele><time>2026-05-12T09:11:36Z</time></trkpt>
      <trkpt lat="56.799601" lon="-5.059603"><ele>303.8</ele><time>2026-05-12T09:11:48Z</time></trkpt>
      <trkpt lat="56.799580" lon="-5.059448"><ele>307.7</ele><time>2026-05-12T09:12:00Z</time></trkpt>
      <trkpt lat="56.799532" lon="-5.059331"><ele>311.5</ele><time>2026-05-12T09:12:12Z</time></trkpt>
      <trkpt lat="56.799518" lon="-5.059158"><ele>315.3</ele><time>2026-05-12T09:12:24Z</time></trkpt>
      <trkpt lat="56.799478" lon="-5.059052"><ele>319.1</ele><time>2026-05-12T09:12:36Z</time></trkpt>
      <trkpt lat="56.799400" lon="-5.058902"><ele>322.7</ele><time>2026-05-12T09:12:48Z</time></trkpt>
      <trkpt lat="56.799367" lon="-5.058805"><ele>326.5</ele><time>2026-05-12T09:13:00Z</time></trkpt>
      <trkpt lat="56.799349" lon="-5.058741"><ele>330.4</ele><time>2026-05-12T09:13:12Z</time></trkpt>
      <trkpt lat="56.799307" lon="-5.058549"><ele>334.5</ele><time>2026-05-12T09:13:24Z</time></trkpt>
      <trkpt lat="56.799286" lon="-5.058410"><ele>338.7</ele><time>2026-05-12T09:13:36Z</time></trkpt>
      <trkpt lat="56.799211" lon="-5.058299"><ele>342.6</ele><time>2026-05-12T09:13:48Z</time></trkpt>
      <trkpt lat="56.799187" lon="-5.058152"><ele>346.4</ele><time>2026-05-12T09:14:00Z</time></trkpt>
      <trkpt lat="56.799147" lon="-5.058030"><ele>350.2</ele><time>2026-05-12T09:14:12Z</time></trkpt>
      <trkpt lat="56.799098" lon="-5.057898"><ele>354.3</ele><time>2026-05-12T09:14:24Z</time></trkpt>
      <trkpt lat="56.799079" lon="-5.057767"><ele>358.1</ele><time>2026-05-12T09:14:36Z</time></trkpt>
      <trkpt lat="56.799077" lon="-5.057639"><ele>362.1</ele><time>2026-05-12T09:14:48Z</time></trkpt>
      <trkpt lat="56.799028" lon="-5.057521"><ele>365.7</ele><time>2026-05-12T09:15:00Z</time></trkpt>
      <trkpt lat="56.798992" lon="-5.057363"><ele>369.5</ele><time>2026-05-12T09:15:12Z</time></trkpt>
      <trkpt lat="56.798995" lon="-5.057215"><ele>373.5</ele><time>2026-05-12T09:15:24Z</time></trkpt>
      <trkpt lat="56.798924" lon="-5.057104"><ele>377.4</ele><time>2026-05-12T09:15:36Z</time></trkpt>
      <trkpt lat="56.798913" lon="-5.056981"><ele>381.1</ele><time>2026-05-12T09:15:48Z</time></trkpt>
      <trkpt lat="56.798855" lon="-5.056820"><ele>384.9</ele><time>2026-05-12T09:16:00Z</time></trkpt>
      <trkpt lat="56.798824" lon="-5.056712"><ele>388.7</ele><time>2026-05-12T09:16:12Z</time></trkpt>
      <trkpt lat="56.798823" lon="-5.056562"><ele>392.6</ele><time>2026-05-12T09:16:24Z</time></trkpt>
      <trkpt lat="56.798803" lon="-5.056476"><ele>396.6</ele><time>2026-05-12T09:16:36Z</time></trkpt>
      <trkpt lat="56.798741" lon="-5.056307"><ele>400.6</ele><time>2026-05-12T09:16:48Z</time></trkpt>
      <trkpt lat="56.798713" lon="-5.056204"><ele>404.8</ele><time>2026-05-12T09:17:00Z</time></trkpt>
      <trkpt lat="56.798665" lon="-5.056041"><ele>408.9</ele><time>2026-05-12T09:17:12Z</time></trkpt>
      <trkpt lat="56.798640" lon="-5.055925"><ele>412.9</ele><time>2026-05-12T09:17:24Z</time></trkpt>
      <trkpt lat="56.798601" lon="-5.055784"><ele>416.8</ele><time>2026-05-12T09:17:36Z</time></trkpt>
      <trkpt lat="56.798616" lon="-5.055686"><ele>420.7</ele><time>2026-05-12T09:17:48Z</time></trkpt>
      <trkpt lat="56.798567" lon="-5.055578"><ele>424.6</ele><time>2026-05-12T09:18:00Z</time></trkpt>
      <trkpt lat="56.798521" lon="-5.055437"><ele>428.7</ele><time>2026-05-12T09:18:12Z</time></trkpt>
      <trkpt lat="56.798465" lon="-5.055305"><ele>432.5</ele><time>2026-05-12T09:18:24Z</time></trkpt>
      <trkpt lat="56.798440" lon="-5.055168"><ele>436.0</ele><time>2026-05-12T09:18:36Z</time></trkpt>
      <trkpt lat="56.798465" lon="-5.054985"><ele>439.9</ele><time>2026-05-12T09:18:48Z</time></trkpt>
      <trkpt lat="56.798403" lon="-5.054890"><ele>444.0</ele><time>2026-05-12T09:19:00Z</time></trkpt>
      <trkpt lat="56.798372" lon="-5.054749"><ele>447.6</ele><time>2026-05-12T09:19:12Z</time></trkpt>
      <trkpt lat="56.798389" lon="-5.054687"><ele>451.7</ele><time>2026-05-12T09:19:24Z</time></trkpt>
      <trkpt lat="56.798317" lon="-5.054553"><ele>455.4</ele><time>2026-05-12T09:19:36Z</time></trkpt>
      <trkpt lat="56.798320" lon="-5.054450"><ele>459.3</ele><time>2026-05-12T09:19:48Z</time></trkpt>
      <trkpt lat="56.798283" lon="-5.054297"><ele>463.4</ele><time>2026-05-12T09:20:00Z</time></trkpt>
      <trkpt lat="56.798289" lon="-5.054157"><ele>467.2</ele><time>2026-05-12T09:20:12Z</time></trkpt>
      <trkpt lat="56.798221" lon="-5.054019"><ele>471.1</ele><time>2026-05-12T09:20:24Z</time></trkpt>
      <trkpt lat="56.798180" lon="-5.053939"><ele>475.0</ele><time>2026-05-12T09:20:36Z</time></trkpt>
      <trkpt lat="56.798124" lon="-5.053767"><ele>478.7</ele><time>2026-05-12T09:20:48Z</time></trkpt>
      <trkpt lat="56.798156" lon="-5.053665"><ele>481.6</ele><time>2026-05-12T09:21:00Z</time></trkpt>
      <trkpt lat="56.798113" lon="-5.053537"><ele>482.8</ele><time>2026-05-12T09:21:12Z</time></trkpt>
      <trkpt lat="56.798105" lon="-5.053452"><ele>484.2</ele><time>2026-05-12T09:21:24Z</time></trkpt>
      <trkpt lat="56.798112" lon="-5.053301"><ele>485.7</ele><time>2026-05-12T09:21:36Z</time></trkpt>
      <trkpt lat="56.798087" lon="-5.053143"><ele>486.9</ele><time>2026-05-12T09:21:48Z</time></trkpt>
      <trkpt lat="56.797993" lon="-5.053027"><ele>488.7</ele><time>2026-05-12T09:22:00Z</time></trkpt>
      <trkpt lat="56.797984" lon="-5.052913"><ele>490.2</ele><time>2026-05-12T09:22:12Z</time></trkpt>
      <trkpt lat="56.797991" lon="-5.052806"><ele>491.7</ele><time>2026-05-12T09:22:24Z</time></trkpt>
      <trkpt lat="56.797961" lon="-5.052706"><ele>493.4</ele><time>2026-05-12T09:22:36Z</time></trkpt>
      <trkpt lat="56.797962" lon="-5.052550"><ele>495.0</ele><time>2026-05-12T09:22:48Z</time></trkpt>
      <trkpt lat="56.797923" lon="-5.052470"><ele>496.6</ele><time>2026-05-12T09:23:00Z</time></trkpt>
      <trkpt lat="56.797906" lon="-5.052355"><ele>497.8</ele><time>2026-05-12T09:23:12Z</time></trkpt>
      <trkpt lat="56.797843" lon="-5.052213"><ele>499.0</ele><time>2026-05-12T09:23:24Z</time></trkpt>
      <trkpt lat="56.797848" lon="-5.052117"><ele>500.7</ele><time>2026-05-12T09:23:36Z</time></trkpt>
      <trkpt lat="56.797851" lon="-5.052010"><ele>502.1</ele><time>2026-05-12T09:23:48Z</time></trkpt>
      <trkpt lat="56.797833" lon="-5.051866"><ele>503.4</ele><time>2026-05-12T09:24:00Z</time></trkpt>
      <trkpt lat="56.797772" lon="-5.051754"><ele>505.0</ele><time>2026-05-12T09:24:12Z</time></trkpt>
      <trkpt lat="56.797737" lon="-5.051648"><ele>506.4</ele><time>2026-05-12T09:24:24Z</time></trkpt>
      <trkpt lat="56.797747" lon="-5.051496"><ele>507.8</ele><time>2026-05-12T09:24:36Z</time></trkpt>
      <trkpt lat="56.797711" lon="-5.051436"><ele>509.3</ele><time>2026-05-12T09:24:48Z</time></trkpt>
      <trkpt lat="56.797694" lon="-5.051280"><ele>510.9</ele><time>2026-05-12T09:25:00Z</time></trkpt>
      <trkpt lat="56.797708" lon="-5.051168"><ele>512.3</ele><time>2026-05-12T09:25:12Z</time></trkpt>
      <trkpt lat="56.797690" lon="-5.051033"><ele>513.7</ele><time>2026-05-12T09:25:24Z</time></trkpt>
      <trkpt lat="56.797645" lon="-5.050924"><ele>515.1</ele><time>2026-05-12T09:25:36Z</time></trkpt>
      <trkpt lat="56.797642" lon="-5.050836"><ele>516.7</ele><time>2026-05-12T09:25:48Z</time></trkpt>
      <trkpt lat="56.797638" lon="-5.050703"><ele>518.3</ele><time>2026-05-12T09:26:00Z</time></trkpt>
      <trkpt lat="56.797602" lon="-5.050579"><ele>519.5</ele><time>2026-05-12T09:26:12Z</time></trkpt>
      <trkpt lat="56.797623" lon="-5.050499"><ele>520.7</ele><time>2026-05-12T09:26:24Z</time></trkpt>
      <trkpt lat="56.797570" lon="-5.050428"><ele>522.2</ele><time>2026-05-12T09:26:36Z</time></trkpt>
      <trkpt lat="56.797587" lon="-5.050230"><ele>523.5</ele><time>2026-05-12T09:26:48Z</time></trkpt>
      <trkpt lat="56.797557" lon="-5.050178"><ele>525.2</ele><time>2026-05-12T09:27:00Z</time></trkpt>
      <trkpt lat="56.797513" lon="-5.050046"><ele>526.7</ele><time>2026-05-12T09:27:12Z</time></trkpt>
      <trkpt lat="56.797550" lon="-5.049961"><ele>528.2</ele><time>2026-05-12T09:27:24Z</time></trkpt>
      <trkpt lat="56.797511" lon="-5.049867"><ele>529.6</ele><time>2026-05-12T09:27:36Z</time></trkpt>
      <trkpt lat="56.797542" lon="-5.049724"><ele>531.2</ele><time>2026-05-12T09:27:48Z</time></trkpt>
      <trkpt lat="56.797471" lon="-5.049616"><ele>532.6</ele><time>2026-05-12T09:28:00Z</time></trkpt>
      <trkpt lat="56.797462" lon="-5.049529"><ele>533.8</ele><time>2026-05-12T09:28:12Z</time></trkpt>
      <trkpt lat="56.797479" lon="-5.049389"><ele>535.0</ele><time>2026-05-12T09:28:24Z</time></trkpt>
      <trkpt lat="56.797487" lon="-5.049272"><ele>536.1</ele><time>2026-05-12T09:28:36Z</time></trkpt>
      <trkpt lat="56.797455" lon="-5.049151"><ele>537.5</ele><time>2026-05-12T09:28:48Z</time></trkpt>
      <trkpt lat="56.797435" lon="-5.049089"><ele>539.3</ele><time>2026-05-12T09:29:00Z</time></trkpt>
      <trkpt lat="56.797432" lon="-5.048981"><ele>540.9</ele><time>2026-05-12T09:29:12Z</time></trkpt>
      <trkpt lat="56.797403" lon="-5.048858"><ele>542.1</ele><time>2026-05-12T09:29:24Z</time></trkpt>
      <trkpt lat="56.797448" lon="-5.048777"><ele>543.7</ele><time>2026-05-12T09:29:36Z</time></trkpt>
      <trkpt lat="56.797409" lon="-5.048653"><ele>544.9</ele><time>2026-05-12T09:29:48Z</time></trkpt>
      <trkpt lat="56.797397" lon="-5.048536"><ele>546.6</ele><time>2026-05-12T09:30:00Z</time></trkpt>
      <trkpt lat="56.797387" lon="-5.048461"><ele>548.1</ele><time>2026-05-12T09:30:12Z</time></trkpt>
      <trkpt lat="56.797376" lon="-5.048359"><ele>549.5</ele><time>2026-05-12T09:30:24Z</time></trkpt>
      <trkpt lat="56.797371" lon="-5.048219"><ele>550.8</ele><time>2026-05-12T09:30:36Z</time></trkpt>
      <trkpt lat="56.797353" lon="-5.048104"><ele>552.1</ele><time>2026-05-12T09:30:48Z</time></trkpt>
      <trkpt lat="56.797345" lon="-5.048055"><ele>553.7</ele><time>2026-05-12T09:31:00Z</time></trkpt>
      <trkpt lat="56.797338" lon="-5.047956"><ele>555.0</ele><time>2026-05-12T09:31:12Z</time></trkpt>
      <trkpt lat="56.797341" lon="-5.047841"><ele>556.4</ele><time>2026-05-12T09:31:24Z</time></trkpt>
      <trkpt lat="56.797340" lon="-5.047723"><ele>557.9</ele><time>2026-05-12T09:31:36Z</time></trkpt>
      <trkpt lat="56.797300" lon="-5.047628"><ele>559.2</ele><time>2026-05-12T09:31:48Z</time></trkpt>
      <trkpt lat="56.797326" lon="-5.047521"><ele>560.6</ele><time>2026-05-12T09:32:00Z</time></trkpt>
      <trkpt lat="56.797341" lon="-5.047438"><ele>562.0</ele><time>2026-05-12T09:32:12Z</time></trkpt>
      <trkpt lat="56.797318" lon="-5.047373"><ele>563.6</ele><time>2026-05-12T09:32:24Z</time></trkpt>
      <trkpt lat="56.797317" lon="-5.047274"><ele>565.1</ele><time>2026-05-12T09:32:36Z</time></trkpt>
      <trkpt lat="56.797311" lon="-5.047107"><ele>566.3</ele><time>2026-05-12T09:32:48Z</time></trkpt>
      <trkpt lat="56.797309" lon="-5.047076"><ele>567.8</ele><time>2026-05-12T09:33:00Z</time></trkpt>
      <trkpt lat="56.797267" lon="-5.046961"><ele>569.2</ele><time>2026-05-12T09:33:12Z</time></trkpt>
      <trkpt lat="56.797354" lon="-5.046890"><ele>570.8</ele><time>2026-05-12T09:33:24Z</time></trkpt>
      <trkpt lat="56.797313" lon="-5.046751"><ele>572.3</ele><time>2026-05-12T09:33:36Z</time></trkpt>
      <trkpt lat="56.797260" lon="-5.046648"><ele>573.9</ele><time>2026-05-12T09:33:48Z</time></trkpt>
      <trkpt lat="56.797288" lon="-5.046530"><ele>575.5</ele><time>2026-05-12T09:34:00Z</time></trkpt>
      <trkpt lat="56.797294" lon="-5.046488"><ele>577.2</ele><time>2026-05-12T09:34:12Z</time></trkpt>
      <trkpt lat="56.797281" lon="-5.046353"><ele>578.7</ele><time>2026-05-12T09:34:24Z</time></trkpt>
      <trkpt lat="56.797299" lon="-5.046295"><ele>579.8</ele><time>2026-05-12T09:34:36Z</time></trkpt>
      <trkpt lat="56.797312" lon="-5.046210"><ele>581.0</ele><time>2026-05-12T09:34:48Z</time></trkpt>
      <trkpt lat="56.797311" lon="-5.046079"><ele>582.4</ele><time>2026-05-12T09:35:00Z</time></trkpt>
      <trkpt lat="56.797338" lon="-5.046034"><ele>583.9</ele><time>2026-05-12T09:35:12Z</time></trkpt>
      <trkpt lat="56.797284" lon="-5.045928"><ele>585.2</ele><time>2026-05-12T09:35:24Z</time></trkpt>
      <trkpt lat="56.797309" lon="-5.045821"><ele>586.6</ele><time>2026-05-12T09:35:36Z</time></trkpt>
      <trkpt lat="56.797300" lon="-5.045740"><ele>587.8</ele><time>2026-05-12T09:35:48Z</time></trkpt>
      <trkpt lat="56.797279" lon="-5.045654"><ele>589.1</ele><time>2026-05-12T09:36:00Z</time></trkpt>
      <trkpt lat="56.797327" lon="-5.045606"><ele>590.5</ele><time>2026-05-12T09:36:12Z</time></trkpt>
      <trkpt lat="56.797296" lon="-5.045460"><ele>591.9</ele><time>2026-05-12T09:36:24Z</time></trkpt>
      <trkpt lat="56.797333" lon="-5.045420"><ele>593.5</ele><time>2026-05-12T09:36:36Z</time></trkpt>
      <trkpt lat="56.797296" lon="-5.045352"><ele>595.1</ele><time>2026-05-12T09:36:48Z</time></trkpt>
      <trkpt lat="56.797317" lon="-5.045201"><ele>596.8</ele><time>2026-05-12T09:37:00Z</time></trkpt>
      <trkpt lat="56.797330" lon="-5.045137"><ele>598.2</ele><time>2026-05-12T09:37:12Z</time></trkpt>
      <trkpt lat="56.797323" lon="-5.045036"><ele>599.7</ele><time>2026-05-12T09:37:24Z</time></trkpt>
      <trkpt lat="56.797360" lon="-5.044972"><ele>601.3</ele><time>2026-05-12T09:37:36Z</time></trkpt>
      <trkpt lat="56.797353" lon="-5.044930"><ele>602.7</ele><time>2026-05-12T09:37:48Z</time></trkpt>
      <trkpt lat="56.797375" lon="-5.044802"><ele>604.2</ele><time>2026-05-12T09:38:00Z</time></trkpt>
      <trkpt lat="56.797363" lon="-5.044674"><ele>605.7</ele><time>2026-05-12T09:38:12Z</time></trkpt>
      <trkpt lat="56.797360" lon="-5.044625"><ele>607.3</ele><time>2026-05-12T09:38:24Z</time></trkpt>
      <trkpt lat="56.797397" lon="-5.044545"><ele>608.7</ele><time>2026-05-12T09:38:36Z</time></trkpt>
      <trkpt lat="56.797354" lon="-5.044453"><ele>609.9</ele><time>2026-05-12T09:38:48Z</time></trkpt>
      <trkpt lat="56.797432" lon="-5.044397"><ele>611.2</ele><time>2026-05-12T09:39:00Z</time></trkpt>
      <trkpt lat="56.797389" lon="-5.044278"><ele>612.7</ele><time>2026-05-12T09:39:12Z</time></trkpt>
      <trkpt lat="56.797385" lon="-5.044186"><ele>614.2</ele><time>2026-05-12T09:39:24Z</time></trkpt>
      <trkpt lat="56.797394" lon="-5.044099"><ele>615.7</ele><time>2026-05-12T09:39:36Z</time></trkpt>
      <trkpt lat="56.797365" lon="-5.044034"><ele>617.1</ele><time>2026-05-12T09:39:48Z</time></trkpt>
      <trkpt lat="56.797444" lon="-5.043895"><ele>618.6</ele><time>2026-05-12T09:40:00Z</time></trkpt>
      <trkpt lat="56.797465" lon="-5.043849"><ele>620.0</ele><time>2026-05-12T09:40:12Z</time></trkpt>
      <trkpt lat="56.797489" lon="-5.043793"><ele>621.3</ele><time>2026-05-12T09:40:24Z</time></trkpt>
      <trkpt lat="56.797493" lon="-5.043679"><ele>623.0</ele><time>2026-05-12T09:40:36Z</time></trkpt>
      <trkpt lat="56.797451" lon="-5.043662"><ele>624.1</ele><time>2026-05-12T09:40:48Z</time></trkpt>
      <trkpt lat="56.797490" lon="-5.043550"><ele>625.3</ele><time>2026-05-12T09:41:00Z</time></trkpt>
      <trkpt lat="56.797483" lon="-5.043467"><ele>626.6</ele><time>2026-05-12T09:41:12Z</time></trkpt>
      <trkpt lat="56.797541" lon="-5.043383"><ele>628.1</ele><time>2026-05-12T09:41:24Z</time></trkpt>
      <trkpt lat="56.797520" lon="-5.043297"><ele>629.7</ele><time>2026-05-12T09:41:36Z</time></trkpt>
      <trkpt lat="56.797543" lon="-5.043187"><ele>631.3</ele><time>2026-05-12T09:41:48Z</time></trkpt>
      <trkpt lat="56.797542" lon="-5.043164"><ele>632.6</ele><time>2026-05-12T09:42:00Z</time></trkpt>
      <trkpt lat="56.797576" lon="-5.043035"><ele>633.8</ele><time>2026-05-12T09:42:12Z</time></trkpt>
      <trkpt lat="56.797570" lon="-5.042984"><ele>635.1</ele><time>2026-05-12T09:42:24Z</time></trkpt>
      <trkpt lat="56.797562" lon="-5.042903"><ele>636.2</ele><time>2026-05-12T09:42:36Z</time></trkpt>
      <trkpt lat="56.797611" lon="-5.042869"><ele>637.8</ele><time>2026-05-12T09:42:48Z</time></trkpt>
      <trkpt lat="56.797600" lon="-5.042765"><ele>639.3</ele><time>2026-05-12T09:43:00Z</time></trkpt>
      <trkpt lat="56.797592" lon="-5.042668"><ele>640.6</ele><time>2026-05-12T09:43:12Z</time></trkpt>
      <trkpt lat="56.797622" lon="-5.042553"><ele>642.1</ele><time>2026-05-12T09:43:24Z</time></trkpt>
      <trkpt lat="56.797668" lon="-5.042500"><ele>643.3</ele><time>2026-05-12T09:43:36Z</time></trkpt>
      <trkpt lat="56.797634" lon="-5.042447"><ele>644.5</ele><time>2026-05-12T09:43:48Z</time></trkpt>
      <trkpt lat="56.797649" lon="-5.042384"><ele>646.0</ele><time>2026-05-12T09:44:00Z</time></trkpt>
      <trkpt lat="56.797670" lon="-5.042314"><ele>647.4</ele><time>2026-05-12T09:44:12Z</time></trkpt>
      <trkpt lat="56.797709" lon="-5.042211"><ele>648.6</ele><time>2026-05-12T09:44:24Z</time></trkpt>
      <trkpt lat="56.797711" lon="-5.042135"><ele>650.1</ele><time>2026-05-12T09:44:36Z</time></trkpt>
      <trkpt lat="56.797746" lon="-5.042033"><ele>651.7</ele><time>2026-05-12T09:44:48Z</time></trkpt>
      <trkpt lat="56.797788" lon="-5.041975"><ele>653.2</ele><time>2026-05-12T09:45:00Z</time></trkpt>
      <trkpt lat="56.797756" lon="-5.041875"><ele>654.5</ele><time>2026-05-12T09:45:12Z</time></trkpt>
      <trkpt lat="56.797797" lon="-5.041817"><ele>655.8</ele><time>2026-05-12T09:45:24Z</time></trkpt>
      <trkpt lat="56.797815" lon="-5.041753"><ele>657.5</ele><time>2026-05-12T09:45:36Z</time></trkpt>
      <trkpt lat="56.797798" lon="-5.041677"><ele>659.0</ele><time>2026-05-12T09:45:48Z</time></trkpt>
      <trkpt lat="56.797871" lon="-5.041625"><ele>660.4</ele><time>2026-05-12T09:46:00Z</time></trkpt>
      <trkpt lat="56.797863" lon="-5.041531"><ele>662.0</ele><time>2026-05-12T09:46:12Z</time></trkpt>
      <trkpt lat="56.797874" lon="-5.041436"><ele>663.5</ele><time>2026-05-12T09:46:24Z</time></trkpt>
      <trkpt lat="56.797899" lon="-5.041376"><ele>665.0</ele><time>2026-05-12T09:46:36Z</time></trkpt>
      <trkpt lat="56.797943" lon="-5.041314"><ele>666.3</ele><time>2026-05-12T09:46:48Z</time></trkpt>
      <trkpt lat="56.797917" lon="-5.041197"><ele>667.6</ele><time>2026-05-12T09:47:00Z</time></trkpt>
      <trkpt lat="56.797989" lon="-5.041121"><ele>668.9</ele><time>2026-05-12T09:47:12Z</time></trkpt>
      <trkpt lat="56.797971" lon="-5.041017"><ele>670.5</ele><time>2026-05-12T09:47:24Z</time></trkpt>
      <trkpt lat="56.798003" lon="-5.040993"><ele>672.0</ele><time>2026-05-12T09:47:36Z</time></trkpt>
      <trkpt lat="56.798001" lon="-5.040900"><ele>673.6</ele><time>2026-05-12T09:47:48Z</time></trkpt>
      <trkpt lat="56.798011" lon="-5.040841"><ele>675.1</ele><time>2026-05-12T09:48:00Z</time></trkpt>
      <trkpt lat="56.798096" lon="-5.040770"><ele>676.4</ele><time>2026-05-12T09:48:12Z</time></trkpt>
      <trkpt lat="56.798050" lon="-5.040693"><ele>678.0</ele><time>2026-05-12T09:48:24Z</time></trkpt>
      <trkpt lat="56.798082" lon="-5.040611"><ele>679.6</ele><time>2026-05-12T09:48:36Z</time></trkpt>
      <trkpt lat="56.798120" lon="-5.040514"><ele>681.0</ele><time>2026-05-12T09:48:48Z</time></trkpt>
      <trkpt lat="56.798162" lon="-5.040461"><ele>682.4</ele><time>2026-05-12T09:49:00Z</time></trkpt>
      <trkpt lat="56.798147" lon="-5.040406"><ele>683.6</ele><time>2026-05-12T09:49:12Z</time></trkpt>
      <trkpt lat="56.798178" lon="-5.040309"><ele>684.8</ele><time>2026-05-12T09:49:24Z</time></trkpt>
      <trkpt lat="56.798195" lon="-5.040228"><ele>686.4</ele><time>2026-05-12T09:49:36Z</time></trkpt>
      <trkpt lat="56.798211" lon="-5.040174"><ele>687.7</ele><time>2026-05-12T09:49:48Z</time></trkpt>
      <trkpt lat="56.798247" lon="-5.040101"><ele>689.1</ele><time>2026-05-12T09:50:00Z</time></trkpt>
      <trkpt lat="56.798298" lon="-5.040031"><ele>690.6</ele><time>2026-05-12T09:50:12Z</time></trkpt>
      <trkpt lat="56.798281" lon="-5.039903"><ele>691.6</ele><time>2026-05-12T09:50:24Z</time></trkpt>
      <trkpt lat="56.798276" lon="-5.039886"><ele>693.1</ele><time>2026-05-12T09:50:36Z</time></trkpt>
      <trkpt lat="56.798326" lon="-5.039763"><ele>694.7</ele><time>2026-05-12T09:50:48Z</time></trkpt>
      <trkpt lat="56.798400" lon="-5.039704"><ele>696.1</ele><time>2026-05-12T09:51:00Z</time></trkpt>
      <trkpt lat="56.798380" lon="-5.039624"><ele>697.7</ele><time>2026-05-12T09:51:12Z</time></trkpt>
      <trkpt lat="56.798423" lon="-5.039524"><ele>699.3</ele><time>2026-05-12T09:51:24Z</time></trkpt>
      <trkpt lat="56.798421" lon="-5.039451"><ele>701.2</ele><time>2026-05-12T09:51:36Z</time></trkpt>
      <trkpt lat="56.798447" lon="-5.039362"><ele>703.5</ele><time>2026-05-12T09:51:48Z</time></trkpt>
      <trkpt lat="56.798459" lon="-5.039310"><ele>705.6</ele><time>2026-05-12T09:52:00Z</time></trkpt>
      <trkpt lat="56.798515" lon="-5.039216"><ele>708.0</ele><time>2026-05-12T09:52:12Z</time></trkpt>
      <trkpt lat="56.798515" lon="-5.039161"><ele>710.1</ele><time>2026-05-12T09:52:24Z</time></trkpt>
      <trkpt lat="56.798561" lon="-5.039040"><ele>712.6</ele><time>2026-05-12T09:52:36Z</time></trkpt>
      <trkpt lat="56.798571" lon="-5.039015"><ele>714.9</ele><time>2026-05-12T09:52:48Z</time></trkpt>
      <trkpt lat="56.798610" lon="-5.038932"><ele>717.1</ele><time>2026-05-12T09:53:00Z</time></trkpt>
      <trkpt lat="56.798630" lon="-5.038809"><ele>719.5</ele><time>2026-05-12T09:53:12Z</time></trkpt>
      <trkpt lat="56.798642" lon="-5.038781"><ele>721.7</ele><time>2026-05-12T09:53:24Z</time></trkpt>
      <trkpt lat="56.798667" lon="-5.038670"><ele>724.1</ele><time>2026-05-12T09:53:36Z</time></trkpt>
      <trkpt lat="56.798675" lon="-5.038578"><ele>726.3</ele><time>2026-05-12T09:53:48Z</time></trkpt>
      <trkpt lat="56.798722" lon="-5.038556"><ele>728.6</ele><time>2026-05-12T09:54:00Z</time></trkpt>
      <trkpt lat="56.798726" lon="-5.038444"><ele>731.2</ele><time>2026-05-12T09:54:12Z</time></trkpt>
      <trkpt lat="56.798768" lon="-5.038390"><ele>733.4</ele><time>2026-05-12T09:54:24Z</time></trkpt>
      <trkpt lat="56.798834" lon="-5.038296"><ele>735.7</ele><time>2026-05-12T09:54:36Z</time></trkpt>
      <trkpt lat="56.798830" lon="-5.038195"><ele>737.9</ele><time>2026-05-12T09:54:48Z</time></trkpt>
      <trkpt lat="56.798850" lon="-5.038151"><ele>740.0</ele><time>2026-05-12T09:55:00Z</time></trkpt>
      <trkpt lat="56.798858" lon="-5.038020"><ele>742.4</ele><time>2026-05-12T09:55:12Z</time></trkpt>
      <trkpt lat="56.798882" lon="-5.037951"><ele>745.0</ele><time>2026-05-12T09:55:24Z</time></trkpt>
      <trkpt lat="56.798891" lon="-5.037876"><ele>747.3</ele><time>2026-05-12T09:55:36Z</time></trkpt>
      <trkpt lat="56.798954" lon="-5.037785"><ele>750.0</ele><time>2026-05-12T09:55:48Z</time></trkpt>
      <trkpt lat="56.799026" lon="-5.037721"><ele>752.5</ele><time>2026-05-12T09:56:00Z</time></trkpt>
      <trkpt lat="56.799005" lon="-5.037606"><ele>754.7</ele><time>2026-05-12T09:56:12Z</time></trkpt>
      <trkpt lat="56.799044" lon="-5.037608"><ele>756.9</ele><time>2026-05-12T09:56:24Z</time></trkpt>
      <trkpt lat="56.799038" lon="-5.037462"><ele>759.4</ele><time>2026-05-12T09:56:36Z</time></trkpt>
      <trkpt lat="56.799110" lon="-5.037399"><ele>761.7</ele><time>2026-05-12T09:56:48Z</time></trkpt>
      <trkpt lat="56.799154" lon="-5.037324"><ele>764.2</ele><time>2026-05-12T09:57:00Z</time></trkpt>
      <trkpt lat="56.799178" lon="-5.037230"><ele>766.3</ele><time>2026-05-12T09:57:12Z</time></trkpt>
      <trkpt lat="56.799200" lon="-5.037131"><ele>768.6</ele><time>2026-05-12T09:57:24Z</time></trkpt>
      <trkpt lat="56.799157" lon="-5.037022"><ele>770.9</ele><time>2026-05-12T09:57:36Z</time></trkpt>
      <trkpt lat="56.799263" lon="-5.036975"><ele>772.9</ele><time>2026-05-12T09:57:48Z</time></trkpt>
      <trkpt lat="56.799255" lon="-5.036871"><ele>775.3</ele><time>2026-05-12T09:58:00Z</time></trkpt>
      <trkpt lat="56.799256" lon="-5.036783"><ele>777.7</ele><time>2026-05-12T09:58:12Z</time></trkpt>
      <trkpt lat="56.799284" lon="-5.036695"><ele>779.7</ele><time>2026-05-12T09:58:24Z</time></trkpt>
      <trkpt lat="56.799311" lon="-5.036660"><ele>781.9</ele><time>2026-05-12T09:58:36Z</time></trkpt>
      <trkpt lat="56.799346" lon="-5.036515"><ele>784.3</ele><time>2026-05-12T09:58:48Z</time></trkpt>
      <trkpt lat="56.799403" lon="-5.036424"><ele>786.8</ele><time>2026-05-12T09:59:00Z</time></trkpt>
      <trkpt lat="56.799411" lon="-5.036374"><ele>788.9</ele><time>2026-05-12T09:59:12Z</time></trkpt>
      <trkpt lat="56.799481" lon="-5.036228"><ele>791.2</ele><time>2026-05-12T09:59:24Z</time></trkpt>
      <trkpt lat="56.799444" lon="-5.036180"><ele>793.5</ele><time>2026-05-12T09:59:36Z</time></trkpt>
      <trkpt lat="56.799533" lon="-5.036096"><ele>796.1</ele><time>2026-05-12T09:59:48Z</time></trkpt>
      <trkpt lat="56.799511" lon="-5.036017"><ele>798.5</ele><time>2026-05-12T10:00:00Z</time></trkpt>
      <trkpt lat="56.799525" lon="-5.035956"><ele>800.8</ele><time>2026-05-12T10:00:12Z</time></trkpt>
      <trkpt lat="56.799548" lon="-5.035812"><ele>803.1</ele><time>2026-05-12T10:00:24Z</time></trkpt>
      <trkpt lat="56.799627" lon="-5.035752"><ele>805.5</ele><time>2026-05-12T10:00:36Z</time></trkpt>
      <trkpt lat="56.799637" lon="-5.035641"><ele>807.9</ele><time>2026-05-12T10:00:48Z</time></trkpt>
      <trkpt lat="56.799620" lon="-5.035545"><ele>810.4</ele><time>2026-05-12T10:01:00Z</time></trkpt>
      <trkpt lat="56.799693" lon="-5.035471"><ele>812.6</ele><time>2026-05-12T10:01:12Z</time></trkpt>
      <trkpt lat="56.799714" lon="-5.035317"><ele>814.7</ele><time>2026-05-12T10:01:24Z</time></trkpt>
      <trkpt lat="56.799727" lon="-5.035260"><ele>817.3</ele><time>2026-05-12T10:01:36Z</time></trkpt>
      <trkpt lat="56.799733" lon="-5.035175"><ele>819.7</ele><time>2026-05-12T10:01:48Z</time></trkpt>
      <trkpt lat="56.799770" lon="-5.035021"><ele>821.9</ele><time>2026-05-12T10:02:00Z</time></trkpt>
      <trkpt lat="56.799848" lon="-5.034998"><ele>824.6</ele><time>2026-05-12T10:02:12Z</time></trkpt>
      <trkpt lat="56.799842" lon="-5.034894"><ele>826.8</ele><time>2026-05-12T10:02:24Z</time></trkpt>
      <trkpt lat="56.799855" lon="-5.034806"><ele>829.1</ele><time>2026-05-12T10:02:36Z</time></trkpt>
      <trkpt lat="56.799911" lon="-5.034719"><ele>831.6</ele><time>2026-05-12T10:02:48Z</time></trkpt>
      <trkpt lat="56.799886" lon="-5.034605"><ele>834.0</ele><time>2026-05-12T10:03:00Z</time></trkpt>
      <trkpt lat="56.799927" lon="-5.034509"><ele>836.3</ele><time>2026-05-12T10:03:12Z</time></trkpt>
      <trkpt lat="56.799937" lon="-5.034457"><ele>838.7</ele><time>2026-05-12T10:03:24Z</time></trkpt>
      <trkpt lat="56.799986" lon="-5.034275"><ele>841.0</ele><time>2026-05-12T10:03:36Z</time></trkpt>
      <trkpt lat="56.800040" lon="-5.034211"><ele>843.7</ele><time>2026-05-12T10:03:48Z</time></trkpt>
      <trkpt lat="56.800034" lon="-5.034111"><ele>846.1</ele><time>2026-05-12T10:04:00Z</time></trkpt>
      <trkpt lat="56.800105" lon="-5.034024"><ele>848.5</ele><time>2026-05-12T10:04:12Z</time></trkpt>
      <trkpt lat="56.800108" lon="-5.033918"><ele>850.9</ele><time>2026-05-12T10:04:24Z</time></trkpt>
      <trkpt lat="56.800161" lon="-5.033808"><ele>853.4</ele><time>2026-05-12T10:04:36Z</time></trkpt>
      <trkpt lat="56.800170" lon="-5.033736"><ele>855.9</ele><time>2026-05-12T10:04:48Z</time></trkpt>
      <trkpt lat="56.800198" lon="-5.033611"><ele>858.1</ele><time>2026-05-12T10:05:00Z</time></trkpt>
      <trkpt lat="56.800201" lon="-5.033484"><ele>860.4</ele><time>2026-05-12T10:05:12Z</time></trkpt>
      <trkpt lat="56.800219" lon="-5.033371"><ele>862.7</ele><time>2026-05-12T10:05:24Z</time></trkpt>
      <trkpt lat="56.800230" lon="-5.033286"><ele>865.0</ele><time>2026-05-12T10:05:36Z</time></trkpt>
      <trkpt lat="56.800286" lon="-5.033184"><ele>867.1</ele><time>2026-05-12T10:05:48Z</time></trkpt>
      <trkpt lat="56.800327" lon="-5.033084"><ele>869.5</ele><time>2026-05-12T10:06:00Z</time></trkpt>
      <trkpt lat="56.800327" lon="-5.033005"><ele>871.9</ele><time>2026-05-12T10:06:12Z</time></trkpt>
      <trkpt lat="56.800332" lon="-5.032890"><ele>874.2</ele><time>2026-05-12T10:06:24Z</time></trkpt>
      <trkpt lat="56.800356" lon="-5.032781"><ele>876.4</ele><time>2026-05-12T10:06:36Z</time></trkpt>
      <trkpt lat="56.800364" lon="-5.032680"><ele>878.9</ele><time>2026-05-12T10:06:48Z</time></trkpt>
      <trkpt lat="56.800423" lon="-5.032552"><ele>881.2</ele><time>2026-05-12T10:07:00Z</time></trkpt>
      <trkpt lat="56.800464" lon="-5.032437"><ele>883.5</ele><time>2026-05-12T10:07:12Z</time></trkpt>
      <trkpt lat="56.800500" lon="-5.032344"><ele>885.6</ele><time>2026-05-12T10:07:24Z</time></trkpt>
      <trkpt lat="56.800504" lon="-5.032262"><ele>887.9</ele><time>2026-05-12T10:07:36Z</time></trkpt>
      <trkpt lat="56.800535" lon="-5.032118"><ele>890.2</ele><time>2026-05-12T10:07:48Z</time></trkpt>
      <trkpt lat="56.800552" lon="-5.032059"><ele>892.7</ele><time>2026-05-12T10:08:00Z</time></trkpt>
      <trkpt lat="56.800605" lon="-5.031935"><ele>895.2</ele><time>2026-05-12T10:08:12Z</time></trkpt>
      <trkpt lat="56.800621" lon="-5.031798"><ele>897.4</ele><time>2026-05-12T10:08:24Z</time></trkpt>
      <trkpt lat="56.800622" lon="-5.031713"><ele>899.7</ele><time>2026-05-12T10:08:36Z</time></trkpt>
      <trkpt lat="56.800645" lon="-5.031595"><ele>902.1</ele><time>2026-05-12T10:08:48Z</time></trkpt>
      <trkpt lat="56.800677" lon="-5.031474"><ele>904.2</ele><time>2026-05-12T10:09:00Z</time></trkpt>
      <trkpt lat="56.800710" lon="-5.031347"><ele>906.4</ele><time>2026-05-12T10:09:12Z</time></trkpt>
      <trkpt lat="56.800703" lon="-5.031237"><ele>908.9</ele><time>2026-05-12T10:09:24Z</time></trkpt>
      <trkpt lat="56.800763" lon="-5.031083"><ele>911.3</ele><time>2026-05-12T10:09:36Z</time></trkpt>
      <trkpt lat="56.800782" lon="-5.031019"><ele>913.6</ele><time>2026-05-12T10:09:48Z</time></trkpt>
      <trkpt lat="56.800799" lon="-5.030929"><ele>915.9</ele><time>2026-05-12T10:10:00Z</time></trkpt>
      <trkpt lat="56.800829" lon="-5.030812"><ele>918.4</ele><time>2026-05-12T10:10:12Z</time></trkpt>
      <trkpt lat="56.800852" lon="-5.030680"><ele>921.0</ele><time>2026-05-12T10:10:24Z</time></trkpt>
      <trkpt lat="56.800839" lon="-5.030555"><ele>923.3</ele><time>2026-05-12T10:10:36Z</time></trkpt>
      <trkpt lat="56.800856" lon="-5.030448"><ele>925.8</ele><time>2026-05-12T10:10:48Z</time></trkpt>
      <trkpt lat="56.800928" lon="-5.030312"><ele>928.0</ele><time>2026-05-12T10:11:00Z</time></trkpt>
      <trkpt lat="56.800934" lon="-5.030205"><ele>930.7</ele><time>2026-05-12T10:11:12Z</time></trkpt>
      <trkpt lat="56.800917" lon="-5.030106"><ele>932.9</ele><time>2026-05-12T10:11:24Z</time></trkpt>
      <trkpt lat="56.800955" lon="-5.029986"><ele>935.0</ele><time>2026-05-12T10:11:36Z</time></trkpt>
      <trkpt lat="56.800956" lon="-5.029904"><ele>937.2</ele><time>2026-05-12T10:11:48Z</time></trkpt>
      <trkpt lat="56.800986" lon="-5.029773"><ele>939.7</ele><time>2026-05-12T10:12:00Z</time></trkpt>
      <trkpt lat="56.801008" lon="-5.029651"><ele>942.2</ele><time>2026-05-12T10:12:12Z</time></trkpt>
      <trkpt lat="56.801074" lon="-5.029504"><ele>944.4</ele><time>2026-05-12T10:12:24Z</time></trkpt>
      <trkpt lat="56.801046" lon="-5.029452"><ele>946.6</ele><time>2026-05-12T10:12:36Z</time></trkpt>
      <trkpt lat="56.801085" lon="-5.029325"><ele>948.9</ele><time>2026-05-12T10:12:48Z</time></trkpt>
      <trkpt lat="56.801067" lon="-5.029130"><ele>951.1</ele><time>2026-05-12T10:13:00Z</time></trkpt>
      <trkpt lat="56.801081" lon="-5.029024"><ele>953.5</ele><time>2026-05-12T10:13:12Z</time></trkpt>
      <trkpt lat="56.801128" lon="-5.028921"><ele>956.1</ele><time>2026-05-12T10:13:24Z</time></trkpt>
      <trkpt lat="56.801164" lon="-5.028823"><ele>958.3</ele><time>2026-05-12T10:13:36Z</time></trkpt>
      <trkpt lat="56.801151" lon="-5.028672"><ele>960.4</ele><time>2026-05-12T10:13:48Z</time></trkpt>
      <trkpt lat="56.801192" lon="-5.028576"><ele>963.0</ele><time>2026-05-12T10:14:00Z</time></trkpt>
      <trkpt lat="56.801201" lon="-5.028395"><ele>965.5</ele><time>2026-05-12T10:14:12Z</time></trkpt>
      <trkpt lat="56.801217" lon="-5.028282"><ele>967.9</ele><time>2026-05-12T10:14:24Z</time></trkpt>
      <trkpt lat="56.801242" lon="-5.028180"><ele>970.3</ele><time>2026-05-12T10:14:36Z</time></trkpt>
      <trkpt lat="56.801211" lon="-5.028068"><ele>972.6</ele><time>2026-05-12T10:14:48Z</time></trkpt>
      <trkpt lat="56.801255" lon="-5.027927"><ele>975.0</ele><time>2026-05-12T10:15:00Z</time></trkpt>
      <trkpt lat="56.801309" lon="-5.027801"><ele>977.2</ele><time>2026-05-12T10:15:12Z</time></trkpt>
      <trkpt lat="56.801300" lon="-5.027703"><ele>979.4</ele><time>2026-05-12T10:15:24Z</time></trkpt>
      <trkpt lat="56.801308" lon="-5.027551"><ele>981.9</ele><time>2026-05-12T10:15:36Z</time></trkpt>
      <trkpt lat="56.801307" lon="-5.027429"><ele>984.4</ele><time>2026-05-12T10:15:48Z</time></trkpt>
      <trkpt lat="56.801346" lon="-5.027308"><ele>986.6</ele><time>2026-05-12T10:16:00Z</time></trkpt>
      <trkpt lat="56.801373" lon="-5.027151"><ele>989.2</ele><time>2026-05-12T10:16:12Z</time></trkpt>
      <trkpt lat="56.801395" lon="-5.027055"><ele>991.8</ele><time>2026-05-12T10:16:24Z</time></trkpt>
      <trkpt lat="56.801368" lon="-5.026953"><ele>994.1</ele><time>2026-05-12T10:16:36Z</time></trkpt>
      <trkpt lat="56.801390" lon="-5.026814"><ele>996.3</ele><time>2026-05-12T10:16:48Z</time></trkpt>
      <trkpt lat="56.801368" lon="-5.026689"><ele>998.5</ele><time>2026-05-12T10:17:00Z</time></trkpt>
      <trkpt lat="56.801427" lon="-5.026564"><ele>1001.0</ele><time>2026-05-12T10:17:12Z</time></trkpt>
      <trkpt lat="56.801423" lon="-5.026442"><ele>1003.4</ele><time>2026-05-12T10:17:24Z</time></trkpt>
      <trkpt lat="56.801460" lon="-5.026313"><ele>1005.5</ele><time>2026-05-12T10:17:36Z</time></trkpt>
      <trkpt lat="56.801460" lon="-5.026184"><ele>1008.0</ele><time>2026-05-12T10:17:48Z</time></trkpt>
      <trkpt lat="56.801506" lon="-5.026064"><ele>1010.6</ele><time>2026-05-12T10:18:00Z</time></trkpt>
      <trkpt lat="56.801497" lon="-5.025916"><ele>1013.0</ele><time>2026-05-12T10:18:12Z</time></trkpt>
      <trkpt lat="56.801507" lon="-5.025791"><ele>1015.2</ele><time>2026-05-12T10:18:24Z</time></trkpt>
      <trkpt lat="56.801517" lon="-5.025687"><ele>1017.6</ele><time>2026-05-12T10:18:36Z</time></trkpt>
      <trkpt lat="56.801521" lon="-5.025500"><ele>1020.1</ele><time>2026-05-12T10:18:48Z</time></trkpt>
      <trkpt lat="56.801540" lon="-5.025393"><ele>1022.5</ele><time>2026-05-12T10:19:00Z</time></trkpt>
      <trkpt lat="56.801519" lon="-5.025279"><ele>1024.9</ele><time>2026-05-12T10:19:12Z</time></trkpt>
      <trkpt lat="56.801583" lon="-5.025154"><ele>1027.3</ele><time>2026-05-12T10:19:24Z</time></trkpt>
      <trkpt lat="56.801571" lon="-5.024959"><ele>1029.7</ele><time>2026-05-12T10:19:36Z</time></trkpt>
      <trkpt lat="56.801630" lon="-5.024874"><ele>1031.9</ele><time>2026-05-12T10:19:48Z</time></trkpt>
      <trkpt lat="56.801558" lon="-5.024827"><ele>1034.2</ele><time>2026-05-12T10:20:00Z</time></trkpt>
      <trkpt lat="56.801604" lon="-5.024639"><ele>1036.4</ele><time>2026-05-12T10:20:12Z</time></trkpt>
      <trkpt lat="56.801618" lon="-5.024506"><ele>1039.0</ele><time>2026-05-12T10:20:24Z</time></trkpt>
      <trkpt lat="56.801586" lon="-5.024356"><ele>1041.5</ele><time>2026-05-12T10:20:36Z</time></trkpt>
      <trkpt lat="56.801623" lon="-5.024224"><ele>1044.0</ele><time>2026-05-12T10:20:48Z</time></trkpt>
      <trkpt lat="56.801643" lon="-5.024106"><ele>1046.5</ele><time>2026-05-12T10:21:00Z</time></trkpt>
      <trkpt lat="56.801600" lon="-5.024009"><ele>1048.9</ele><time>2026-05-12T10:21:12Z</time></trkpt>
      <trkpt lat="56.801606" lon="-5.023861"><ele>1051.4</ele><time>2026-05-12T10:21:24Z</time></trkpt>
      <trkpt lat="56.801639" lon="-5.023758"><ele>1053.6</ele><time>2026-05-12T10:21:36Z</time></trkpt>
      <trkpt lat="56.801661" lon="-5.023561"><ele>1055.8</ele><time>2026-05-12T10:21:48Z</time></trkpt>
      <trkpt lat="56.801658" lon="-5.023451"><ele>1058.1</ele><time>2026-05-12T10:22:00Z</time></trkpt>
      <trkpt lat="56.801666" lon="-5.023315"><ele>1060.7</ele><time>2026-05-12T10:22:12Z</time></trkpt>
      <trkpt lat="56.801673" lon="-5.023202"><ele>1063.1</ele><time>2026-05-12T10:22:24Z</time></trkpt>
      <trkpt lat="56.801666" lon="-5.023034"><ele>1065.5</ele><time>2026-05-12T10:22:36Z</time></trkpt>
      <trkpt lat="56.801685" lon="-5.022917"><ele>1067.6</ele><time>2026-05-12T10:22:48Z</time></trkpt>
      <trkpt lat="56.801692" lon="-5.022772"><ele>1069.9</ele><time>2026-05-12T10:23:00Z</time></trkpt>
      <trkpt lat="56.801702" lon="-5.022683"><ele>1072.1</ele><time>2026-05-12T10:23:12Z</time></trkpt>
      <trkpt lat="56.801672" lon="-5.022536"><ele>1074.4</ele><time>2026-05-12T10:23:24Z</time></trkpt>
      <trkpt lat="56.801679" lon="-5.022403"><ele>1076.7</ele><time>2026-05-12T10:23:36Z</time></trkpt>
      <trkpt lat="56.801682" lon="-5.022281"><ele>1078.9</ele><time>2026-05-12T10:23:48Z</time></trkpt>
      <trkpt lat="56.801662" lon="-5.022138"><ele>1080.8</ele><time>2026-05-12T10:24:00Z</time></trkpt>
      <trkpt lat="56.801722" lon="-5.022015"><ele>1082.8</ele><time>2026-05-12T10:24:12Z</time></trkpt>
      <trkpt lat="56.801700" lon="-5.021862"><ele>1084.5</ele><time>2026-05-12T10:24:24Z</time></trkpt>
      <trkpt lat="56.801703" lon="-5.021746"><ele>1086.4</ele><time>2026-05-12T10:24:36Z</time></trkpt>
      <trkpt lat="56.801719" lon="-5.021594"><ele>1088.1</ele><time>2026-05-12T10:24:48Z</time></trkpt>
      <trkpt lat="56.801666" lon="-5.021467"><ele>1089.8</ele><time>2026-05-12T10:25:00Z</time></trkpt>
      <trkpt lat="56.801662" lon="-5.021383"><ele>1091.4</ele><time>2026-05-12T10:25:12Z</time></trkpt>
      <trkpt lat="56.801684" lon="-5.021187"><ele>1093.2</ele><time>2026-05-12T10:25:24Z</time></trkpt>
      <trkpt lat="56.801703" lon="-5.021061"><ele>1094.9</ele><time>2026-05-12T10:25:36Z</time></trkpt>
      <trkpt lat="56.801715" lon="-5.020961"><ele>1096.6</ele><time>2026-05-12T10:25:48Z</time></trkpt>
      <trkpt lat="56.801714" lon="-5.020818"><ele>1098.2</ele><time>2026-05-12T10:26:00Z</time></trkpt>
      <trkpt lat="56.801725" lon="-5.020710"><ele>1099.5</ele><time>2026-05-12T10:26:12Z</time></trkpt>
      <trkpt lat="56.801699" lon="-5.020577"><ele>1101.4</ele><time>2026-05-12T10:26:24Z</time></trkpt>
      <trkpt lat="56.801691" lon="-5.020442"><ele>1103.1</ele><time>2026-05-12T10:26:36Z</time></trkpt>
      <trkpt lat="56.801672" lon="-5.020303"><ele>1104.8</ele><time>2026-05-12T10:26:48Z</time></trkpt>
      <trkpt lat="56.801639" lon="-5.020145"><ele>1106.7</ele><time>2026-05-12T10:27:00Z</time></trkpt>
      <trkpt lat="56.801706" lon="-5.020029"><ele>1108.7</ele><time>2026-05-12T10:27:12Z</time></trkpt>
      <trkpt lat="56.801678" lon="-5.019846"><ele>1110.4</ele><time>2026-05-12T10:27:24Z</time></trkpt>
      <trkpt lat="56.801684" lon="-5.019762"><ele>1112.0</ele><time>2026-05-12T10:27:36Z</time></trkpt>
      <trkpt lat="56.801649" lon="-5.019649"><ele>1113.8</ele><time>2026-05-12T10:27:48Z</time></trkpt>
      <trkpt lat="56.801670" lon="-5.019495"><ele>1115.5</ele><time>2026-05-12T10:28:00Z</time></trkpt>
      <trkpt lat="56.801659" lon="-5.019400"><ele>1117.4</ele><time>2026-05-12T10:28:12Z</time></trkpt>
      <trkpt lat="56.801639" lon="-5.019266"><ele>1119.1</ele><time>2026-05-12T10:28:24Z</time></trkpt>
      <trkpt lat="56.801644" lon="-5.019138"><ele>1121.0</ele><time>2026-05-12T10:28:36Z</time></trkpt>
      <trkpt lat="56.801626" lon="-5.019020"><ele>1122.6</ele><time>2026-05-12T10:28:48Z</time></trkpt>
      <trkpt lat="56.801649" lon="-5.018838"><ele>1124.4</ele><time>2026-05-12T10:29:00Z</time></trkpt>
      <trkpt lat="56.801620" lon="-5.018713"><ele>1126.1</ele><time>2026-05-12T10:29:12Z</time></trkpt>
      <trkpt lat="56.801628" lon="-5.018604"><ele>1127.9</ele><time>2026-05-12T10:29:24Z</time></trkpt>
      <trkpt lat="56.801601" lon="-5.018512"><ele>1129.7</ele><time>2026-05-12T10:29:36Z</time></trkpt>
      <trkpt lat="56.801611" lon="-5.018366"><ele>1131.7</ele><time>2026-05-12T10:29:48Z</time></trkpt>
      <trkpt lat="56.801607" lon="-5.018225"><ele>1133.3</ele><time>2026-05-12T10:30:00Z</time></trkpt>
      <trkpt lat="56.801586" lon="-5.018080"><ele>1135.0</ele><time>2026-05-12T10:30:12Z</time></trkpt>
      <trkpt lat="56.801587" lon="-5.017943"><ele>1136.9</ele><time>2026-05-12T10:30:24Z</time></trkpt>
      <trkpt lat="56.801569" lon="-5.017834"><ele>1138.9</ele><time>2026-05-12T10:30:36Z</time></trkpt>
      <trkpt lat="56.801580" lon="-5.017664"><ele>1140.6</ele><time>2026-05-12T10:30:48Z</time></trkpt>
      <trkpt lat="56.801505" lon="-5.017652"><ele>1142.3</ele><time>2026-05-12T10:31:00Z</time></trkpt>
      <trkpt lat="56.801530" lon="-5.017449"><ele>1144.2</ele><time>2026-05-12T10:31:12Z</time></trkpt>
      <trkpt lat="56.801512" lon="-5.017336"><ele>1146.0</ele><time>2026-05-12T10:31:24Z</time></trkpt>
      <trkpt lat="56.801496" lon="-5.017246"><ele>1147.9</ele><time>2026-05-12T10:31:36Z</time></trkpt>
      <trkpt lat="56.801504" lon="-5.017110"><ele>1149.9</ele><time>2026-05-12T10:31:48Z</time></trkpt>
      <trkpt lat="56.801466" lon="-5.016983"><ele>1151.9</ele><time>2026-05-12T10:32:00Z</time></trkpt>
      <trkpt lat="56.801465" lon="-5.016844"><ele>1153.6</ele><time>2026-05-12T10:32:12Z</time></trkpt>
      <trkpt lat="56.801449" lon="-5.016704"><ele>1155.7</ele><time>2026-05-12T10:32:24Z</time></trkpt>
      <trkpt lat="56.801423" lon="-5.016593"><ele>1157.5</ele><time>2026-05-12T10:32:36Z</time></trkpt>
      <trkpt lat="56.801423" lon="-5.016476"><ele>1159.2</ele><time>2026-05-12T10:32:48Z</time></trkpt>
      <trkpt lat="56.801448" lon="-5.016318"><ele>1160.9</ele><time>2026-05-12T10:33:00Z</time></trkpt>
      <trkpt lat="56.801399" lon="-5.016242"><ele>1162.9</ele><time>2026-05-12T10:33:12Z</time></trkpt>
      <trkpt lat="56.801395" lon="-5.016083"><ele>1164.7</ele><time>2026-05-12T10:33:24Z</time></trkpt>
      <trkpt lat="56.801392" lon="-5.015987"><ele>1166.4</ele><time>2026-05-12T10:33:36Z</time></trkpt>
      <trkpt lat="56.801349" lon="-5.015881"><ele>1168.0</ele><time>2026-05-12T10:33:48Z</time></trkpt>
      <trkpt lat="56.801313" lon="-5.015745"><ele>1169.6</ele><time>2026-05-12T10:34:00Z</time></trkpt>
      <trkpt lat="56.801330" lon="-5.015620"><ele>1171.5</ele><time>2026-05-12T10:34:12Z</time></trkpt>
      <trkpt lat="56.801274" lon="-5.015467"><ele>1173.3</ele><time>2026-05-12T10:34:24Z</time></trkpt>
      <trkpt lat="56.801240" lon="-5.015388"><ele>1175.0</ele><time>2026-05-12T10:34:36Z</time></trkpt>
      <trkpt lat="56.801291" lon="-5.015242"><ele>1176.9</ele><time>2026-05-12T10:34:48Z</time></trkpt>
      <trkpt lat="56.801244" lon="-5.015115"><ele>1178.5</ele><time>2026-05-12T10:35:00Z</time></trkpt>
      <trkpt lat="56.801211" lon="-5.014970"><ele>1180.3</ele><time>2026-05-12T10:35:12Z</time></trkpt>
      <trkpt lat="56.801196" lon="-5.014889"><ele>1182.0</ele><time>2026-05-12T10:35:24Z</time></trkpt>
      <trkpt lat="56.801173" lon="-5.014773"><ele>1183.9</ele><time>2026-05-12T10:35:36Z</time></trkpt>
      <trkpt lat="56.801172" lon="-5.014666"><ele>1185.8</ele><time>2026-05-12T10:35:48Z</time></trkpt>
      <trkpt lat="56.801208" lon="-5.014512"><ele>1187.4</ele><time>2026-05-12T10:36:00Z</time></trkpt>
      <trkpt lat="56.801142" lon="-5.014405"><ele>1189.1</ele><time>2026-05-12T10:36:12Z</time></trkpt>
      <trkpt lat="56.801128" lon="-5.014296"><ele>1190.8</ele><time>2026-05-12T10:36:24Z</time></trkpt>
      <trkpt lat="56.801102" lon="-5.014214"><ele>1192.8</ele><time>2026-05-12T10:36:36Z</time></trkpt>
      <trkpt lat="56.801076" lon="-5.014091"><ele>1194.5</ele><time>2026-05-12T10:36:48Z</time></trkpt>
      <trkpt lat="56.801082" lon="-5.013951"><ele>1196.4</ele><time>2026-05-12T10:37:00Z</time></trkpt>
      <trkpt lat="56.801021" lon="-5.013839"><ele>1198.2</ele><time>2026-05-12T10:37:12Z</time></trkpt>
      <trkpt lat="56.801038" lon="-5.013729"><ele>1199.8</ele><time>2026-05-12T10:37:24Z</time></trkpt>
      <trkpt lat="56.800975" lon="-5.013627"><ele>1202.0</ele><time>2026-05-12T10:37:36Z</time></trkpt>
      <trkpt lat="56.800982" lon="-5.013537"><ele>1203.9</ele><time>2026-05-12T10:37:48Z</time></trkpt>
      <trkpt lat="56.800896" lon="-5.013378"><ele>1205.8</ele><time>2026-05-12T10:38:00Z</time></trkpt>
      <trkpt lat="56.800907" lon="-5.013279"><ele>1207.7</ele><time>2026-05-12T10:38:12Z</time></trkpt>
      <trkpt lat="56.800883" lon="-5.013160"><ele>1209.3</ele><time>2026-05-12T10:38:24Z</time></trkpt>
      <trkpt lat="56.800881" lon="-5.013065"><ele>1211.0</ele><time>2026-05-12T10:38:36Z</time></trkpt>
      <trkpt lat="56.800823" lon="-5.012958"><ele>1212.7</ele><time>2026-05-12T10:38:48Z</time></trkpt>
      <trkpt lat="56.800823" lon="-5.012851"><ele>1214.3</ele><time>2026-05-12T10:39:00Z</time></trkpt>
      <trkpt lat="56.800806" lon="-5.012685"><ele>1216.1</ele><time>2026-05-12T10:39:12Z</time></trkpt>
      <trkpt lat="56.800758" lon="-5.012623"><ele>1217.9</ele><time>2026-05-12T10:39:24Z</time></trkpt>
      <trkpt lat="56.800743" lon="-5.012468"><ele>1219.5</ele><time>2026-05-12T10:39:36Z</time></trkpt>
      <trkpt lat="56.800713" lon="-5.012404"><ele>1221.4</ele><time>2026-05-12T10:39:48Z</time></trkpt>
      <trkpt lat="56.800693" lon="-5.012284"><ele>1223.3</ele><time>2026-05-12T10:40:00Z</time></trkpt>
      <trkpt lat="56.800651" lon="-5.012192"><ele>1224.9</ele><time>2026-05-12T10:40:12Z</time></trkpt>
      <trkpt lat="56.800641" lon="-5.012070"><ele>1226.8</ele><time>2026-05-12T10:40:24Z</time></trkpt>
      <trkpt lat="56.800639" lon="-5.011965"><ele>1228.9</ele><time>2026-05-12T10:40:36Z</time></trkpt>
      <trkpt lat="56.800556" lon="-5.011856"><ele>1230.8</ele><time>2026-05-12T10:40:48Z</time></trkpt>
      <trkpt lat="56.800535" lon="-5.011745"><ele>1232.3</ele><time>2026-05-12T10:41:00Z</time></trkpt>
      <trkpt lat="56.800527" lon="-5.011619"><ele>1234.5</ele><time>2026-05-12T10:41:12Z</time></trkpt>
      <trkpt lat="56.800529" lon="-5.011537"><ele>1236.2</ele><time>2026-05-12T10:41:24Z</time></trkpt>
      <trkpt lat="56.800461" lon="-5.011439"><ele>1238.0</ele><time>2026-05-12T10:41:36Z</time></trkpt>
      <trkpt lat="56.800421" lon="-5.011361"><ele>1240.1</ele><time>2026-05-12T10:41:48Z</time></trkpt>
      <trkpt lat="56.800413" lon="-5.011206"><ele>1242.0</ele><time>2026-05-12T10:42:00Z</time></trkpt>
      <trkpt lat="56.800375" lon="-5.011122"><ele>1243.5</ele><time>2026-05-12T10:42:12Z</time></trkpt>
      <trkpt lat="56.800344" lon="-5.010996"><ele>1245.3</ele><time>2026-05-12T10:42:24Z</time></trkpt>
      <trkpt lat="56.800298" lon="-5.010868"><ele>1247.0</ele><time>2026-05-12T10:42:36Z</time></trkpt>
      <trkpt lat="56.800262" lon="-5.010824"><ele>1249.1</ele><time>2026-05-12T10:42:48Z</time></trkpt>
      <trkpt lat="56.800231" lon="-5.010738"><ele>1250.6</ele><time>2026-05-12T10:43:00Z</time></trkpt>
      <trkpt lat="56.800204" lon="-5.010608"><ele>1252.3</ele><time>2026-05-12T10:43:12Z</time></trkpt>
      <trkpt lat="56.800164" lon="-5.010500"><ele>1254.4</ele><time>2026-05-12T10:43:24Z</time></trkpt>
      <trkpt lat="56.800199" lon="-5.010402"><ele>1256.2</ele><time>2026-05-12T10:43:36Z</time></trkpt>
      <trkpt lat="56.800130" lon="-5.010344"><ele>1257.9</ele><time>2026-05-12T10:43:48Z</time></trkpt>
      <trkpt lat="56.800076" lon="-5.010228"><ele>1259.9</ele><time>2026-05-12T10:44:00Z</time></trkpt>
      <trkpt lat="56.800075" lon="-5.010127"><ele>1261.8</ele><time>2026-05-12T10:44:12Z</time></trkpt>
      <trkpt lat="56.800009" lon="-5.009999"><ele>1263.1</ele><time>2026-05-12T10:44:24Z</time></trkpt>
      <trkpt lat="56.800002" lon="-5.009944"><ele>1265.0</ele><time>2026-05-12T10:44:36Z</time></trkpt>
      <trkpt lat="56.799943" lon="-5.009814"><ele>1266.7</ele><time>2026-05-12T10:44:48Z</time></trkpt>
      <trkpt lat="56.799953" lon="-5.009736"><ele>1268.4</ele><time>2026-05-12T10:45:00Z</time></trkpt>
      <trkpt lat="56.799926" lon="-5.009658"><ele>1270.2</ele><time>2026-05-12T10:45:12Z</time></trkpt>
      <trkpt lat="56.799887" lon="-5.009548"><ele>1272.1</ele><time>2026-05-12T10:45:24Z</time></trkpt>
      <trkpt lat="56.799823" lon="-5.009441"><ele>1273.9</ele><time>2026-05-12T10:45:36Z</time></trkpt>
      <trkpt lat="56.799783" lon="-5.009355"><ele>1275.7</ele><time>2026-05-12T10:45:48Z</time></trkpt>
      <trkpt lat="56.799759" lon="-5.009262"><ele>1277.5</ele><time>2026-05-12T10:46:00Z</time></trkpt>
      <trkpt lat="56.799686" lon="-5.009197"><ele>1279.2</ele><time>2026-05-12T10:46:12Z</time></trkpt>
      <trkpt lat="56.799649" lon="-5.009083"><ele>1281.0</ele><time>2026-05-12T10:46:24Z</time></trkpt>
      <trkpt lat="56.799644" lon="-5.008963"><ele>1282.8</ele><time>2026-05-12T10:46:36Z</time></trkpt>
      <trkpt lat="56.799576" lon="-5.008907"><ele>1284.4</ele><time>2026-05-12T10:46:48Z</time></trkpt>
      <trkpt lat="56.799580" lon="-5.008777"><ele>1285.9</ele><time>2026-05-12T10:47:00Z</time></trkpt>
      <trkpt lat="56.799507" lon="-5.008728"><ele>1287.9</ele><time>2026-05-12T10:47:12Z</time></trkpt>
      <trkpt lat="56.799491" lon="-5.008620"><ele>1288.3</ele><time>2026-05-12T10:47:24Z</time></trkpt>
      <trkpt lat="56.799480" lon="-5.008514"><ele>1289.1</ele><time>2026-05-12T10:47:36Z</time></trkpt>
      <trkpt lat="56.799418" lon="-5.008463"><ele>1289.6</ele><time>2026-05-12T10:47:48Z</time></trkpt>
      <trkpt lat="56.799419" lon="-5.008294"><ele>1290.2</ele><time>2026-05-12T10:48:00Z</time></trkpt>
      <trkpt lat="56.799332" lon="-5.008211"><ele>1290.8</ele><time>2026-05-12T10:48:12Z</time></trkpt>
      <trkpt lat="56.799283" lon="-5.008173"><ele>1291.4</ele><time>2026-05-12T10:48:24Z</time></trkpt>
      <trkpt lat="56.799254" lon="-5.008095"><ele>1292.1</ele><time>2026-05-12T10:48:36Z</time></trkpt>
      <trkpt lat="56.799240" lon="-5.008012"><ele>1292.6</ele><time>2026-05-12T10:48:48Z</time></trkpt>
      <trkpt lat="56.799203" lon="-5.007885"><ele>1293.5</ele><time>2026-05-12T10:49:00Z</time></trkpt>
      <trkpt lat="56.799122" lon="-5.007800"><ele>1294.1</ele><time>2026-05-12T10:49:12Z</time></trkpt>
      <trkpt lat="56.799144" lon="-5.007744"><ele>1295.0</ele><time>2026-05-12T10:49:24Z</time></trkpt>
      <trkpt lat="56.799071" lon="-5.007645"><ele>1295.6</ele><time>2026-05-12T10:49:36Z</time></trkpt>
      <trkpt lat="56.799060" lon="-5.007551"><ele>1296.0</ele><time>2026-05-12T10:49:48Z</time></trkpt>
      <trkpt lat="56.798986" lon="-5.007464"><ele>1296.9</ele><time>2026-05-12T10:50:00Z</time></trkpt>
      <trkpt lat="56.798978" lon="-5.007377"><ele>1297.6</ele><time>2026-05-12T10:50:12Z</time></trkpt>
      <trkpt lat="56.798927" lon="-5.007304"><ele>1298.3</ele><time>2026-05-12T10:50:24Z</time></trkpt>
      <trkpt lat="56.798846" lon="-5.007235"><ele>1299.2</ele><time>2026-05-12T10:50:36Z</time></trkpt>
      <trkpt lat="56.798811" lon="-5.007124"><ele>1299.8</ele><time>2026-05-12T10:50:48Z</time></trkpt>
      <trkpt lat="56.798815" lon="-5.007059"><ele>1300.7</ele><time>2026-05-12T10:51:00Z</time></trkpt>
      <trkpt lat="56.798766" lon="-5.006964"><ele>1301.5</ele><time>2026-05-12T10:51:12Z</time></trkpt>
      <trkpt lat="56.798744" lon="-5.006865"><ele>1302.1</ele><time>2026-05-12T10:51:24Z</time></trkpt>
      <trkpt lat="56.798681" lon="-5.006833"><ele>1302.5</ele><time>2026-05-12T10:51:36Z</time></trkpt>
      <trkpt lat="56.798605" lon="-5.006744"><ele>1303.2</ele><time>2026-05-12T10:51:48Z</time></trkpt>
      <trkpt lat="56.798611" lon="-5.006644"><ele>1303.9</ele><time>2026-05-12T10:52:00Z</time></trkpt>
      <trkpt lat="56.798534" lon="-5.006560"><ele>1304.5</ele><time>2026-05-12T10:52:12Z</time></trkpt>
      <trkpt lat="56.798494" lon="-5.006461"><ele>1305.3</ele><time>2026-05-12T10:52:24Z</time></trkpt>
      <trkpt lat="56.798444" lon="-5.006385"><ele>1306.0</ele><time>2026-05-12T10:52:36Z</time></trkpt>
      <trkpt lat="56.798443" lon="-5.006321"><ele>1306.5</ele><time>2026-05-12T10:52:48Z</time></trkpt>
      <trkpt lat="56.798412" lon="-5.006202"><ele>1307.3</ele><time>2026-05-12T10:53:00Z</time></trkpt>
      <trkpt lat="56.798333" lon="-5.006131"><ele>1307.9</ele><time>2026-05-12T10:53:12Z</time></trkpt>
      <trkpt lat="56.798281" lon="-5.006055"><ele>1308.6</ele><time>2026-05-12T10:53:24Z</time></trkpt>
      <trkpt lat="56.798256" lon="-5.005969"><ele>1309.1</ele><time>2026-05-12T10:53:36Z</time></trkpt>
      <trkpt lat="56.798191" lon="-5.005875"><ele>1309.9</ele><time>2026-05-12T10:53:48Z</time></trkpt>
      <trkpt lat="56.798176" lon="-5.005817"><ele>1310.6</ele><time>2026-05-12T10:54:00Z</time></trkpt>
      <trkpt lat="56.798111" lon="-5.005716"><ele>1311.1</ele><time>2026-05-12T10:54:12Z</time></trkpt>
      <trkpt lat="56.798101" lon="-5.005643"><ele>1311.9</ele><time>2026-05-12T10:54:24Z</time></trkpt>
      <trkpt lat="56.798000" lon="-5.005592"><ele>1312.8</ele><time>2026-05-12T10:54:36Z</time></trkpt>
      <trkpt lat="56.797999" lon="-5.005551"><ele>1313.4</ele><time>2026-05-12T10:54:48Z</time></trkpt>
      <trkpt lat="56.797898" lon="-5.005419"><ele>1314.3</ele><time>2026-05-12T10:55:00Z</time></trkpt>
      <trkpt lat="56.797895" lon="-5.005353"><ele>1315.0</ele><time>2026-05-12T10:55:12Z</time></trkpt>
      <trkpt lat="56.797892" lon="-5.005288"><ele>1315.9</ele><time>2026-05-12T10:55:24Z</time></trkpt>
      <trkpt lat="56.797845" lon="-5.005202"><ele>1316.5</ele><time>2026-05-12T10:55:36Z</time></trkpt>
      <trkpt lat="56.797767" lon="-5.005139"><ele>1317.3</ele><time>2026-05-12T10:55:48Z</time></trkpt>
      <trkpt lat="56.797739" lon="-5.005049"><ele>1317.9</ele><time>2026-05-12T10:56:00Z</time></trkpt>
      <trkpt lat="56.797725" lon="-5.004969"><ele>1318.5</ele><time>2026-05-12T10:56:12Z</time></trkpt>
      <trkpt lat="56.797689" lon="-5.004921"><ele>1319.4</ele><time>2026-05-12T10:56:24Z</time></trkpt>
      <trkpt lat="56.797611" lon="-5.004821"><ele>1319.8</ele><time>2026-05-12T10:56:36Z</time></trkpt>
      <trkpt lat="56.797584" lon="-5.004748"><ele>1320.4</ele><time>2026-05-12T10:56:48Z</time></trkpt>
      <trkpt lat="56.797515" lon="-5.004649"><ele>1321.0</ele><time>2026-05-12T10:57:00Z</time></trkpt>
      <trkpt lat="56.797462" lon="-5.004548"><ele>1321.7</ele><time>2026-05-12T10:57:12Z</time></trkpt>
      <trkpt lat="56.797452" lon="-5.004513"><ele>1322.1</ele><time>2026-05-12T10:57:24Z</time></trkpt>
      <trkpt lat="56.797396" lon="-5.004425"><ele>1322.8</ele><time>2026-05-12T10:57:36Z</time></trkpt>
      <trkpt lat="56.797347" lon="-5.004347"><ele>1323.5</ele><time>2026-05-12T10:57:48Z</time></trkpt>
      <trkpt lat="56.797325" lon="-5.004277"><ele>1323.8</ele><time>2026-05-12T10:58:00Z</time></trkpt>
      <trkpt lat="56.797244" lon="-5.004194"><ele>1324.6</ele><time>2026-05-12T10:58:12Z</time></trkpt>
      <trkpt lat="56.797221" lon="-5.004167"><ele>1325.6</ele><time>2026-05-12T10:58:24Z</time></trkpt>
      <trkpt lat="56.797166" lon="-5.004063"><ele>1326.2</ele><time>2026-05-12T10:58:36Z</time></trkpt>
      <trkpt lat="56.797131" lon="-5.003974"><ele>1326.7</ele><time>2026-05-12T10:58:48Z</time></trkpt>
      <trkpt lat="56.797065" lon="-5.003908"><ele>1327.3</ele><time>2026-05-12T10:59:00Z</time></trkpt>
      <trkpt lat="56.797027" lon="-5.003827"><ele>1328.0</ele><time>2026-05-12T10:59:12Z</time></trkpt>
      <trkpt lat="56.796973" lon="-5.003772"><ele>1328.6</ele><time>2026-05-12T10:59:24Z</time></trkpt>
      <trkpt lat="56.796933" lon="-5.003658"><ele>1329.2</ele><time>2026-05-12T10:59:36Z</time></trkpt>
      <trkpt lat="56.796921" lon="-5.003580"><ele>1329.7</ele><time>2026-05-12T10:59:48Z</time></trkpt>
    </trkseg>
  </trk>
</gpx>
