<?xml version="1.0" encoding="UTF-8"?>
<gpx version="1.1" creator="gpx2print sample" xmlns="http://www.topografix.com/GPX/1/1">
  <trk>
    <name>Circular walk - a closed loop</name>
    <desc>Invented loop for testing. Not a real recording.</desc>
    <trkseg>
      <trkpt lat="56.800000" lon="-5.034100"><ele>400.0</ele><time>2026-05-12T08:00:00Z</time></trkpt>
      <trkpt lat="56.800170" lon="-5.034102"><ele>400.0</ele><time>2026-05-12T08:00:20Z</time></trkpt>
      <trkpt lat="56.800340" lon="-5.034109"><ele>400.1</ele><time>2026-05-12T08:00:40Z</time></trkpt>
      <trkpt lat="56.800510" lon="-5.034121"><ele>400.2</ele><time>2026-05-12T08:01:00Z</time></trkpt>
      <trkpt lat="56.800679" lon="-5.034137"><ele>400.3</ele><time>2026-05-12T08:01:20Z</time></trkpt>
      <trkpt lat="56.800848" lon="-5.034158"><ele>400.5</ele><time>2026-05-12T08:01:40Z</time></trkpt>
      <trkpt lat="56.801017" lon="-5.034183"><ele>400.8</ele><time>2026-05-12T08:02:00Z</time></trkpt>
      <trkpt lat="56.801185" lon="-5.034213"><ele>401.1</ele><time>2026-05-12T08:02:20Z</time></trkpt>
      <trkpt lat="56.801352" lon="-5.034247"><ele>401.4</ele><time>2026-05-12T08:02:40Z</time></trkpt>
      <trkpt lat="56.801519" lon="-5.034286"><ele>401.8</ele><time>2026-05-12T08:03:00Z</time></trkpt>
      <trkpt lat="56.801684" lon="-5.034330"><ele>402.2</ele><time>2026-05-12T08:03:20Z</time></trkpt>
      <trkpt lat="56.801849" lon="-5.034378"><ele>402.6</ele><time>2026-05-12T08:03:40Z</time></trkpt>
      <trkpt lat="56.802013" lon="-5.034431"><ele>403.1</ele><time>2026-05-12T08:04:00Z</time></trkpt>
      <trkpt lat="56.802175" lon="-5.034488"><ele>403.7</ele><time>2026-05-12T08:04:20Z</time></trkpt>
      <trkpt lat="56.802337" lon="-5.034549"><ele>404.2</ele><time>2026-05-12T08:04:40Z</time></trkpt>
      <trkpt lat="56.802497" lon="-5.034615"><ele>404.9</ele><time>2026-05-12T08:05:00Z</time></trkpt>
      <trkpt lat="56.802655" lon="-5.034685"><ele>405.5</ele><time>2026-05-12T08:05:20Z</time></trkpt>
      <trkpt lat="56.802812" lon="-5.034760"><ele>406.2</ele><time>2026-05-12T08:05:40Z</time></trkpt>
      <trkpt lat="56.802968" lon="-5.034839"><ele>407.0</ele><time>2026-05-12T08:06:00Z</time></trkpt>
      <trkpt lat="56.803122" lon="-5.034923"><ele>407.8</ele><time>2026-05-12T08:06:20Z</time></trkpt>
      <trkpt lat="56.803274" lon="-5.035011"><ele>408.6</ele><time>2026-05-12T08:06:40Z</time></trkpt>
      <trkpt lat="56.803425" lon="-5.035103"><ele>409.5</ele><time>2026-05-12T08:07:00Z</time></trkpt>
      <trkpt lat="56.803573" lon="-5.035199"><ele>410.4</ele><time>2026-05-12T08:07:20Z</time></trkpt>
      <trkpt lat="56.803720" lon="-5.035299"><ele>411.4</ele><time>2026-05-12T08:07:40Z</time></trkpt>
      <trkpt lat="56.803865" lon="-5.035404"><ele>412.4</ele><time>2026-05-12T08:08:00Z</time></trkpt>
      <trkpt lat="56.804007" lon="-5.035512"><ele>413.4</ele><time>2026-05-12T08:08:20Z</time></trkpt>
      <trkpt lat="56.804148" lon="-5.035625"><ele>414.5</ele><time>2026-05-12T08:08:40Z</time></trkpt>
      <trkpt lat="56.804286" lon="-5.035742"><ele>415.6</ele><time>2026-05-12T08:09:00Z</time></trkpt>
      <trkpt lat="56.804423" lon="-5.035862"><ele>416.7</ele><time>2026-05-12T08:09:20Z</time></trkpt>
      <trkpt lat="56.804557" lon="-5.035987"><ele>417.9</ele><time>2026-05-12T08:09:40Z</time></trkpt>
      <trkpt lat="56.804688" lon="-5.036116"><ele>419.2</ele><time>2026-05-12T08:10:00Z</time></trkpt>
      <trkpt lat="56.804818" lon="-5.036248"><ele>420.4</ele><time>2026-05-12T08:10:20Z</time></trkpt>
      <trkpt lat="56.804945" lon="-5.036384"><ele>421.8</ele><time>2026-05-12T08:10:40Z</time></trkpt>
      <trkpt lat="56.805069" lon="-5.036524"><ele>423.1</ele><time>2026-05-12T08:11:00Z</time></trkpt>
      <trkpt lat="56.805191" lon="-5.036668"><ele>424.5</ele><time>2026-05-12T08:11:20Z</time></trkpt>
      <trkpt lat="56.805311" lon="-5.036815"><ele>425.9</ele><time>2026-05-12T08:11:40Z</time></trkpt>
      <trkpt lat="56.805428" lon="-5.036966"><ele>427.4</ele><time>2026-05-12T08:12:00Z</time></trkpt>
      <trkpt lat="56.805543" lon="-5.037120"><ele>428.9</ele><time>2026-05-12T08:12:20Z</time></trkpt>
      <trkpt lat="56.805655" lon="-5.037278"><ele>430.4</ele><time>2026-05-12T08:12:40Z</time></trkpt>
      <trkpt lat="56.805764" lon="-5.037439"><ele>432.0</ele><time>2026-05-12T08:13:00Z</time></trkpt>
      <trkpt lat="56.805871" lon="-5.037603"><ele>433.6</ele><time>2026-05-12T08:13:20Z</time></trkpt>
      <trkpt lat="56.805976" lon="-5.037771"><ele>435.2</ele><time>2026-05-12T08:13:40Z</time></trkpt>
      <trkpt lat="56.806077" lon="-5.037942"><ele>436.9</ele><time>2026-05-12T08:14:00Z</time></trkpt>
      <trkpt lat="56.806177" lon="-5.038116"><ele>438.6</ele><time>2026-05-12T08:14:20Z</time></trkpt>
      <trkpt lat="56.806273" lon="-5.038293"><ele>440.4</ele><time>2026-05-12T08:14:40Z</time></trkpt>
      <trkpt lat="56.806367" lon="-5.038474"><ele>442.1</ele><time>2026-05-12T08:15:00Z</time></trkpt>
      <trkpt lat="56.806458" lon="-5.038657"><ele>443.9</ele><time>2026-05-12T08:15:20Z</time></trkpt>
      <trkpt lat="56.806547" lon="-5.038843"><ele>445.8</ele><time>2026-05-12T08:15:40Z</time></trkpt>
      <trkpt lat="56.806633" lon="-5.039032"><ele>447.7</ele><time>2026-05-12T08:16:00Z</time></trkpt>
      <trkpt lat="56.806717" lon="-5.039223"><ele>449.6</ele><time>2026-05-12T08:16:20Z</time></trkpt>
      <trkpt lat="56.806798" lon="-5.039418"><ele>451.5</ele><time>2026-05-12T08:16:40Z</time></trkpt>
      <trkpt lat="56.806877" lon="-5.039615"><ele>453.5</ele><time>2026-05-12T08:17:00Z</time></trkpt>
      <trkpt lat="56.806953" lon="-5.039814"><ele>455.5</ele><time>2026-05-12T08:17:20Z</time></trkpt>
      <trkpt lat="56.807027" lon="-5.040016"><ele>457.5</ele><time>2026-05-12T08:17:40Z</time></trkpt>
      <trkpt lat="56.807098" lon="-5.040221"><ele>459.5</ele><time>2026-05-12T08:18:00Z</time></trkpt>
      <trkpt lat="56.807166" lon="-5.040428"><ele>461.6</ele><time>2026-05-12T08:18:20Z</time></trkpt>
      <trkpt lat="56.807233" lon="-5.040637"><ele>463.7</ele><time>2026-05-12T08:18:40Z</time></trkpt>
      <trkpt lat="56.807297" lon="-5.040848"><ele>465.9</ele><time>2026-05-12T08:19:00Z</time></trkpt>
      <trkpt lat="56.807358" lon="-5.041061"><ele>468.1</ele><time>2026-05-12T08:19:20Z</time></trkpt>
      <trkpt lat="56.807418" lon="-5.041277"><ele>470.3</ele><time>2026-05-12T08:19:40Z</time></trkpt>
      <trkpt lat="56.807475" lon="-5.041494"><ele>472.5</ele><time>2026-05-12T08:20:00Z</time></trkpt>
      <trkpt lat="56.807530" lon="-5.041713"><ele>474.7</ele><time>2026-05-12T08:20:20Z</time></trkpt>
      <trkpt lat="56.807583" lon="-5.041934"><ele>477.0</ele><time>2026-05-12T08:20:40Z</time></trkpt>
      <trkpt lat="56.807633" lon="-5.042157"><ele>479.3</ele><time>2026-05-12T08:21:00Z</time></trkpt>
      <trkpt lat="56.807682" lon="-5.042382"><ele>481.6</ele><time>2026-05-12T08:21:20Z</time></trkpt>
      <trkpt lat="56.807728" lon="-5.042608"><ele>483.9</ele><time>2026-05-12T08:21:40Z</time></trkpt>
      <trkpt lat="56.807773" lon="-5.042836"><ele>486.3</ele><time>2026-05-12T08:22:00Z</time></trkpt>
      <trkpt lat="56.807815" lon="-5.043065"><ele>488.7</ele><time>2026-05-12T08:22:20Z</time></trkpt>
      <trkpt lat="56.807856" lon="-5.043295"><ele>491.1</ele><time>2026-05-12T08:22:40Z</time></trkpt>
      <trkpt lat="56.807895" lon="-5.043527"><ele>493.5</ele><time>2026-05-12T08:23:00Z</time></trkpt>
      <trkpt lat="56.807932" lon="-5.043760"><ele>496.0</ele><time>2026-05-12T08:23:20Z</time></trkpt>
      <trkpt lat="56.807967" lon="-5.043994"><ele>498.5</ele><time>2026-05-12T08:23:40Z</time></trkpt>
      <trkpt lat="56.808000" lon="-5.044229"><ele>500.9</ele><time>2026-05-12T08:24:00Z</time></trkpt>
      <trkpt lat="56.808032" lon="-5.044466"><ele>503.4</ele><time>2026-05-12T08:24:20Z</time></trkpt>
      <trkpt lat="56.808062" lon="-5.044703"><ele>506.0</ele><time>2026-05-12T08:24:40Z</time></trkpt>
      <trkpt lat="56.808091" lon="-5.044941"><ele>508.5</ele><time>2026-05-12T08:25:00Z</time></trkpt>
      <trkpt lat="56.808118" lon="-5.045180"><ele>511.1</ele><time>2026-05-12T08:25:20Z</time></trkpt>
      <trkpt lat="56.808143" lon="-5.045419"><ele>513.6</ele><time>2026-05-12T08:25:40Z</time></trkpt>
      <trkpt lat="56.808167" lon="-5.045659"><ele>516.2</ele><time>2026-05-12T08:26:00Z</time></trkpt>
      <trkpt lat="56.808190" lon="-5.045900"><ele>518.8</ele><time>2026-05-12T08:26:20Z</time></trkpt>
      <trkpt lat="56.808211" lon="-5.046141"><ele>521.4</ele><time>2026-05-12T08:26:40Z</time></trkpt>
      <trkpt lat="56.808231" lon="-5.046383"><ele>524.1</ele><time>2026-05-12T08:27:00Z</time></trkpt>
      <trkpt lat="56.808250" lon="-5.046625"><ele>526.7</ele><time>2026-05-12T08:27:20Z</time></trkpt>
      <trkpt lat="56.808267" lon="-5.046867"><ele>529.4</ele><time>2026-05-12T08:27:40Z</time></trkpt>
      <trkpt lat="56.808283" lon="-5.047109"><ele>532.0</ele><time>2026-05-12T08:28:00Z</time></trkpt>
      <trkpt lat="56.808298" lon="-5.047352"><ele>534.7</ele><time>2026-05-12T08:28:20Z</time></trkpt>
      <trkpt lat="56.808312" lon="-5.047594"><ele>537.4</ele><time>2026-05-12T08:28:40Z</time></trkpt>
      <trkpt lat="56.808325" lon="-5.047837"><ele>540.1</ele><time>2026-05-12T08:29:00Z</time></trkpt>
      <trkpt lat="56.808336" lon="-5.048079"><ele>542.8</ele><time>2026-05-12T08:29:20Z</time></trkpt>
      <trkpt lat="56.808347" lon="-5.048322"><ele>545.5</ele><time>2026-05-12T08:29:40Z</time></trkpt>
      <trkpt lat="56.808357" lon="-5.048564"><ele>548.2</ele><time>2026-05-12T08:30:00Z</time></trkpt>
      <trkpt lat="56.808365" lon="-5.048806"><ele>551.0</ele><time>2026-05-12T08:30:20Z</time></trkpt>
      <trkpt lat="56.808373" lon="-5.049047"><ele>553.7</ele><time>2026-05-12T08:30:40Z</time></trkpt>
      <trkpt lat="56.808379" lon="-5.049288"><ele>556.4</ele><time>2026-05-12T08:31:00Z</time></trkpt>
      <trkpt lat="56.808385" lon="-5.049529"><ele>559.2</ele><time>2026-05-12T08:31:20Z</time></trkpt>
      <trkpt lat="56.808390" lon="-5.049769"><ele>561.9</ele><time>2026-05-12T08:31:40Z</time></trkpt>
      <trkpt lat="56.808394" lon="-5.050008"><ele>564.7</ele><time>2026-05-12T08:32:00Z</time></trkpt>
      <trkpt lat="56.808397" lon="-5.050247"><ele>567.4</ele><time>2026-05-12T08:32:20Z</time></trkpt>
      <trkpt lat="56.808399" lon="-5.050485"><ele>570.2</ele><time>2026-05-12T08:32:40Z</time></trkpt>
      <trkpt lat="56.808400" lon="-5.050723"><ele>572.9</ele><time>2026-05-12T08:33:00Z</time></trkpt>
      <trkpt lat="56.808400" lon="-5.050959"><ele>575.7</ele><time>2026-05-12T08:33:20Z</time></trkpt>
      <trkpt lat="56.808399" lon="-5.051195"><ele>578.4</ele><time>2026-05-12T08:33:40Z</time></trkpt>
      <trkpt lat="56.808398" lon="-5.051429"><ele>581.2</ele><time>2026-05-12T08:34:00Z</time></trkpt>
      <trkpt lat="56.808395" lon="-5.051663"><ele>584.0</ele><time>2026-05-12T08:34:20Z</time></trkpt>
      <trkpt lat="56.808392" lon="-5.051895"><ele>586.7</ele><time>2026-05-12T08:34:40Z</time></trkpt>
      <trkpt lat="56.808388" lon="-5.052126"><ele>589.5</ele><time>2026-05-12T08:35:00Z</time></trkpt>
      <trkpt lat="56.808382" lon="-5.052357"><ele>592.2</ele><time>2026-05-12T08:35:20Z</time></trkpt>
      <trkpt lat="56.808376" lon="-5.052585"><ele>594.9</ele><time>2026-05-12T08:35:40Z</time></trkpt>
      <trkpt lat="56.808369" lon="-5.052813"><ele>597.7</ele><time>2026-05-12T08:36:00Z</time></trkpt>
      <trkpt lat="56.808361" lon="-5.053039"><ele>600.4</ele><time>2026-05-12T08:36:20Z</time></trkpt>
      <trkpt lat="56.808352" lon="-5.053264"><ele>603.1</ele><time>2026-05-12T08:36:40Z</time></trkpt>
      <trkpt lat="56.808342" lon="-5.053488"><ele>605.8</ele><time>2026-05-12T08:37:00Z</time></trkpt>
      <trkpt lat="56.808331" lon="-5.053710"><ele>608.5</ele><time>2026-05-12T08:37:20Z</time></trkpt>
      <trkpt lat="56.808319" lon="-5.053930"><ele>611.2</ele><time>2026-05-12T08:37:40Z</time></trkpt>
      <trkpt lat="56.808305" lon="-5.054149"><ele>613.9</ele><time>2026-05-12T08:38:00Z</time></trkpt>
      <trkpt lat="56.808291" lon="-5.054366"><ele>616.6</ele><time>2026-05-12T08:38:20Z</time></trkpt>
      <trkpt lat="56.808275" lon="-5.054581"><ele>619.3</ele><time>2026-05-12T08:38:40Z</time></trkpt>
      <trkpt lat="56.808258" lon="-5.054795"><ele>622.0</ele><time>2026-05-12T08:39:00Z</time></trkpt>
      <trkpt lat="56.808240" lon="-5.055007"><ele>624.6</ele><time>2026-05-12T08:39:20Z</time></trkpt>
      <trkpt lat="56.808221" lon="-5.055217"><ele>627.2</ele><time>2026-05-12T08:39:40Z</time></trkpt>
      <trkpt lat="56.808201" lon="-5.055426"><ele>629.9</ele><time>2026-05-12T08:40:00Z</time></trkpt>
      <trkpt lat="56.808179" lon="-5.055632"><ele>632.5</ele><time>2026-05-12T08:40:20Z</time></trkpt>
      <trkpt lat="56.808155" lon="-5.055837"><ele>635.1</ele><time>2026-05-12T08:40:40Z</time></trkpt>
      <trkpt lat="56.808130" lon="-5.056039"><ele>637.7</ele><time>2026-05-12T08:41:00Z</time></trkpt>
      <trkpt lat="56.808104" lon="-5.056240"><ele>640.2</ele><time>2026-05-12T08:41:20Z</time></trkpt>
      <trkpt lat="56.808076" lon="-5.056438"><ele>642.8</ele><time>2026-05-12T08:41:40Z</time></trkpt>
      <trkpt lat="56.808047" lon="-5.056635"><ele>645.3</ele><time>2026-05-12T08:42:00Z</time></trkpt>
      <trkpt lat="56.808016" lon="-5.056829"><ele>647.8</ele><time>2026-05-12T08:42:20Z</time></trkpt>
      <trkpt lat="56.807984" lon="-5.057022"><ele>650.3</ele><time>2026-05-12T08:42:40Z</time></trkpt>
      <trkpt lat="56.807949" lon="-5.057212"><ele>652.8</ele><time>2026-05-12T08:43:00Z</time></trkpt>
      <trkpt lat="56.807913" lon="-5.057400"><ele>655.2</ele><time>2026-05-12T08:43:20Z</time></trkpt>
      <trkpt lat="56.807875" lon="-5.057585"><ele>657.7</ele><time>2026-05-12T08:43:40Z</time></trkpt>
      <trkpt lat="56.807836" lon="-5.057769"><ele>660.1</ele><time>2026-05-12T08:44:00Z</time></trkpt>
      <trkpt lat="56.807794" lon="-5.057950"><ele>662.5</ele><time>2026-05-12T08:44:20Z</time></trkpt>
      <trkpt lat="56.807751" lon="-5.058129"><ele>664.9</ele><time>2026-05-12T08:44:40Z</time></trkpt>
      <trkpt lat="56.807705" lon="-5.058305"><ele>667.2</ele><time>2026-05-12T08:45:00Z</time></trkpt>
      <trkpt lat="56.807658" lon="-5.058480"><ele>669.6</ele><time>2026-05-12T08:45:20Z</time></trkpt>
      <trkpt lat="56.807608" lon="-5.058651"><ele>671.9</ele><time>2026-05-12T08:45:40Z</time></trkpt>
      <trkpt lat="56.807557" lon="-5.058821"><ele>674.1</ele><time>2026-05-12T08:46:00Z</time></trkpt>
      <trkpt lat="56.807503" lon="-5.058988"><ele>676.4</ele><time>2026-05-12T08:46:20Z</time></trkpt>
      <trkpt lat="56.807447" lon="-5.059152"><ele>678.6</ele><time>2026-05-12T08:46:40Z</time></trkpt>
      <trkpt lat="56.807388" lon="-5.059314"><ele>680.8</ele><time>2026-05-12T08:47:00Z</time></trkpt>
      <trkpt lat="56.807328" lon="-5.059474"><ele>683.0</ele><time>2026-05-12T08:47:20Z</time></trkpt>
      <trkpt lat="56.807265" lon="-5.059631"><ele>685.2</ele><time>2026-05-12T08:47:40Z</time></trkpt>
      <trkpt lat="56.807200" lon="-5.059785"><ele>687.3</ele><time>2026-05-12T08:48:00Z</time></trkpt>
      <trkpt lat="56.807132" lon="-5.059937"><ele>689.4</ele><time>2026-05-12T08:48:20Z</time></trkpt>
      <trkpt lat="56.807062" lon="-5.060087"><ele>691.5</ele><time>2026-05-12T08:48:40Z</time></trkpt>
      <trkpt lat="56.806990" lon="-5.060234"><ele>693.5</ele><time>2026-05-12T08:49:00Z</time></trkpt>
      <trkpt lat="56.806915" lon="-5.060378"><ele>695.5</ele><time>2026-05-12T08:49:20Z</time></trkpt>
      <trkpt lat="56.806838" lon="-5.060519"><ele>697.5</ele><time>2026-05-12T08:49:40Z</time></trkpt>
      <trkpt lat="56.806758" lon="-5.060658"><ele>699.5</ele><time>2026-05-12T08:50:00Z</time></trkpt>
      <trkpt lat="56.806676" lon="-5.060795"><ele>701.4</ele><time>2026-05-12T08:50:20Z</time></trkpt>
      <trkpt lat="56.806591" lon="-5.060929"><ele>703.3</ele><time>2026-05-12T08:50:40Z</time></trkpt>
      <trkpt lat="56.806503" lon="-5.061060"><ele>705.1</ele><time>2026-05-12T08:51:00Z</time></trkpt>
      <trkpt lat="56.806413" lon="-5.061188"><ele>707.0</ele><time>2026-05-12T08:51:20Z</time></trkpt>
      <trkpt lat="56.806320" lon="-5.061314"><ele>708.8</ele><time>2026-05-12T08:51:40Z</time></trkpt>
      <trkpt lat="56.806225" lon="-5.061437"><ele>710.5</ele><time>2026-05-12T08:52:00Z</time></trkpt>
      <trkpt lat="56.806127" lon="-5.061557"><ele>712.2</ele><time>2026-05-12T08:52:20Z</time></trkpt>
      <trkpt lat="56.806027" lon="-5.061675"><ele>713.9</ele><time>2026-05-12T08:52:40Z</time></trkpt>
      <trkpt lat="56.805924" lon="-5.061790"><ele>715.6</ele><time>2026-05-12T08:53:00Z</time></trkpt>
      <trkpt lat="56.805818" lon="-5.061902"><ele>717.2</ele><time>2026-05-12T08:53:20Z</time></trkpt>
      <trkpt lat="56.805710" lon="-5.062011"><ele>718.8</ele><time>2026-05-12T08:53:40Z</time></trkpt>
      <trkpt lat="56.805599" lon="-5.062118"><ele>720.4</ele><time>2026-05-12T08:54:00Z</time></trkpt>
      <trkpt lat="56.805486" lon="-5.062222"><ele>721.9</ele><time>2026-05-12T08:54:20Z</time></trkpt>
      <trkpt lat="56.805370" lon="-5.062323"><ele>723.4</ele><time>2026-05-12T08:54:40Z</time></trkpt>
      <trkpt lat="56.805251" lon="-5.062421"><ele>724.8</ele><time>2026-05-12T08:55:00Z</time></trkpt>
      <trkpt lat="56.805131" lon="-5.062517"><ele>726.2</ele><time>2026-05-12T08:55:20Z</time></trkpt>
      <trkpt lat="56.805007" lon="-5.062610"><ele>727.6</ele><time>2026-05-12T08:55:40Z</time></trkpt>
      <trkpt lat="56.804881" lon="-5.062700"><ele>728.9</ele><time>2026-05-12T08:56:00Z</time></trkpt>
      <trkpt lat="56.804753" lon="-5.062787"><ele>730.2</ele><time>2026-05-12T08:56:20Z</time></trkpt>
      <trkpt lat="56.804623" lon="-5.062872"><ele>731.5</ele><time>2026-05-12T08:56:40Z</time></trkpt>
      <trkpt lat="56.804490" lon="-5.062953"><ele>732.7</ele><time>2026-05-12T08:57:00Z</time></trkpt>
      <trkpt lat="56.804355" lon="-5.063032"><ele>733.8</ele><time>2026-05-12T08:57:20Z</time></trkpt>
      <trkpt lat="56.804217" lon="-5.063108"><ele>735.0</ele><time>2026-05-12T08:57:40Z</time></trkpt>
      <trkpt lat="56.804078" lon="-5.063182"><ele>736.1</ele><time>2026-05-12T08:58:00Z</time></trkpt>
      <trkpt lat="56.803936" lon="-5.063252"><ele>737.1</ele><time>2026-05-12T08:58:20Z</time></trkpt>
      <trkpt lat="56.803793" lon="-5.063320"><ele>738.2</ele><time>2026-05-12T08:58:40Z</time></trkpt>
      <trkpt lat="56.803647" lon="-5.063385"><ele>739.1</ele><time>2026-05-12T08:59:00Z</time></trkpt>
      <trkpt lat="56.803499" lon="-5.063447"><ele>740.1</ele><time>2026-05-12T08:59:20Z</time></trkpt>
      <trkpt lat="56.803350" lon="-5.063506"><ele>741.0</ele><time>2026-05-12T08:59:40Z</time></trkpt>
      <trkpt lat="56.803198" lon="-5.063563"><ele>741.8</ele><time>2026-05-12T09:00:00Z</time></trkpt>
      <trkpt lat="56.803045" lon="-5.063616"><ele>742.6</ele><time>2026-05-12T09:00:20Z</time></trkpt>
      <trkpt lat="56.802890" lon="-5.063667"><ele>743.4</ele><time>2026-05-12T09:00:40Z</time></trkpt>
      <trkpt lat="56.802734" lon="-5.063715"><ele>744.1</ele><time>2026-05-12T09:01:00Z</time></trkpt>
      <trkpt lat="56.802576" lon="-5.063761"><ele>744.8</ele><time>2026-05-12T09:01:20Z</time></trkpt>
      <trkpt lat="56.802417" lon="-5.063803"><ele>745.5</ele><time>2026-05-12T09:01:40Z</time></trkpt>
      <trkpt lat="56.802256" lon="-5.063842"><ele>746.1</ele><time>2026-05-12T09:02:00Z</time></trkpt>
      <trkpt lat="56.802094" lon="-5.063879"><ele>746.6</ele><time>2026-05-12T09:02:20Z</time></trkpt>
      <trkpt lat="56.801931" lon="-5.063913"><ele>747.1</ele><time>2026-05-12T09:02:40Z</time></trkpt>
      <trkpt lat="56.801767" lon="-5.063944"><ele>747.6</ele><time>2026-05-12T09:03:00Z</time></trkpt>
      <trkpt lat="56.801602" lon="-5.063972"><ele>748.0</ele><time>2026-05-12T09:03:20Z</time></trkpt>
      <trkpt lat="56.801436" lon="-5.063998"><ele>748.4</ele><time>2026-05-12T09:03:40Z</time></trkpt>
      <trkpt lat="56.801269" lon="-5.064020"><ele>748.8</ele><time>2026-05-12T09:04:00Z</time></trkpt>
      <trkpt lat="56.801101" lon="-5.064040"><ele>749.1</ele><time>2026-05-12T09:04:20Z</time></trkpt>
      <trkpt lat="56.800933" lon="-5.064057"><ele>749.3</ele><time>2026-05-12T09:04:40Z</time></trkpt>
      <trkpt lat="56.800764" lon="-5.064071"><ele>749.6</ele><time>2026-05-12T09:05:00Z</time></trkpt>
      <trkpt lat="56.800595" lon="-5.064083"><ele>749.7</ele><time>2026-05-12T09:05:20Z</time></trkpt>
      <trkpt lat="56.800425" lon="-5.064091"><ele>749.9</ele><time>2026-05-12T09:05:40Z</time></trkpt>
      <trkpt lat="56.800255" lon="-5.064097"><ele>750.0</ele><time>2026-05-12T09:06:00Z</time></trkpt>
      <trkpt lat="56.800085" lon="-5.064100"><ele>750.0</ele><time>2026-05-12T09:06:20Z</time></trkpt>
      <trkpt lat="56.799915" lon="-5.064100"><ele>750.0</ele><time>2026-05-12T09:06:40Z</time></trkpt>
      <trkpt lat="56.799745" lon="-5.064097"><ele>750.0</ele><time>2026-05-12T09:07:00Z</time></trkpt>
      <trkpt lat="56.799575" lon="-5.064091"><ele>749.9</ele><time>2026-05-12T09:07:20Z</time></trkpt>
      <trkpt lat="56.799405" lon="-5.064083"><ele>749.7</ele><time>2026-05-12T09:07:40Z</time></trkpt>
      <trkpt lat="56.799236" lon="-5.064071"><ele>749.6</ele><time>2026-05-12T09:08:00Z</time></trkpt>
      <trkpt lat="56.799067" lon="-5.064057"><ele>749.3</ele><time>2026-05-12T09:08:20Z</time></trkpt>
      <trkpt lat="56.798899" lon="-5.064040"><ele>749.1</ele><time>2026-05-12T09:08:40Z</time></trkpt>
      <trkpt lat="56.798731" lon="-5.064020"><ele>748.8</ele><time>2026-05-12T09:09:00Z</time></trkpt>
      <trkpt lat="56.798564" lon="-5.063998"><ele>748.4</ele><time>2026-05-12T09:09:20Z</time></trkpt>
      <trkpt lat="56.798398" lon="-5.063972"><ele>748.0</ele><time>2026-05-12T09:09:40Z</time></trkpt>
      <trkpt lat="56.798233" lon="-5.063944"><ele>747.6</ele><time>2026-05-12T09:10:00Z</time></trkpt>
      <trkpt lat="56.798069" lon="-5.063913"><ele>747.1</ele><time>2026-05-12T09:10:20Z</time></trkpt>
      <trkpt lat="56.797906" lon="-5.063879"><ele>746.6</ele><time>2026-05-12T09:10:40Z</time></trkpt>
      <trkpt lat="56.797744" lon="-5.063842"><ele>746.1</ele><time>2026-05-12T09:11:00Z</time></trkpt>
      <trkpt lat="56.797583" lon="-5.063803"><ele>745.5</ele><time>2026-05-12T09:11:20Z</time></trkpt>
      <trkpt lat="56.797424" lon="-5.063761"><ele>744.8</ele><time>2026-05-12T09:11:40Z</time></trkpt>
      <trkpt lat="56.797266" lon="-5.063715"><ele>744.1</ele><time>2026-05-12T09:12:00Z</time></trkpt>
      <trkpt lat="56.797110" lon="-5.063667"><ele>743.4</ele><time>2026-05-12T09:12:20Z</time></trkpt>
      <trkpt lat="56.796955" lon="-5.063616"><ele>742.6</ele><time>2026-05-12T09:12:40Z</time></trkpt>
      <trkpt lat="56.796802" lon="-5.063563"><ele>741.8</ele><time>2026-05-12T09:13:00Z</time></trkpt>
      <trkpt lat="56.796650" lon="-5.063506"><ele>741.0</ele><time>2026-05-12T09:13:20Z</time></trkpt>
      <trkpt lat="56.796501" lon="-5.063447"><ele>740.1</ele><time>2026-05-12T09:13:40Z</time></trkpt>
      <trkpt lat="56.796353" lon="-5.063385"><ele>739.1</ele><time>2026-05-12T09:14:00Z</time></trkpt>
      <trkpt lat="56.796207" lon="-5.063320"><ele>738.2</ele><time>2026-05-12T09:14:20Z</time></trkpt>
      <trkpt lat="56.796064" lon="-5.063252"><ele>737.1</ele><time>2026-05-12T09:14:40Z</time></trkpt>
      <trkpt lat="56.795922" lon="-5.063182"><ele>736.1</ele><time>2026-05-12T09:15:00Z</time></trkpt>
      <trkpt lat="56.795783" lon="-5.063108"><ele>735.0</ele><time>2026-05-12T09:15:20Z</time></trkpt>
      <trkpt lat="56.795645" lon="-5.063032"><ele>733.8</ele><time>2026-05-12T09:15:40Z</time></trkpt>
      <trkpt lat="56.795510" lon="-5.062953"><ele>732.7</ele><time>2026-05-12T09:16:00Z</time></trkpt>
      <trkpt lat="56.795377" lon="-5.062872"><ele>731.5</ele><time>2026-05-12T09:16:20Z</time></trkpt>
      <trkpt lat="56.795247" lon="-5.062787"><ele>730.2</ele><time>2026-05-12T09:16:40Z</time></trkpt>
      <trkpt lat="56.795119" lon="-5.062700"><ele>728.9</ele><time>2026-05-12T09:17:00Z</time></trkpt>
      <trkpt lat="56.794993" lon="-5.062610"><ele>727.6</ele><time>2026-05-12T09:17:20Z</time></trkpt>
      <trkpt lat="56.794869" lon="-5.062517"><ele>726.2</ele><time>2026-05-12T09:17:40Z</time></trkpt>
      <trkpt lat="56.794749" lon="-5.062421"><ele>724.8</ele><time>2026-05-12T09:18:00Z</time></trkpt>
      <trkpt lat="56.794630" lon="-5.062323"><ele>723.4</ele><time>2026-05-12T09:18:20Z</time></trkpt>
      <trkpt lat="56.794514" lon="-5.062222"><ele>721.9</ele><time>2026-05-12T09:18:40Z</time></trkpt>
      <trkpt lat="56.794401" lon="-5.062118"><ele>720.4</ele><time>2026-05-12T09:19:00Z</time></trkpt>
      <trkpt lat="56.794290" lon="-5.062011"><ele>718.8</ele><time>2026-05-12T09:19:20Z</time></trkpt>
      <trkpt lat="56.794182" lon="-5.061902"><ele>717.2</ele><time>2026-05-12T09:19:40Z</time></trkpt>
      <trkpt lat="56.794076" lon="-5.061790"><ele>715.6</ele><time>2026-05-12T09:20:00Z</time></trkpt>
      <trkpt lat="56.793973" lon="-5.061675"><ele>713.9</ele><time>2026-05-12T09:20:20Z</time></trkpt>
      <trkpt lat="56.793873" lon="-5.061557"><ele>712.2</ele><time>2026-05-12T09:20:40Z</time></trkpt>
      <trkpt lat="56.793775" lon="-5.061437"><ele>710.5</ele><time>2026-05-12T09:21:00Z</time></trkpt>
      <trkpt lat="56.793680" lon="-5.061314"><ele>708.8</ele><time>2026-05-12T09:21:20Z</time></trkpt>
      <trkpt lat="56.793587" lon="-5.061188"><ele>707.0</ele><time>2026-05-12T09:21:40Z</time></trkpt>
      <trkpt lat="56.793497" lon="-5.061060"><ele>705.1</ele><time>2026-05-12T09:22:00Z</time></trkpt>
      <trkpt lat="56.793409" lon="-5.060929"><ele>703.3</ele><time>2026-05-12T09:22:20Z</time></trkpt>
      <trkpt lat="56.793324" lon="-5.060795"><ele>701.4</ele><time>2026-05-12T09:22:40Z</time></trkpt>
      <trkpt lat="56.793242" lon="-5.060658"><ele>699.5</ele><time>2026-05-12T09:23:00Z</time></trkpt>
      <trkpt lat="56.793162" lon="-5.060519"><ele>697.5</ele><time>2026-05-12T09:23:20Z</time></trkpt>
      <trkpt lat="56.793085" lon="-5.060378"><ele>695.5</ele><time>2026-05-12T09:23:40Z</time></trkpt>
      <trkpt lat="56.793010" lon="-5.060234"><ele>693.5</ele><time>2026-05-12T09:24:00Z</time></trkpt>
      <trkpt lat="56.792938" lon="-5.060087"><ele>691.5</ele><time>2026-05-12T09:24:20Z</time></trkpt>
      <trkpt lat="56.792868" lon="-5.059937"><ele>689.4</ele><time>2026-05-12T09:24:40Z</time></trkpt>
      <trkpt lat="56.792800" lon="-5.059785"><ele>687.3</ele><time>2026-05-12T09:25:00Z</time></trkpt>
      <trkpt lat="56.792735" lon="-5.059631"><ele>685.2</ele><time>2026-05-12T09:25:20Z</time></trkpt>
      <trkpt lat="56.792672" lon="-5.059474"><ele>683.0</ele><time>2026-05-12T09:25:40Z</time></trkpt>
      <trkpt lat="56.792612" lon="-5.059314"><ele>680.8</ele><time>2026-05-12T09:26:00Z</time></trkpt>
      <trkpt lat="56.792553" lon="-5.059152"><ele>678.6</ele><time>2026-05-12T09:26:20Z</time></trkpt>
      <trkpt lat="56.792497" lon="-5.058988"><ele>676.4</ele><time>2026-05-12T09:26:40Z</time></trkpt>
      <trkpt lat="56.792443" lon="-5.058821"><ele>674.1</ele><time>2026-05-12T09:27:00Z</time></trkpt>
      <trkpt lat="56.792392" lon="-5.058651"><ele>671.9</ele><time>2026-05-12T09:27:20Z</time></trkpt>
      <trkpt lat="56.792342" lon="-5.058480"><ele>669.6</ele><time>2026-05-12T09:27:40Z</time></trkpt>
      <trkpt lat="56.792295" lon="-5.058305"><ele>667.2</ele><time>2026-05-12T09:28:00Z</time></trkpt>
      <trkpt lat="56.792249" lon="-5.058129"><ele>664.9</ele><time>2026-05-12T09:28:20Z</time></trkpt>
      <trkpt lat="56.792206" lon="-5.057950"><ele>662.5</ele><time>2026-05-12T09:28:40Z</time></trkpt>
      <trkpt lat="56.792164" lon="-5.057769"><ele>660.1</ele><time>2026-05-12T09:29:00Z</time></trkpt>
      <trkpt lat="56.792125" lon="-5.057585"><ele>657.7</ele><time>2026-05-12T09:29:20Z</time></trkpt>
      <trkpt lat="56.792087" lon="-5.057400"><ele>655.2</ele><time>2026-05-12T09:29:40Z</time></trkpt>
      <trkpt lat="56.792051" lon="-5.057212"><ele>652.8</ele><time>2026-05-12T09:30:00Z</time></trkpt>
      <trkpt lat="56.792016" lon="-5.057022"><ele>650.3</ele><time>2026-05-12T09:30:20Z</time></trkpt>
      <trkpt lat="56.791984" lon="-5.056829"><ele>647.8</ele><time>2026-05-12T09:30:40Z</time></trkpt>
      <trkpt lat="56.791953" lon="-5.056635"><ele>645.3</ele><time>2026-05-12T09:31:00Z</time></trkpt>
      <trkpt lat="56.791924" lon="-5.056438"><ele>642.8</ele><time>2026-05-12T09:31:20Z</time></trkpt>
      <trkpt lat="56.791896" lon="-5.056240"><ele>640.2</ele><time>2026-05-12T09:31:40Z</time></trkpt>
      <trkpt lat="56.791870" lon="-5.056039"><ele>637.7</ele><time>2026-05-12T09:32:00Z</time></trkpt>
      <trkpt lat="56.791845" lon="-5.055837"><ele>635.1</ele><time>2026-05-12T09:32:20Z</time></trkpt>
      <trkpt lat="56.791821" lon="-5.055632"><ele>632.5</ele><time>2026-05-12T09:32:40Z</time></trkpt>
      <trkpt lat="56.791799" lon="-5.055426"><ele>629.9</ele><time>2026-05-12T09:33:00Z</time></trkpt>
      <trkpt lat="56.791779" lon="-5.055217"><ele>627.2</ele><time>2026-05-12T09:33:20Z</time></trkpt>
      <trkpt lat="56.791760" lon="-5.055007"><ele>624.6</ele><time>2026-05-12T09:33:40Z</time></trkpt>
      <trkpt lat="56.791742" lon="-5.054795"><ele>622.0</ele><time>2026-05-12T09:34:00Z</time></trkpt>
      <trkpt lat="56.791725" lon="-5.054581"><ele>619.3</ele><time>2026-05-12T09:34:20Z</time></trkpt>
      <trkpt lat="56.791709" lon="-5.054366"><ele>616.6</ele><time>2026-05-12T09:34:40Z</time></trkpt>
      <trkpt lat="56.791695" lon="-5.054149"><ele>613.9</ele><time>2026-05-12T09:35:00Z</time></trkpt>
      <trkpt lat="56.791681" lon="-5.053930"><ele>611.2</ele><time>2026-05-12T09:35:20Z</time></trkpt>
      <trkpt lat="56.791669" lon="-5.053710"><ele>608.5</ele><time>2026-05-12T09:35:40Z</time></trkpt>
      <trkpt lat="56.791658" lon="-5.053488"><ele>605.8</ele><time>2026-05-12T09:36:00Z</time></trkpt>
      <trkpt lat="56.791648" lon="-5.053264"><ele>603.1</ele><time>2026-05-12T09:36:20Z</time></trkpt>
      <trkpt lat="56.791639" lon="-5.053039"><ele>600.4</ele><time>2026-05-12T09:36:40Z</time></trkpt>
      <trkpt lat="56.791631" lon="-5.052813"><ele>597.7</ele><time>2026-05-12T09:37:00Z</time></trkpt>
      <trkpt lat="56.791624" lon="-5.052585"><ele>594.9</ele><time>2026-05-12T09:37:20Z</time></trkpt>
      <trkpt lat="56.791618" lon="-5.052357"><ele>592.2</ele><time>2026-05-12T09:37:40Z</time></trkpt>
      <trkpt lat="56.791612" lon="-5.052126"><ele>589.5</ele><time>2026-05-12T09:38:00Z</time></trkpt>
      <trkpt lat="56.791608" lon="-5.051895"><ele>586.7</ele><time>2026-05-12T09:38:20Z</time></trkpt>
      <trkpt lat="56.791605" lon="-5.051663"><ele>584.0</ele><time>2026-05-12T09:38:40Z</time></trkpt>
      <trkpt lat="56.791602" lon="-5.051429"><ele>581.2</ele><time>2026-05-12T09:39:00Z</time></trkpt>
      <trkpt lat="56.791601" lon="-5.051195"><ele>578.4</ele><time>2026-05-12T09:39:20Z</time></trkpt>
      <trkpt lat="56.791600" lon="-5.050959"><ele>575.7</ele><time>2026-05-12T09:39:40Z</time></trkpt>
      <trkpt lat="56.791600" lon="-5.050723"><ele>572.9</ele><time>2026-05-12T09:40:00Z</time></trkpt>
      <trkpt lat="56.791601" lon="-5.050485"><ele>570.2</ele><time>2026-05-12T09:40:20Z</time></trkpt>
      <trkpt lat="56.791603" lon="-5.050247"><ele>567.4</ele><time>2026-05-12T09:40:40Z</time></trkpt>
      <trkpt lat="56.791606" lon="-5.050008"><ele>564.7</ele><time>2026-05-12T09:41:00Z</time></trkpt>
      <trkpt lat="56.791610" lon="-5.049769"><ele>561.9</ele><time>2026-05-12T09:41:20Z</time></trkpt>
      <trkpt lat="56.791615" lon="-5.049529"><ele>559.2</ele><time>2026-05-12T09:41:40Z</time></trkpt>
      <trkpt lat="56.791621" lon="-5.049288"><ele>556.4</ele><time>2026-05-12T09:42:00Z</time></trkpt>
      <trkpt lat="56.791627" lon="-5.049047"><ele>553.7</ele><time>2026-05-12T09:42:20Z</time></trkpt>
      <trkpt lat="56.791635" lon="-5.048806"><ele>551.0</ele><time>2026-05-12T09:42:40Z</time></trkpt>
      <trkpt lat="56.791643" lon="-5.048564"><ele>548.2</ele><time>2026-05-12T09:43:00Z</time></trkpt>
      <trkpt lat="56.791653" lon="-5.048322"><ele>545.5</ele><time>2026-05-12T09:43:20Z</time></trkpt>
      <trkpt lat="56.791664" lon="-5.048079"><ele>542.8</ele><time>2026-05-12T09:43:40Z</time></trkpt>
      <trkpt lat="56.791675" lon="-5.047837"><ele>540.1</ele><time>2026-05-12T09:44:00Z</time></trkpt>
      <trkpt lat="56.791688" lon="-5.047594"><ele>537.4</ele><time>2026-05-12T09:44:20Z</time></trkpt>
      <trkpt lat="56.791702" lon="-5.047352"><ele>534.7</ele><time>2026-05-12T09:44:40Z</time></trkpt>
      <trkpt lat="56.791717" lon="-5.047109"><ele>532.0</ele><time>2026-05-12T09:45:00Z</time></trkpt>
      <trkpt lat="56.791733" lon="-5.046867"><ele>529.4</ele><time>2026-05-12T09:45:20Z</time></trkpt>
      <trkpt lat="56.791750" lon="-5.046625"><ele>526.7</ele><time>2026-05-12T09:45:40Z</time></trkpt>
      <trkpt lat="56.791769" lon="-5.046383"><ele>524.1</ele><time>2026-05-12T09:46:00Z</time></trkpt>
      <trkpt lat="56.791789" lon="-5.046141"><ele>521.4</ele><time>2026-05-12T09:46:20Z</time></trkpt>
      <trkpt lat="56.791810" lon="-5.045900"><ele>518.8</ele><time>2026-05-12T09:46:40Z</time></trkpt>
      <trkpt lat="56.791833" lon="-5.045659"><ele>516.2</ele><time>2026-05-12T09:47:00Z</time></trkpt>
      <trkpt lat="56.791857" lon="-5.045419"><ele>513.6</ele><time>2026-05-12T09:47:20Z</time></trkpt>
      <trkpt lat="56.791882" lon="-5.045180"><ele>511.1</ele><time>2026-05-12T09:47:40Z</time></trkpt>
      <trkpt lat="56.791909" lon="-5.044941"><ele>508.5</ele><time>2026-05-12T09:48:00Z</time></trkpt>
      <trkpt lat="56.791938" lon="-5.044703"><ele>506.0</ele><time>2026-05-12T09:48:20Z</time></trkpt>
      <trkpt lat="56.791968" lon="-5.044466"><ele>503.4</ele><time>2026-05-12T09:48:40Z</time></trkpt>
      <trkpt lat="56.792000" lon="-5.044229"><ele>500.9</ele><time>2026-05-12T09:49:00Z</time></trkpt>
      <trkpt lat="56.792033" lon="-5.043994"><ele>498.5</ele><time>2026-05-12T09:49:20Z</time></trkpt>
      <trkpt lat="56.792068" lon="-5.043760"><ele>496.0</ele><time>2026-05-12T09:49:40Z</time></trkpt>
      <trkpt lat="56.792105" lon="-5.043527"><ele>493.5</ele><time>2026-05-12T09:50:00Z</time></trkpt>
      <trkpt lat="56.792144" lon="-5.043295"><ele>491.1</ele><time>2026-05-12T09:50:20Z</time></trkpt>
      <trkpt lat="56.792185" lon="-5.043065"><ele>488.7</ele><time>2026-05-12T09:50:40Z</time></trkpt>
      <trkpt lat="56.792227" lon="-5.042836"><ele>486.3</ele><time>2026-05-12T09:51:00Z</time></trkpt>
      <trkpt lat="56.792272" lon="-5.042608"><ele>483.9</ele><time>2026-05-12T09:51:20Z</time></trkpt>
      <trkpt lat="56.792318" lon="-5.042382"><ele>481.6</ele><time>2026-05-12T09:51:40Z</time></trkpt>
      <trkpt lat="56.792367" lon="-5.042157"><ele>479.3</ele><time>2026-05-12T09:52:00Z</time></trkpt>
      <trkpt lat="56.792417" lon="-5.041934"><ele>477.0</ele><time>2026-05-12T09:52:20Z</time></trkpt>
      <trkpt lat="56.792470" lon="-5.041713"><ele>474.7</ele><time>2026-05-12T09:52:40Z</time></trkpt>
      <trkpt lat="56.792525" lon="-5.041494"><ele>472.5</ele><time>2026-05-12T09:53:00Z</time></trkpt>
      <trkpt lat="56.792582" lon="-5.041277"><ele>470.3</ele><time>2026-05-12T09:53:20Z</time></trkpt>
      <trkpt lat="56.792642" lon="-5.041061"><ele>468.1</ele><time>2026-05-12T09:53:40Z</time></trkpt>
      <trkpt lat="56.792703" lon="-5.040848"><ele>465.9</ele><time>2026-05-12T09:54:00Z</time></trkpt>
      <trkpt lat="56.792767" lon="-5.040637"><ele>463.7</ele><time>2026-05-12T09:54:20Z</time></trkpt>
      <trkpt lat="56.792834" lon="-5.040428"><ele>461.6</ele><time>2026-05-12T09:54:40Z</time></trkpt>
      <trkpt lat="56.792902" lon="-5.040221"><ele>459.5</ele><time>2026-05-12T09:55:00Z</time></trkpt>
      <trkpt lat="56.792973" lon="-5.040016"><ele>457.5</ele><time>2026-05-12T09:55:20Z</time></trkpt>
      <trkpt lat="56.793047" lon="-5.039814"><ele>455.5</ele><time>2026-05-12T09:55:40Z</time></trkpt>
      <trkpt lat="56.793123" lon="-5.039615"><ele>453.5</ele><time>2026-05-12T09:56:00Z</time></trkpt>
      <trkpt lat="56.793202" lon="-5.039418"><ele>451.5</ele><time>2026-05-12T09:56:20Z</time></trkpt>
      <trkpt lat="56.793283" lon="-5.039223"><ele>449.6</ele><time>2026-05-12T09:56:40Z</time></trkpt>
      <trkpt lat="56.793367" lon="-5.039032"><ele>447.7</ele><time>2026-05-12T09:57:00Z</time></trkpt>
      <trkpt lat="56.793453" lon="-5.038843"><ele>445.8</ele><time>2026-05-12T09:57:20Z</time></trkpt>
      <trkpt lat="56.793542" lon="-5.038657"><ele>443.9</ele><time>2026-05-12T09:57:40Z</time></trkpt>
      <trkpt lat="56.793633" lon="-5.038474"><ele>442.1</ele><time>2026-05-12T09:58:00Z</time></trkpt>
      <trkpt lat="56.793727" lon="-5.038293"><ele>440.4</ele><time>2026-05-12T09:58:20Z</time></trkpt>
      <trkpt lat="56.793823" lon="-5.038116"><ele>438.6</ele><time>2026-05-12T09:58:40Z</time></trkpt>
      <trkpt lat="56.793923" lon="-5.037942"><ele>436.9</ele><time>2026-05-12T09:59:00Z</time></trkpt>
      <trkpt lat="56.794024" lon="-5.037771"><ele>435.2</ele><time>2026-05-12T09:59:20Z</time></trkpt>
      <trkpt lat="56.794129" lon="-5.037603"><ele>433.6</ele><time>2026-05-12T09:59:40Z</time></trkpt>
      <trkpt lat="56.794236" lon="-5.037439"><ele>432.0</ele><time>2026-05-12T10:00:00Z</time></trkpt>
      <trkpt lat="56.794345" lon="-5.037278"><ele>430.4</ele><time>2026-05-12T10:00:20Z</time></trkpt>
      <trkpt lat="56.794457" lon="-5.037120"><ele>428.9</ele><time>2026-05-12T10:00:40Z</time></trkpt>
      <trkpt lat="56.794572" lon="-5.036966"><ele>427.4</ele><time>2026-05-12T10:01:00Z</time></trkpt>
      <trkpt lat="56.794689" lon="-5.036815"><ele>425.9</ele><time>2026-05-12T10:01:20Z</time></trkpt>
      <trkpt lat="56.794809" lon="-5.036668"><ele>424.5</ele><time>2026-05-12T10:01:40Z</time></trkpt>
      <trkpt lat="56.794931" lon="-5.036524"><ele>423.1</ele><time>2026-05-12T10:02:00Z</time></trkpt>
      <trkpt lat="56.795055" lon="-5.036384"><ele>421.8</ele><time>2026-05-12T10:02:20Z</time></trkpt>
      <trkpt lat="56.795182" lon="-5.036248"><ele>420.4</ele><time>2026-05-12T10:02:40Z</time></trkpt>
      <trkpt lat="56.795312" lon="-5.036116"><ele>419.2</ele><time>2026-05-12T10:03:00Z</time></trkpt>
      <trkpt lat="56.795443" lon="-5.035987"><ele>417.9</ele><time>2026-05-12T10:03:20Z</time></trkpt>
      <trkpt lat="56.795577" lon="-5.035862"><ele>416.7</ele><time>2026-05-12T10:03:40Z</time></trkpt>
      <trkpt lat="56.795714" lon="-5.035742"><ele>415.6</ele><time>2026-05-12T10:04:00Z</time></trkpt>
      <trkpt lat="56.795852" lon="-5.035625"><ele>414.5</ele><time>2026-05-12T10:04:20Z</time></trkpt>
      <trkpt lat="56.795993" lon="-5.035512"><ele>413.4</ele><time>2026-05-12T10:04:40Z</time></trkpt>
      <trkpt lat="56.796135" lon="-5.035404"><ele>412.4</ele><time>2026-05-12T10:05:00Z</time></trkpt>
      <trkpt lat="56.796280" lon="-5.035299"><ele>411.4</ele><time>2026-05-12T10:05:20Z</time></trkpt>
      <trkpt lat="56.796427" lon="-5.035199"><ele>410.4</ele><time>2026-05-12T10:05:40Z</time></trkpt>
      <trkpt lat="56.796575" lon="-5.035103"><ele>409.5</ele><time>2026-05-12T10:06:00Z</time></trkpt>
      <trkpt lat="56.796726" lon="-5.035011"><ele>408.6</ele><time>2026-05-12T10:06:20Z</time></trkpt>
      <trkpt lat="56.796878" lon="-5.034923"><ele>407.8</ele><time>2026-05-12T10:06:40Z</time></trkpt>
      <trkpt lat="56.797032" lon="-5.034839"><ele>407.0</ele><time>2026-05-12T10:07:00Z</time></trkpt>
      <trkpt lat="56.797188" lon="-5.034760"><ele>406.2</ele><time>2026-05-12T10:07:20Z</time></trkpt>
      <trkpt lat="56.797345" lon="-5.034685"><ele>405.5</ele><time>2026-05-12T10:07:40Z</time></trkpt>
      <trkpt lat="56.797503" lon="-5.034615"><ele>404.9</ele><time>2026-05-12T10:08:00Z</time></trkpt>
      <trkpt lat="56.797663" lon="-5.034549"><ele>404.2</ele><time>2026-05-12T10:08:20Z</time></trkpt>
      <trkpt lat="56.797825" lon="-5.034488"><ele>403.7</ele><time>2026-05-12T10:08:40Z</time></trkpt>
      <trkpt lat="56.797987" lon="-5.034431"><ele>403.1</ele><time>2026-05-12T10:09:00Z</time></trkpt>
      <trkpt lat="56.798151" lon="-5.034378"><ele>402.6</ele><time>2026-05-12T10:09:20Z</time></trkpt>
      <trkpt lat="56.798316" lon="-5.034330"><ele>402.2</ele><time>2026-05-12T10:09:40Z</time></trkpt>
      <trkpt lat="56.798481" lon="-5.034286"><ele>401.8</ele><time>2026-05-12T10:10:00Z</time></trkpt>
      <trkpt lat="56.798648" lon="-5.034247"><ele>401.4</ele><time>2026-05-12T10:10:20Z</time></trkpt>
      <trkpt lat="56.798815" lon="-5.034213"><ele>401.1</ele><time>2026-05-12T10:10:40Z</time></trkpt>
      <trkpt lat="56.798983" lon="-5.034183"><ele>400.8</ele><time>2026-05-12T10:11:00Z</time></trkpt>
      <trkpt lat="56.799152" lon="-5.034158"><ele>400.5</ele><time>2026-05-12T10:11:20Z</time></trkpt>
      <trkpt lat="56.799321" lon="-5.034137"><ele>400.3</ele><time>2026-05-12T10:11:40Z</time></trkpt>
      <trkpt lat="56.799490" lon="-5.034121"><ele>400.2</ele><time>2026-05-12T10:12:00Z</time></trkpt>
      <trkpt lat="56.799660" lon="-5.034109"><ele>400.1</ele><time>2026-05-12T10:12:20Z</time></trkpt>
      <trkpt lat="56.799830" lon="-5.034102"><ele>400.0</ele><time>2026-05-12T10:12:40Z</time></trkpt>
      <trkpt lat="56.800000" lon="-5.034100"><ele>400.0</ele><time>2026-05-12T10:13:00Z</time></trkpt>
    </trkseg>
  </trk>
</gpx>
