<?xml version="1.0" encoding="UTF-8"?>
<gpx version="1.1" creator="gpx2print sample" xmlns="http://www.topografix.com/GPX/1/1">
  <trk>
    <name>Day 2 - summit push</name>
    <trkseg>
      <trkpt lat="56.796921" lon="-5.003580"><ele>1329.7</ele><time>2026-05-12T08:00:00Z</time></trkpt>
      <trkpt lat="56.796933" lon="-5.003658"><ele>1329.2</ele><time>2026-05-12T08:00:12Z</time></trkpt>
      <trkpt lat="56.796973" lon="-5.003772"><ele>1328.6</ele><time>2026-05-12T08:00:24Z</time></trkpt>
      <trkpt lat="56.797027" lon="-5.003827"><ele>1328.0</ele><time>2026-05-12T08:00:36Z</time></trkpt>
      <trkpt lat="56.797065" lon="-5.003908"><ele>1327.3</ele><time>2026-05-12T08:00:48Z</time></trkpt>
      <trkpt lat="56.797131" lon="-5.003974"><ele>1326.7</ele><time>2026-05-12T08:01:00Z</time></trkpt>
      <trkpt lat="56.797166" lon="-5.004063"><ele>1326.2</ele><time>2026-05-12T08:01:12Z</time></trkpt>
      <trkpt lat="56.797221" lon="-5.004167"><ele>1325.6</ele><time>2026-05-12T08:01:24Z</time></trkpt>
      <trkpt lat="56.797244" lon="-5.004194"><ele>1324.6</ele><time>2026-05-12T08:01:36Z</time></trkpt>
      <trkpt lat="56.797325" lon="-5.004277"><ele>1323.8</ele><time>2026-05-12T08:01:48Z</time></trkpt>
      <trkpt lat="56.797347" lon="-5.004347"><ele>1323.5</ele><time>2026-05-12T08:02:00Z</time></trkpt>
      <trkpt lat="56.797396" lon="-5.004425"><ele>1322.8</ele><time>2026-05-12T08:02:12Z</time></trkpt>
      <trkpt lat="56.797452" lon="-5.004513"><ele>1322.1</ele><time>2026-05-12T08:02:24Z</time></trkpt>
      <trkpt lat="56.797462" lon="-5.004548"><ele>1321.7</ele><time>2026-05-12T08:02:36Z</time></trkpt>
      <trkpt lat="56.797515" lon="-5.004649"><ele>1321.0</ele><time>2026-05-12T08:02:48Z</time></trkpt>
      <trkpt lat="56.797584" lon="-5.004748"><ele>1320.4</ele><time>2026-05-12T08:03:00Z</time></trkpt>
      <trkpt lat="56.797611" lon="-5.004821"><ele>1319.8</ele><time>2026-05-12T08:03:12Z</time></trkpt>
      <trkpt lat="56.797689" lon="-5.004921"><ele>1319.4</ele><time>2026-05-12T08:03:24Z</time></trkpt>
      <trkpt lat="56.797725" lon="-5.004969"><ele>1318.5</ele><time>2026-05-12T08:03:36Z</time></trkpt>
      <trkpt lat="56.797739" lon="-5.005049"><ele>1317.9</ele><time>2026-05-12T08:03:48Z</time></trkpt>
      <trkpt lat="56.797767" lon="-5.005139"><ele>1317.3</ele><time>2026-05-12T08:04:00Z</time></trkpt>
      <trkpt lat="56.797845" lon="-5.005202"><ele>1316.5</ele><time>2026-05-12T08:04:12Z</time></trkpt>
      <trkpt lat="56.797892" lon="-5.005288"><ele>1315.9</ele><time>2026-05-12T08:04:24Z</time></trkpt>
      <trkpt lat="56.797895" lon="-5.005353"><ele>1315.0</ele><time>2026-05-12T08:04:36Z</time></trkpt>
      <trkpt lat="56.797898" lon="-5.005419"><ele>1314.3</ele><time>2026-05-12T08:04:48Z</time></trkpt>
      <trkpt lat="56.797999" lon="-5.005551"><ele>1313.4</ele><time>2026-05-12T08:05:00Z</time></trkpt>
      <trkpt lat="56.798000" lon="-5.005592"><ele>1312.8</ele><time>2026-05-12T08:05:12Z</time></trkpt>
      <trkpt lat="56.798101" lon="-5.005643"><ele>1311.9</ele><time>2026-05-12T08:05:24Z</time></trkpt>
      <trkpt lat="56.798111" lon="-5.005716"><ele>1311.1</ele><time>2026-05-12T08:05:36Z</time></trkpt>
      <trkpt lat="56.798176" lon="-5.005817"><ele>1310.6</ele><time>2026-05-12T08:05:48Z</time></trkpt>
      <trkpt lat="56.798191" lon="-5.005875"><ele>1309.9</ele><time>2026-05-12T08:06:00Z</time></trkpt>
      <trkpt lat="56.798256" lon="-5.005969"><ele>1309.1</ele><time>2026-05-12T08:06:12Z</time></trkpt>
      <trkpt lat="56.798281" lon="-5.006055"><ele>1308.6</ele><time>2026-05-12T08:06:24Z</time></trkpt>
      <trkpt lat="56.798333" lon="-5.006131"><ele>1307.9</ele><time>2026-05-12T08:06:36Z</time></trkpt>
      <trkpt lat="56.798412" lon="-5.006202"><ele>1307.3</ele><time>2026-05-12T08:06:48Z</time></trkpt>
      <trkpt lat="56.798443" lon="-5.006321"><ele>1306.5</ele><time>2026-05-12T08:07:00Z</time></trkpt>
      <trkpt lat="56.798444" lon="-5.006385"><ele>1306.0</ele><time>2026-05-12T08:07:12Z</time></trkpt>
      <trkpt lat="56.798494" lon="-5.006461"><ele>1305.3</ele><time>2026-05-12T08:07:24Z</time></trkpt>
      <trkpt lat="56.798534" lon="-5.006560"><ele>1304.5</ele><time>2026-05-12T08:07:36Z</time></trkpt>
      <trkpt lat="56.798611" lon="-5.006644"><ele>1303.9</ele><time>2026-05-12T08:07:48Z</time></trkpt>
      <trkpt lat="56.798605" lon="-5.006744"><ele>1303.2</ele><time>2026-05-12T08:08:00Z</time></trkpt>
      <trkpt lat="56.798681" lon="-5.006833"><ele>1302.5</ele><time>2026-05-12T08:08:12Z</time></trkpt>
      <trkpt lat="56.798744" lon="-5.006865"><ele>1302.1</ele><time>2026-05-12T08:08:24Z</time></trkpt>
      <trkpt lat="56.798766" lon="-5.006964"><ele>1301.5</ele><time>2026-05-12T08:08:36Z</time></trkpt>
      <trkpt lat="56.798815" lon="-5.007059"><ele>1300.7</ele><time>2026-05-12T08:08:48Z</time></trkpt>
      <trkpt lat="56.798811" lon="-5.007124"><ele>1299.8</ele><time>2026-05-12T08:09:00Z</time></trkpt>
      <trkpt lat="56.798846" lon="-5.007235"><ele>1299.2</ele><time>2026-05-12T08:09:12Z</time></trkpt>
      <trkpt lat="56.798927" lon="-5.007304"><ele>1298.3</ele><time>2026-05-12T08:09:24Z</time></trkpt>
      <trkpt lat="56.798978" lon="-5.007377"><ele>1297.6</ele><time>2026-05-12T08:09:36Z</time></trkpt>
      <trkpt lat="56.798986" lon="-5.007464"><ele>1296.9</ele><time>2026-05-12T08:09:48Z</time></trkpt>
      <trkpt lat="56.799060" lon="-5.007551"><ele>1296.0</ele><time>2026-05-12T08:10:00Z</time></trkpt>
      <trkpt lat="56.799071" lon="-5.007645"><ele>1295.6</ele><time>2026-05-12T08:10:12Z</time></trkpt>
      <trkpt lat="56.799144" lon="-5.007744"><ele>1295.0</ele><time>2026-05-12T08:10:24Z</time></trkpt>
      <trkpt lat="56.799122" lon="-5.007800"><ele>1294.1</ele><time>2026-05-12T08:10:36Z</time></trkpt>
      <trkpt lat="56.799203" lon="-5.007885"><ele>1293.5</ele><time>2026-05-12T08:10:48Z</time></trkpt>
      <trkpt lat="56.799240" lon="-5.008012"><ele>1292.6</ele><time>2026-05-12T08:11:00Z</time></trkpt>
      <trkpt lat="56.799254" lon="-5.008095"><ele>1292.1</ele><time>2026-05-12T08:11:12Z</time></trkpt>
      <trkpt lat="56.799283" lon="-5.008173"><ele>1291.4</ele><time>2026-05-12T08:11:24Z</time></trkpt>
      <trkpt lat="56.799332" lon="-5.008211"><ele>1290.8</ele><time>2026-05-12T08:11:36Z</time></trkpt>
      <trkpt lat="56.799419" lon="-5.008294"><ele>1290.2</ele><time>2026-05-12T08:11:48Z</time></trkpt>
      <trkpt lat="56.799418" lon="-5.008463"><ele>1289.6</ele><time>2026-05-12T08:12:00Z</time></trkpt>
      <trkpt lat="56.799480" lon="-5.008514"><ele>1289.1</ele><time>2026-05-12T08:12:12Z</time></trkpt>
      <trkpt lat="56.799491" lon="-5.008620"><ele>1288.3</ele><time>2026-05-12T08:12:24Z</time></trkpt>
      <trkpt lat="56.799507" lon="-5.008728"><ele>1287.9</ele><time>2026-05-12T08:12:36Z</time></trkpt>
      <trkpt lat="56.799580" lon="-5.008777"><ele>1285.9</ele><time>2026-05-12T08:12:48Z</time></trkpt>
      <trkpt lat="56.799576" lon="-5.008907"><ele>1284.4</ele><time>2026-05-12T08:13:00Z</time></trkpt>
      <trkpt lat="56.799644" lon="-5.008963"><ele>1282.8</ele><time>2026-05-12T08:13:12Z</time></trkpt>
      <trkpt lat="56.799649" lon="-5.009083"><ele>1281.0</ele><time>2026-05-12T08:13:24Z</time></trkpt>
      <trkpt lat="56.799686" lon="-5.009197"><ele>1279.2</ele><time>2026-05-12T08:13:36Z</time></trkpt>
      <trkpt lat="56.799759" lon="-5.009262"><ele>1277.5</ele><time>2026-05-12T08:13:48Z</time></trkpt>
      <trkpt lat="56.799783" lon="-5.009355"><ele>1275.7</ele><time>2026-05-12T08:14:00Z</time></trkpt>
      <trkpt lat="56.799823" lon="-5.009441"><ele>1273.9</ele><time>2026-05-12T08:14:12Z</time></trkpt>
      <trkpt lat="56.799887" lon="-5.009548"><ele>1272.1</ele><time>2026-05-12T08:14:24Z</time></trkpt>
      <trkpt lat="56.799926" lon="-5.009658"><ele>1270.2</ele><time>2026-05-12T08:14:36Z</time></trkpt>
      <trkpt lat="56.799953" lon="-5.009736"><ele>1268.4</ele><time>2026-05-12T08:14:48Z</time></trkpt>
      <trkpt lat="56.799943" lon="-5.009814"><ele>1266.7</ele><time>2026-05-12T08:15:00Z</time></trkpt>
      <trkpt lat="56.800002" lon="-5.009944"><ele>1265.0</ele><time>2026-05-12T08:15:12Z</time></trkpt>
      <trkpt lat="56.800009" lon="-5.009999"><ele>1263.1</ele><time>2026-05-12T08:15:24Z</time></trkpt>
      <trkpt lat="56.800075" lon="-5.010127"><ele>1261.8</ele><time>2026-05-12T08:15:36Z</time></trkpt>
      <trkpt lat="56.800076" lon="-5.010228"><ele>1259.9</ele><time>2026-05-12T08:15:48Z</time></trkpt>
      <trkpt lat="56.800130" lon="-5.010344"><ele>1257.9</ele><time>2026-05-12T08:16:00Z</time></trkpt>
      <trkpt lat="56.800199" lon="-5.010402"><ele>1256.2</ele><time>2026-05-12T08:16:12Z</time></trkpt>
      <trkpt lat="56.800164" lon="-5.010500"><ele>1254.4</ele><time>2026-05-12T08:16:24Z</time></trkpt>
      <trkpt lat="56.800204" lon="-5.010608"><ele>1252.3</ele><time>2026-05-12T08:16:36Z</time></trkpt>
      <trkpt lat="56.800231" lon="-5.010738"><ele>1250.6</ele><time>2026-05-12T08:16:48Z</time></trkpt>
      <trkpt lat="56.800262" lon="-5.010824"><ele>1249.1</ele><time>2026-05-12T08:17:00Z</time></trkpt>
      <trkpt lat="56.800298" lon="-5.010868"><ele>1247.0</ele><time>2026-05-12T08:17:12Z</time></trkpt>
      <trkpt lat="56.800344" lon="-5.010996"><ele>1245.3</ele><time>2026-05-12T08:17:24Z</time></trkpt>
      <trkpt lat="56.800375" lon="-5.011122"><ele>1243.5</ele><time>2026-05-12T08:17:36Z</time></trkpt>
      <trkpt lat="56.800413" lon="-5.011206"><ele>1242.0</ele><time>2026-05-12T08:17:48Z</time></trkpt>
      <trkpt lat="56.800421" lon="-5.011361"><ele>1240.1</ele><time>2026-05-12T08:18:00Z</time></trkpt>
      <trkpt lat="56.800461" lon="-5.011439"><ele>1238.0</ele><time>2026-05-12T08:18:12Z</time></trkpt>
      <trkpt lat="56.800529" lon="-5.011537"><ele>1236.2</ele><time>2026-05-12T08:18:24Z</time></trkpt>
      <trkpt lat="56.800527" lon="-5.011619"><ele>1234.5</ele><time>2026-05-12T08:18:36Z</time></trkpt>
      <trkpt lat="56.800535" lon="-5.011745"><ele>1232.3</ele><time>2026-05-12T08:18:48Z</time></trkpt>
      <trkpt lat="56.800556" lon="-5.011856"><ele>1230.8</ele><time>2026-05-12T08:19:00Z</time></trkpt>
      <trkpt lat="56.800639" lon="-5.011965"><ele>1228.9</ele><time>2026-05-12T08:19:12Z</time></trkpt>
      <trkpt lat="56.800641" lon="-5.012070"><ele>1226.8</ele><time>2026-05-12T08:19:24Z</time></trkpt>
      <trkpt lat="56.800651" lon="-5.012192"><ele>1224.9</ele><time>2026-05-12T08:19:36Z</time></trkpt>
      <trkpt lat="56.800693" lon="-5.012284"><ele>1223.3</ele><time>2026-05-12T08:19:48Z</time></trkpt>
      <trkpt lat="56.800713" lon="-5.012404"><ele>1221.4</ele><time>2026-05-12T08:20:00Z</time></trkpt>
      <trkpt lat="56.800743" lon="-5.012468"><ele>1219.5</ele><time>2026-05-12T08:20:12Z</time></trkpt>
      <trkpt lat="56.800758" lon="-5.012623"><ele>1217.9</ele><time>2026-05-12T08:20:24Z</time></trkpt>
      <trkpt lat="56.800806" lon="-5.012685"><ele>1216.1</ele><time>2026-05-12T08:20:36Z</time></trkpt>
      <trkpt lat="56.800823" lon="-5.012851"><ele>1214.3</ele><time>2026-05-12T08:20:48Z</time></trkpt>
      <trkpt lat="56.800823" lon="-5.012958"><ele>1212.7</ele><time>2026-05-12T08:21:00Z</time></trkpt>
      <trkpt lat="56.800881" lon="-5.013065"><ele>1211.0</ele><time>2026-05-12T08:21:12Z</time></trkpt>
      <trkpt lat="56.800883" lon="-5.013160"><ele>1209.3</ele><time>2026-05-12T08:21:24Z</time></trkpt>
      <trkpt lat="56.800907" lon="-5.013279"><ele>1207.7</ele><time>2026-05-12T08:21:36Z</time></trkpt>
      <trkpt lat="56.800896" lon="-5.013378"><ele>1205.8</ele><time>2026-05-12T08:21:48Z</time></trkpt>
      <trkpt lat="56.800982" lon="-5.013537"><ele>1203.9</ele><time>2026-05-12T08:22:00Z</time></trkpt>
      <trkpt lat="56.800975" lon="-5.013627"><ele>1202.0</ele><time>2026-05-12T08:22:12Z</time></trkpt>
      <trkpt lat="56.801038" lon="-5.013729"><ele>1199.8</ele><time>2026-05-12T08:22:24Z</time></trkpt>
      <trkpt lat="56.801021" lon="-5.013839"><ele>1198.2</ele><time>2026-05-12T08:22:36Z</time></trkpt>
      <trkpt lat="56.801082" lon="-5.013951"><ele>1196.4</ele><time>2026-05-12T08:22:48Z</time></trkpt>
      <trkpt lat="56.801076" lon="-5.014091"><ele>1194.5</ele><time>2026-05-12T08:23:00Z</time></trkpt>
      <trkpt lat="56.801102" lon="-5.014214"><ele>1192.8</ele><time>2026-05-12T08:23:12Z</time></trkpt>
      <trkpt lat="56.801128" lon="-5.014296"><ele>1190.8</ele><time>2026-05-12T08:23:24Z</time></trkpt>
      <trkpt lat="56.801142" lon="-5.014405"><ele>1189.1</ele><time>2026-05-12T08:23:36Z</time></trkpt>
      <trkpt lat="56.801208" lon="-5.014512"><ele>1187.4</ele><time>2026-05-12T08:23:48Z</time></trkpt>
      <trkpt lat="56.801172" lon="-5.014666"><ele>1185.8</ele><time>2026-05-12T08:24:00Z</time></trkpt>
      <trkpt lat="56.801173" lon="-5.014773"><ele>1183.9</ele><time>2026-05-12T08:24:12Z</time></trkpt>
      <trkpt lat="56.801196" lon="-5.014889"><ele>1182.0</ele><time>2026-05-12T08:24:24Z</time></trkpt>
      <trkpt lat="56.801211" lon="-5.014970"><ele>1180.3</ele><time>2026-05-12T08:24:36Z</time></trkpt>
      <trkpt lat="56.801244" lon="-5.015115"><ele>1178.5</ele><time>2026-05-12T08:24:48Z</time></trkpt>
      <trkpt lat="56.801291" lon="-5.015242"><ele>1176.9</ele><time>2026-05-12T08:25:00Z</time></trkpt>
      <trkpt lat="56.801240" lon="-5.015388"><ele>1175.0</ele><time>2026-05-12T08:25:12Z</time></trkpt>
      <trkpt lat="56.801274" lon="-5.015467"><ele>1173.3</ele><time>2026-05-12T08:25:24Z</time></trkpt>
      <trkpt lat="56.801330" lon="-5.015620"><ele>1171.5</ele><time>2026-05-12T08:25:36Z</time></trkpt>
      <trkpt lat="56.801313" lon="-5.015745"><ele>1169.6</ele><time>2026-05-12T08:25:48Z</time></trkpt>
      <trkpt lat="56.801349" lon="-5.015881"><ele>1168.0</ele><time>2026-05-12T08:26:00Z</time></trkpt>
      <trkpt lat="56.801392" lon="-5.015987"><ele>1166.4</ele><time>2026-05-12T08:26:12Z</time></trkpt>
      <trkpt lat="56.801395" lon="-5.016083"><ele>1164.7</ele><time>2026-05-12T08:26:24Z</time></trkpt>
      <trkpt lat="56.801399" lon="-5.016242"><ele>1162.9</ele><time>2026-05-12T08:26:36Z</time></trkpt>
      <trkpt lat="56.801448" lon="-5.016318"><ele>1160.9</ele><time>2026-05-12T08:26:48Z</time></trkpt>
      <trkpt lat="56.801423" lon="-5.016476"><ele>1159.2</ele><time>2026-05-12T08:27:00Z</time></trkpt>
      <trkpt lat="56.801423" lon="-5.016593"><ele>1157.5</ele><time>2026-05-12T08:27:12Z</time></trkpt>
      <trkpt lat="56.801449" lon="-5.016704"><ele>1155.7</ele><time>2026-05-12T08:27:24Z</time></trkpt>
      <trkpt lat="56.801465" lon="-5.016844"><ele>1153.6</ele><time>2026-05-12T08:27:36Z</time></trkpt>
      <trkpt lat="56.801466" lon="-5.016983"><ele>1151.9</ele><time>2026-05-12T08:27:48Z</time></trkpt>
      <trkpt lat="56.801504" lon="-5.017110"><ele>1149.9</ele><time>2026-05-12T08:28:00Z</time></trkpt>
      <trkpt lat="56.801496" lon="-5.017246"><ele>1147.9</ele><time>2026-05-12T08:28:12Z</time></trkpt>
      <trkpt lat="56.801512" lon="-5.017336"><ele>1146.0</ele><time>2026-05-12T08:28:24Z</time></trkpt>
      <trkpt lat="56.801530" lon="-5.017449"><ele>1144.2</ele><time>2026-05-12T08:28:36Z</time></trkpt>
      <trkpt lat="56.801505" lon="-5.017652"><ele>1142.3</ele><time>2026-05-12T08:28:48Z</time></trkpt>
      <trkpt lat="56.801580" lon="-5.017664"><ele>1140.6</ele><time>2026-05-12T08:29:00Z</time></trkpt>
      <trkpt lat="56.801569" lon="-5.017834"><ele>1138.9</ele><time>2026-05-12T08:29:12Z</time></trkpt>
      <trkpt lat="56.801587" lon="-5.017943"><ele>1136.9</ele><time>2026-05-12T08:29:24Z</time></trkpt>
      <trkpt lat="56.801586" lon="-5.018080"><ele>1135.0</ele><time>2026-05-12T08:29:36Z</time></trkpt>
      <trkpt lat="56.801607" lon="-5.018225"><ele>1133.3</ele><time>2026-05-12T08:29:48Z</time></trkpt>
      <trkpt lat="56.801611" lon="-5.018366"><ele>1131.7</ele><time>2026-05-12T08:30:00Z</time></trkpt>
      <trkpt lat="56.801601" lon="-5.018512"><ele>1129.7</ele><time>2026-05-12T08:30:12Z</time></trkpt>
      <trkpt lat="56.801628" lon="-5.018604"><ele>1127.9</ele><time>2026-05-12T08:30:24Z</time></trkpt>
      <trkpt lat="56.801620" lon="-5.018713"><ele>1126.1</ele><time>2026-05-12T08:30:36Z</time></trkpt>
      <trkpt lat="56.801649" lon="-5.018838"><ele>1124.4</ele><time>2026-05-12T08:30:48Z</time></trkpt>
      <trkpt lat="56.801626" lon="-5.019020"><ele>1122.6</ele><time>2026-05-12T08:31:00Z</time></trkpt>
      <trkpt lat="56.801644" lon="-5.019138"><ele>1121.0</ele><time>2026-05-12T08:31:12Z</time></trkpt>
      <trkpt lat="56.801639" lon="-5.019266"><ele>1119.1</ele><time>2026-05-12T08:31:24Z</time></trkpt>
      <trkpt lat="56.801659" lon="-5.019400"><ele>1117.4</ele><time>2026-05-12T08:31:36Z</time></trkpt>
      <trkpt lat="56.801670" lon="-5.019495"><ele>1115.5</ele><time>2026-05-12T08:31:48Z</time></trkpt>
      <trkpt lat="56.801649" lon="-5.019649"><ele>1113.8</ele><time>2026-05-12T08:32:00Z</time></trkpt>
      <trkpt lat="56.801684" lon="-5.019762"><ele>1112.0</ele><time>2026-05-12T08:32:12Z</time></trkpt>
      <trkpt lat="56.801678" lon="-5.019846"><ele>1110.4</ele><time>2026-05-12T08:32:24Z</time></trkpt>
      <trkpt lat="56.801706" lon="-5.020029"><ele>1108.7</ele><time>2026-05-12T08:32:36Z</time></trkpt>
      <trkpt lat="56.801639" lon="-5.020145"><ele>1106.7</ele><time>2026-05-12T08:32:48Z</time></trkpt>
      <trkpt lat="56.801672" lon="-5.020303"><ele>1104.8</ele><time>2026-05-12T08:33:00Z</time></trkpt>
      <trkpt lat="56.801691" lon="-5.020442"><ele>1103.1</ele><time>2026-05-12T08:33:12Z</time></trkpt>
      <trkpt lat="56.801699" lon="-5.020577"><ele>1101.4</ele><time>2026-05-12T08:33:24Z</time></trkpt>
      <trkpt lat="56.801725" lon="-5.020710"><ele>1099.5</ele><time>2026-05-12T08:33:36Z</time></trkpt>
      <trkpt lat="56.801714" lon="-5.020818"><ele>1098.2</ele><time>2026-05-12T08:33:48Z</time></trkpt>
      <trkpt lat="56.801715" lon="-5.020961"><ele>1096.6</ele><time>2026-05-12T08:34:00Z</time></trkpt>
      <trkpt lat="56.801703" lon="-5.021061"><ele>1094.9</ele><time>2026-05-12T08:34:12Z</time></trkpt>
      <trkpt lat="56.801684" lon="-5.021187"><ele>1093.2</ele><time>2026-05-12T08:34:24Z</time></trkpt>
      <trkpt lat="56.801662" lon="-5.021383"><ele>1091.4</ele><time>2026-05-12T08:34:36Z</time></trkpt>
      <trkpt lat="56.801666" lon="-5.021467"><ele>1089.8</ele><time>2026-05-12T08:34:48Z</time></trkpt>
      <trkpt lat="56.801719" lon="-5.021594"><ele>1088.1</ele><time>2026-05-12T08:35:00Z</time></trkpt>
      <trkpt lat="56.801703" lon="-5.021746"><ele>1086.4</ele><time>2026-05-12T08:35:12Z</time></trkpt>
      <trkpt lat="56.801700" lon="-5.021862"><ele>1084.5</ele><time>2026-05-12T08:35:24Z</time></trkpt>
      <trkpt lat="56.801722" lon="-5.022015"><ele>1082.8</ele><time>2026-05-12T08:35:36Z</time></trkpt>
      <trkpt lat="56.801662" lon="-5.022138"><ele>1080.8</ele><time>2026-05-12T08:35:48Z</time></trkpt>
      <trkpt lat="56.801682" lon="-5.022281"><ele>1078.9</ele><time>2026-05-12T08:36:00Z</time></trkpt>
      <trkpt lat="56.801679" lon="-5.022403"><ele>1076.7</ele><time>2026-05-12T08:36:12Z</time></trkpt>
      <trkpt lat="56.801672" lon="-5.022536"><ele>1074.4</ele><time>2026-05-12T08:36:24Z</time></trkpt>
      <trkpt lat="56.801702" lon="-5.022683"><ele>1072.1</ele><time>2026-05-12T08:36:36Z</time></trkpt>
      <trkpt lat="56.801692" lon="-5.022772"><ele>1069.9</ele><time>2026-05-12T08:36:48Z</time></trkpt>
      <trkpt lat="56.801685" lon="-5.022917"><ele>1067.6</ele><time>2026-05-12T08:37:00Z</time></trkpt>
      <trkpt lat="56.801666" lon="-5.023034"><ele>1065.5</ele><time>2026-05-12T08:37:12Z</time></trkpt>
      <trkpt lat="56.801673" lon="-5.023202"><ele>1063.1</ele><time>2026-05-12T08:37:24Z</time></trkpt>
      <trkpt lat="56.801666" lon="-5.023315"><ele>1060.7</ele><time>2026-05-12T08:37:36Z</time></trkpt>
      <trkpt lat="56.801658" lon="-5.023451"><ele>1058.1</ele><time>2026-05-12T08:37:48Z</time></trkpt>
      <trkpt lat="56.801661" lon="-5.023561"><ele>1055.8</ele><time>2026-05-12T08:38:00Z</time></trkpt>
      <trkpt lat="56.801639" lon="-5.023758"><ele>1053.6</ele><time>2026-05-12T08:38:12Z</time></trkpt>
      <trkpt lat="56.801606" lon="-5.023861"><ele>1051.4</ele><time>2026-05-12T08:38:24Z</time></trkpt>
      <trkpt lat="56.801600" lon="-5.024009"><ele>1048.9</ele><time>2026-05-12T08:38:36Z</time></trkpt>
      <trkpt lat="56.801643" lon="-5.024106"><ele>1046.5</ele><time>2026-05-12T08:38:48Z</time></trkpt>
      <trkpt lat="56.801623" lon="-5.024224"><ele>1044.0</ele><time>2026-05-12T08:39:00Z</time></trkpt>
      <trkpt lat="56.801586" lon="-5.024356"><ele>1041.5</ele><time>2026-05-12T08:39:12Z</time></trkpt>
      <trkpt lat="56.801618" lon="-5.024506"><ele>1039.0</ele><time>2026-05-12T08:39:24Z</time></trkpt>
      <trkpt lat="56.801604" lon="-5.024639"><ele>1036.4</ele><time>2026-05-12T08:39:36Z</time></trkpt>
      <trkpt lat="56.801558" lon="-5.024827"><ele>1034.2</ele><time>2026-05-12T08:39:48Z</time></trkpt>
      <trkpt lat="56.801630" lon="-5.024874"><ele>1031.9</ele><time>2026-05-12T08:40:00Z</time></trkpt>
      <trkpt lat="56.801571" lon="-5.024959"><ele>1029.7</ele><time>2026-05-12T08:40:12Z</time></trkpt>
      <trkpt lat="56.801583" lon="-5.025154"><ele>1027.3</ele><time>2026-05-12T08:40:24Z</time></trkpt>
      <trkpt lat="56.801519" lon="-5.025279"><ele>1024.9</ele><time>2026-05-12T08:40:36Z</time></trkpt>
      <trkpt lat="56.801540" lon="-5.025393"><ele>1022.5</ele><time>2026-05-12T08:40:48Z</time></trkpt>
      <trkpt lat="56.801521" lon="-5.025500"><ele>1020.1</ele><time>2026-05-12T08:41:00Z</time></trkpt>
      <trkpt lat="56.801517" lon="-5.025687"><ele>1017.6</ele><time>2026-05-12T08:41:12Z</time></trkpt>
      <trkpt lat="56.801507" lon="-5.025791"><ele>1015.2</ele><time>2026-05-12T08:41:24Z</time></trkpt>
      <trkpt lat="56.801497" lon="-5.025916"><ele>1013.0</ele><time>2026-05-12T08:41:36Z</time></trkpt>
      <trkpt lat="56.801506" lon="-5.026064"><ele>1010.6</ele><time>2026-05-12T08:41:48Z</time></trkpt>
      <trkpt lat="56.801460" lon="-5.026184"><ele>1008.0</ele><time>2026-05-12T08:42:00Z</time></trkpt>
      <trkpt lat="56.801460" lon="-5.026313"><ele>1005.5</ele><time>2026-05-12T08:42:12Z</time></trkpt>
      <trkpt lat="56.801423" lon="-5.026442"><ele>1003.4</ele><time>2026-05-12T08:42:24Z</time></trkpt>
      <trkpt lat="56.801427" lon="-5.026564"><ele>1001.0</ele><time>2026-05-12T08:42:36Z</time></trkpt>
      <trkpt lat="56.801368" lon="-5.026689"><ele>998.5</ele><time>2026-05-12T08:42:48Z</time></trkpt>
      <trkpt lat="56.801390" lon="-5.026814"><ele>996.3</ele><time>2026-05-12T08:43:00Z</time></trkpt>
      <trkpt lat="56.801368" lon="-5.026953"><ele>994.1</ele><time>2026-05-12T08:43:12Z</time></trkpt>
      <trkpt lat="56.801395" lon="-5.027055"><ele>991.8</ele><time>2026-05-12T08:43:24Z</time></trkpt>
      <trkpt lat="56.801373" lon="-5.027151"><ele>989.2</ele><time>2026-05-12T08:43:36Z</time></trkpt>
      <trkpt lat="56.801346" lon="-5.027308"><ele>986.6</ele><time>2026-05-12T08:43:48Z</time></trkpt>
      <trkpt lat="56.801307" lon="-5.027429"><ele>984.4</ele><time>2026-05-12T08:44:00Z</time></trkpt>
      <trkpt lat="56.801308" lon="-5.027551"><ele>981.9</ele><time>2026-05-12T08:44:12Z</time></trkpt>
      <trkpt lat="56.801300" lon="-5.027703"><ele>979.4</ele><time>2026-05-12T08:44:24Z</time></trkpt>
      <trkpt lat="56.801309" lon="-5.027801"><ele>977.2</ele><time>2026-05-12T08:44:36Z</time></trkpt>
      <trkpt lat="56.801255" lon="-5.027927"><ele>975.0</ele><time>2026-05-12T08:44:48Z</time></trkpt>
      <trkpt lat="56.801211" lon="-5.028068"><ele>972.6</ele><time>2026-05-12T08:45:00Z</time></trkpt>
      <trkpt lat="56.801242" lon="-5.028180"><ele>970.3</ele><time>2026-05-12T08:45:12Z</time></trkpt>
      <trkpt lat="56.801217" lon="-5.028282"><ele>967.9</ele><time>2026-05-12T08:45:24Z</time></trkpt>
      <trkpt lat="56.801201" lon="-5.028395"><ele>965.5</ele><time>2026-05-12T08:45:36Z</time></trkpt>
      <trkpt lat="56.801192" lon="-5.028576"><ele>963.0</ele><time>2026-05-12T08:45:48Z</time></trkpt>
      <trkpt lat="56.801151" lon="-5.028672"><ele>960.4</ele><time>2026-05-12T08:46:00Z</time></trkpt>
      <trkpt lat="56.801164" lon="-5.028823"><ele>958.3</ele><time>2026-05-12T08:46:12Z</time></trkpt>
      <trkpt lat="56.801128" lon="-5.028921"><ele>956.1</ele><time>2026-05-12T08:46:24Z</time></trkpt>
      <trkpt lat="56.801081" lon="-5.029024"><ele>953.5</ele><time>2026-05-12T08:46:36Z</time></trkpt>
      <trkpt lat="56.801067" lon="-5.029130"><ele>951.1</ele><time>2026-05-12T08:46:48Z</time></trkpt>
      <trkpt lat="56.801085" lon="-5.029325"><ele>948.9</ele><time>2026-05-12T08:47:00Z</time></trkpt>
      <trkpt lat="56.801046" lon="-5.029452"><ele>946.6</ele><time>2026-05-12T08:47:12Z</time></trkpt>
      <trkpt lat="56.801074" lon="-5.029504"><ele>944.4</ele><time>2026-05-12T08:47:24Z</time></trkpt>
      <trkpt lat="56.801008" lon="-5.029651"><ele>942.2</ele><time>2026-05-12T08:47:36Z</time></trkpt>
      <trkpt lat="56.800986" lon="-5.029773"><ele>939.7</ele><time>2026-05-12T08:47:48Z</time></trkpt>
      <trkpt lat="56.800956" lon="-5.029904"><ele>937.2</ele><time>2026-05-12T08:48:00Z</time></trkpt>
      <trkpt lat="56.800955" lon="-5.029986"><ele>935.0</ele><time>2026-05-12T08:48:12Z</time></trkpt>
      <trkpt lat="56.800917" lon="-5.030106"><ele>932.9</ele><time>2026-05-12T08:48:24Z</time></trkpt>
      <trkpt lat="56.800934" lon="-5.030205"><ele>930.7</ele><time>2026-05-12T08:48:36Z</time></trkpt>
      <trkpt lat="56.800928" lon="-5.030312"><ele>928.0</ele><time>2026-05-12T08:48:48Z</time></trkpt>
      <trkpt lat="56.800856" lon="-5.030448"><ele>925.8</ele><time>2026-05-12T08:49:00Z</time></trkpt>
      <trkpt lat="56.800839" lon="-5.030555"><ele>923.3</ele><time>2026-05-12T08:49:12Z</time></trkpt>
      <trkpt lat="56.800852" lon="-5.030680"><ele>921.0</ele><time>2026-05-12T08:49:24Z</time></trkpt>
      <trkpt lat="56.800829" lon="-5.030812"><ele>918.4</ele><time>2026-05-12T08:49:36Z</time></trkpt>
      <trkpt lat="56.800799" lon="-5.030929"><ele>915.9</ele><time>2026-05-12T08:49:48Z</time></trkpt>
      <trkpt lat="56.800782" lon="-5.031019"><ele>913.6</ele><time>2026-05-12T08:50:00Z</time></trkpt>
      <trkpt lat="56.800763" lon="-5.031083"><ele>911.3</ele><time>2026-05-12T08:50:12Z</time></trkpt>
      <trkpt lat="56.800703" lon="-5.031237"><ele>908.9</ele><time>2026-05-12T08:50:24Z</time></trkpt>
      <trkpt lat="56.800710" lon="-5.031347"><ele>906.4</ele><time>2026-05-12T08:50:36Z</time></trkpt>
      <trkpt lat="56.800677" lon="-5.031474"><ele>904.2</ele><time>2026-05-12T08:50:48Z</time></trkpt>
      <trkpt lat="56.800645" lon="-5.031595"><ele>902.1</ele><time>2026-05-12T08:51:00Z</time></trkpt>
      <trkpt lat="56.800622" lon="-5.031713"><ele>899.7</ele><time>2026-05-12T08:51:12Z</time></trkpt>
      <trkpt lat="56.800621" lon="-5.031798"><ele>897.4</ele><time>2026-05-12T08:51:24Z</time></trkpt>
      <trkpt lat="56.800605" lon="-5.031935"><ele>895.2</ele><time>2026-05-12T08:51:36Z</time></trkpt>
      <trkpt lat="56.800552" lon="-5.032059"><ele>892.7</ele><time>2026-05-12T08:51:48Z</time></trkpt>
      <trkpt lat="56.800535" lon="-5.032118"><ele>890.2</ele><time>2026-05-12T08:52:00Z</time></trkpt>
      <trkpt lat="56.800504" lon="-5.032262"><ele>887.9</ele><time>2026-05-12T08:52:12Z</time></trkpt>
      <trkpt lat="56.800500" lon="-5.032344"><ele>885.6</ele><time>2026-05-12T08:52:24Z</time></trkpt>
      <trkpt lat="56.800464" lon="-5.032437"><ele>883.5</ele><time>2026-05-12T08:52:36Z</time></trkpt>
      <trkpt lat="56.800423" lon="-5.032552"><ele>881.2</ele><time>2026-05-12T08:52:48Z</time></trkpt>
      <trkpt lat="56.800364" lon="-5.032680"><ele>878.9</ele><time>2026-05-12T08:53:00Z</time></trkpt>
      <trkpt lat="56.800356" lon="-5.032781"><ele>876.4</ele><time>2026-05-12T08:53:12Z</time></trkpt>
      <trkpt lat="56.800332" lon="-5.032890"><ele>874.2</ele><time>2026-05-12T08:53:24Z</time></trkpt>
      <trkpt lat="56.800327" lon="-5.033005"><ele>871.9</ele><time>2026-05-12T08:53:36Z</time></trkpt>
      <trkpt lat="56.800327" lon="-5.033084"><ele>869.5</ele><time>2026-05-12T08:53:48Z</time></trkpt>
      <trkpt lat="56.800286" lon="-5.033184"><ele>867.1</ele><time>2026-05-12T08:54:00Z</time></trkpt>
      <trkpt lat="56.800230" lon="-5.033286"><ele>865.0</ele><time>2026-05-12T08:54:12Z</time></trkpt>
      <trkpt lat="56.800219" lon="-5.033371"><ele>862.7</ele><time>2026-05-12T08:54:24Z</time></trkpt>
      <trkpt lat="56.800201" lon="-5.033484"><ele>860.4</ele><time>2026-05-12T08:54:36Z</time></trkpt>
      <trkpt lat="56.800198" lon="-5.033611"><ele>858.1</ele><time>2026-05-12T08:54:48Z</time></trkpt>
      <trkpt lat="56.800170" lon="-5.033736"><ele>855.9</ele><time>2026-05-12T08:55:00Z</time></trkpt>
      <trkpt lat="56.800161" lon="-5.033808"><ele>853.4</ele><time>2026-05-12T08:55:12Z</time></trkpt>
      <trkpt lat="56.800108" lon="-5.033918"><ele>850.9</ele><time>2026-05-12T08:55:24Z</time></trkpt>
      <trkpt lat="56.800105" lon="-5.034024"><ele>848.5</ele><time>2026-05-12T08:55:36Z</time></trkpt>
      <trkpt lat="56.800034" lon="-5.034111"><ele>846.1</ele><time>2026-05-12T08:55:48Z</time></trkpt>
      <trkpt lat="56.800040" lon="-5.034211"><ele>843.7</ele><time>2026-05-12T08:56:00Z</time></trkpt>
      <trkpt lat="56.799986" lon="-5.034275"><ele>841.0</ele><time>2026-05-12T08:56:12Z</time></trkpt>
      <trkpt lat="56.799937" lon="-5.034457"><ele>838.7</ele><time>2026-05-12T08:56:24Z</time></trkpt>
      <trkpt lat="56.799927" lon="-5.034509"><ele>836.3</ele><time>2026-05-12T08:56:36Z</time></trkpt>
      <trkpt lat="56.799886" lon="-5.034605"><ele>834.0</ele><time>2026-05-12T08:56:48Z</time></trkpt>
      <trkpt lat="56.799911" lon="-5.034719"><ele>831.6</ele><time>2026-05-12T08:57:00Z</time></trkpt>
      <trkpt lat="56.799855" lon="-5.034806"><ele>829.1</ele><time>2026-05-12T08:57:12Z</time></trkpt>
      <trkpt lat="56.799842" lon="-5.034894"><ele>826.8</ele><time>2026-05-12T08:57:24Z</time></trkpt>
      <trkpt lat="56.799848" lon="-5.034998"><ele>824.6</ele><time>2026-05-12T08:57:36Z</time></trkpt>
      <trkpt lat="56.799770" lon="-5.035021"><ele>821.9</ele><time>2026-05-12T08:57:48Z</time></trkpt>
      <trkpt lat="56.799733" lon="-5.035175"><ele>819.7</ele><time>2026-05-12T08:58:00Z</time></trkpt>
      <trkpt lat="56.799727" lon="-5.035260"><ele>817.3</ele><time>2026-05-12T08:58:12Z</time></trkpt>
      <trkpt lat="56.799714" lon="-5.035317"><ele>814.7</ele><time>2026-05-12T08:58:24Z</time></trkpt>
      <trkpt lat="56.799693" lon="-5.035471"><ele>812.6</ele><time>2026-05-12T08:58:36Z</time></trkpt>
      <trkpt lat="56.799620" lon="-5.035545"><ele>810.4</ele><time>2026-05-12T08:58:48Z</time></trkpt>
      <trkpt lat="56.799637" lon="-5.035641"><ele>807.9</ele><time>2026-05-12T08:59:00Z</time></trkpt>
      <trkpt lat="56.799627" lon="-5.035752"><ele>805.5</ele><time>2026-05-12T08:59:12Z</time></trkpt>
      <trkpt lat="56.799548" lon="-5.035812"><ele>803.1</ele><time>2026-05-12T08:59:24Z</time></trkpt>
      <trkpt lat="56.799525" lon="-5.035956"><ele>800.8</ele><time>2026-05-12T08:59:36Z</time></trkpt>
      <trkpt lat="56.799511" lon="-5.036017"><ele>798.5</ele><time>2026-05-12T08:59:48Z</time></trkpt>
      <trkpt lat="56.799533" lon="-5.036096"><ele>796.1</ele><time>2026-05-12T09:00:00Z</time></trkpt>
      <trkpt lat="56.799444" lon="-5.036180"><ele>793.5</ele><time>2026-05-12T09:00:12Z</time></trkpt>
      <trkpt lat="56.799481" lon="-5.036228"><ele>791.2</ele><time>2026-05-12T09:00:24Z</time></trkpt>
      <trkpt lat="56.799411" lon="-5.036374"><ele>788.9</ele><time>2026-05-12T09:00:36Z</time></trkpt>
      <trkpt lat="56.799403" lon="-5.036424"><ele>786.8</ele><time>2026-05-12T09:00:48Z</time></trkpt>
      <trkpt lat="56.799346" lon="-5.036515"><ele>784.3</ele><time>2026-05-12T09:01:00Z</time></trkpt>
      <trkpt lat="56.799311" lon="-5.036660"><ele>781.9</ele><time>2026-05-12T09:01:12Z</time></trkpt>
      <trkpt lat="56.799284" lon="-5.036695"><ele>779.7</ele><time>2026-05-12T09:01:24Z</time></trkpt>
      <trkpt lat="56.799256" lon="-5.036783"><ele>777.7</ele><time>2026-05-12T09:01:36Z</time></trkpt>
      <trkpt lat="56.799255" lon="-5.036871"><ele>775.3</ele><time>2026-05-12T09:01:48Z</time></trkpt>
      <trkpt lat="56.799263" lon="-5.036975"><ele>772.9</ele><time>2026-05-12T09:02:00Z</time></trkpt>
      <trkpt lat="56.799157" lon="-5.037022"><ele>770.9</ele><time>2026-05-12T09:02:12Z</time></trkpt>
      <trkpt lat="56.799200" lon="-5.037131"><ele>768.6</ele><time>2026-05-12T09:02:24Z</time></trkpt>
      <trkpt lat="56.799178" lon="-5.037230"><ele>766.3</ele><time>2026-05-12T09:02:36Z</time></trkpt>
      <trkpt lat="56.799154" lon="-5.037324"><ele>764.2</ele><time>2026-05-12T09:02:48Z</time></trkpt>
      <trkpt lat="56.799110" lon="-5.037399"><ele>761.7</ele><time>2026-05-12T09:03:00Z</time></trkpt>
      <trkpt lat="56.799038" lon="-5.037462"><ele>759.4</ele><time>2026-05-12T09:03:12Z</time></trkpt>
      <trkpt lat="56.799044" lon="-5.037608"><ele>756.9</ele><time>2026-05-12T09:03:24Z</time></trkpt>
      <trkpt lat="56.799005" lon="-5.037606"><ele>754.7</ele><time>2026-05-12T09:03:36Z</time></trkpt>
      <trkpt lat="56.799026" lon="-5.037721"><ele>752.5</ele><time>2026-05-12T09:03:48Z</time></trkpt>
      <trkpt lat="56.798954" lon="-5.037785"><ele>750.0</ele><time>2026-05-12T09:04:00Z</time></trkpt>
      <trkpt lat="56.798891" lon="-5.037876"><ele>747.3</ele><time>2026-05-12T09:04:12Z</time></trkpt>
      <trkpt lat="56.798882" lon="-5.037951"><ele>745.0</ele><time>2026-05-12T09:04:24Z</time></trkpt>
      <trkpt lat="56.798858" lon="-5.038020"><ele>742.4</ele><time>2026-05-12T09:04:36Z</time></trkpt>
      <trkpt lat="56.798850" lon="-5.038151"><ele>740.0</ele><time>2026-05-12T09:04:48Z</time></trkpt>
      <trkpt lat="56.798830" lon="-5.038195"><ele>737.9</ele><time>2026-05-12T09:05:00Z</time></trkpt>
      <trkpt lat="56.798834" lon="-5.038296"><ele>735.7</ele><time>2026-05-12T09:05:12Z</time></trkpt>
      <trkpt lat="56.798768" lon="-5.038390"><ele>733.4</ele><time>2026-05-12T09:05:24Z</time></trkpt>
      <trkpt lat="56.798726" lon="-5.038444"><ele>731.2</ele><time>2026-05-12T09:05:36Z</time></trkpt>
      <trkpt lat="56.798722" lon="-5.038556"><ele>728.6</ele><time>2026-05-12T09:05:48Z</time></trkpt>
      <trkpt lat="56.798675" lon="-5.038578"><ele>726.3</ele><time>2026-05-12T09:06:00Z</time></trkpt>
      <trkpt lat="56.798667" lon="-5.038670"><ele>724.1</ele><time>2026-05-12T09:06:12Z</time></trkpt>
      <trkpt lat="56.798642" lon="-5.038781"><ele>721.7</ele><time>2026-05-12T09:06:24Z</time></trkpt>
      <trkpt lat="56.798630" lon="-5.038809"><ele>719.5</ele><time>2026-05-12T09:06:36Z</time></trkpt>
      <trkpt lat="56.798610" lon="-5.038932"><ele>717.1</ele><time>2026-05-12T09:06:48Z</time></trkpt>
      <trkpt lat="56.798571" lon="-5.039015"><ele>714.9</ele><time>2026-05-12T09:07:00Z</time></trkpt>
      <trkpt lat="56.798561" lon="-5.039040"><ele>712.6</ele><time>2026-05-12T09:07:12Z</time></trkpt>
      <trkpt lat="56.798515" lon="-5.039161"><ele>710.1</ele><time>2026-05-12T09:07:24Z</time></trkpt>
      <trkpt lat="56.798515" lon="-5.039216"><ele>708.0</ele><time>2026-05-12T09:07:36Z</time></trkpt>
      <trkpt lat="56.798459" lon="-5.039310"><ele>705.6</ele><time>2026-05-12T09:07:48Z</time></trkpt>
      <trkpt lat="56.798447" lon="-5.039362"><ele>703.5</ele><time>2026-05-12T09:08:00Z</time></trkpt>
      <trkpt lat="56.798421" lon="-5.039451"><ele>701.2</ele><time>2026-05-12T09:08:12Z</time></trkpt>
      <trkpt lat="56.798423" lon="-5.039524"><ele>699.3</ele><time>2026-05-12T09:08:24Z</time></trkpt>
      <trkpt lat="56.798380" lon="-5.039624"><ele>697.7</ele><time>2026-05-12T09:08:36Z</time></trkpt>
      <trkpt lat="56.798400" lon="-5.039704"><ele>696.1</ele><time>2026-05-12T09:08:48Z</time></trkpt>
      <trkpt lat="56.798326" lon="-5.039763"><ele>694.7</ele><time>2026-05-12T09:09:00Z</time></trkpt>
      <trkpt lat="56.798276" lon="-5.039886"><ele>693.1</ele><time>2026-05-12T09:09:12Z</time></trkpt>
      <trkpt lat="56.798281" lon="-5.039903"><ele>691.6</ele><time>2026-05-12T09:09:24Z</time></trkpt>
      <trkpt lat="56.798298" lon="-5.040031"><ele>690.6</ele><time>2026-05-12T09:09:36Z</time></trkpt>
      <trkpt lat="56.798247" lon="-5.040101"><ele>689.1</ele><time>2026-05-12T09:09:48Z</time></trkpt>
      <trkpt lat="56.798211" lon="-5.040174"><ele>687.7</ele><time>2026-05-12T09:10:00Z</time></trkpt>
      <trkpt lat="56.798195" lon="-5.040228"><ele>686.4</ele><time>2026-05-12T09:10:12Z</time></trkpt>
      <trkpt lat="56.798178" lon="-5.040309"><ele>684.8</ele><time>2026-05-12T09:10:24Z</time></trkpt>
      <trkpt lat="56.798147" lon="-5.040406"><ele>683.6</ele><time>2026-05-12T09:10:36Z</time></trkpt>
      <trkpt lat="56.798162" lon="-5.040461"><ele>682.4</ele><time>2026-05-12T09:10:48Z</time></trkpt>
      <trkpt lat="56.798120" lon="-5.040514"><ele>681.0</ele><time>2026-05-12T09:11:00Z</time></trkpt>
      <trkpt lat="56.798082" lon="-5.040611"><ele>679.6</ele><time>2026-05-12T09:11:12Z</time></trkpt>
      <trkpt lat="56.798050" lon="-5.040693"><ele>678.0</ele><time>2026-05-12T09:11:24Z</time></trkpt>
      <trkpt lat="56.798096" lon="-5.040770"><ele>676.4</ele><time>2026-05-12T09:11:36Z</time></trkpt>
      <trkpt lat="56.798011" lon="-5.040841"><ele>675.1</ele><time>2026-05-12T09:11:48Z</time></trkpt>
      <trkpt lat="56.798001" lon="-5.040900"><ele>673.6</ele><time>2026-05-12T09:12:00Z</time></trkpt>
      <trkpt lat="56.798003" lon="-5.040993"><ele>672.0</ele><time>2026-05-12T09:12:12Z</time></trkpt>
      <trkpt lat="56.797971" lon="-5.041017"><ele>670.5</ele><time>2026-05-12T09:12:24Z</time></trkpt>
      <trkpt lat="56.797989" lon="-5.041121"><ele>668.9</ele><time>2026-05-12T09:12:36Z</time></trkpt>
      <trkpt lat="56.797917" lon="-5.041197"><ele>667.6</ele><time>2026-05-12T09:12:48Z</time></trkpt>
      <trkpt lat="56.797943" lon="-5.041314"><ele>666.3</ele><time>2026-05-12T09:13:00Z</time></trkpt>
      <trkpt lat="56.797899" lon="-5.041376"><ele>665.0</ele><time>2026-05-12T09:13:12Z</time></trkpt>
      <trkpt lat="56.797874" lon="-5.041436"><ele>663.5</ele><time>2026-05-12T09:13:24Z</time></trkpt>
      <trkpt lat="56.797863" lon="-5.041531"><ele>662.0</ele><time>2026-05-12T09:13:36Z</time></trkpt>
      <trkpt lat="56.797871" lon="-5.041625"><ele>660.4</ele><time>2026-05-12T09:13:48Z</time></trkpt>
      <trkpt lat="56.797798" lon="-5.041677"><ele>659.0</ele><time>2026-05-12T09:14:00Z</time></trkpt>
      <trkpt lat="56.797815" lon="-5.041753"><ele>657.5</ele><time>2026-05-12T09:14:12Z</time></trkpt>
      <trkpt lat="56.797797" lon="-5.041817"><ele>655.8</ele><time>2026-05-12T09:14:24Z</time></trkpt>
      <trkpt lat="56.797756" lon="-5.041875"><ele>654.5</ele><time>2026-05-12T09:14:36Z</time></trkpt>
      <trkpt lat="56.797788" lon="-5.041975"><ele>653.2</ele><time>2026-05-12T09:14:48Z</time></trkpt>
      <trkpt lat="56.797746" lon="-5.042033"><ele>651.7</ele><time>2026-05-12T09:15:00Z</time></trkpt>
      <trkpt lat="56.797711" lon="-5.042135"><ele>650.1</ele><time>2026-05-12T09:15:12Z</time></trkpt>
      <trkpt lat="56.797709" lon="-5.042211"><ele>648.6</ele><time>2026-05-12T09:15:24Z</time></trkpt>
      <trkpt lat="56.797670" lon="-5.042314"><ele>647.4</ele><time>2026-05-12T09:15:36Z</time></trkpt>
      <trkpt lat="56.797649" lon="-5.042384"><ele>646.0</ele><time>2026-05-12T09:15:48Z</time></trkpt>
      <trkpt lat="56.797634" lon="-5.042447"><ele>644.5</ele><time>2026-05-12T09:16:00Z</time></trkpt>
      <trkpt lat="56.797668" lon="-5.042500"><ele>643.3</ele><time>2026-05-12T09:16:12Z</time></trkpt>
      <trkpt lat="56.797622" lon="-5.042553"><ele>642.1</ele><time>2026-05-12T09:16:24Z</time></trkpt>
      <trkpt lat="56.797592" lon="-5.042668"><ele>640.6</ele><time>2026-05-12T09:16:36Z</time></trkpt>
      <trkpt lat="56.797600" lon="-5.042765"><ele>639.3</ele><time>2026-05-12T09:16:48Z</time></trkpt>
      <trkpt lat="56.797611" lon="-5.042869"><ele>637.8</ele><time>2026-05-12T09:17:00Z</time></trkpt>
      <trkpt lat="56.797562" lon="-5.042903"><ele>636.2</ele><time>2026-05-12T09:17:12Z</time></trkpt>
      <trkpt lat="56.797570" lon="-5.042984"><ele>635.1</ele><time>2026-05-12T09:17:24Z</time></trkpt>
      <trkpt lat="56.797576" lon="-5.043035"><ele>633.8</ele><time>2026-05-12T09:17:36Z</time></trkpt>
      <trkpt lat="56.797542" lon="-5.043164"><ele>632.6</ele><time>2026-05-12T09:17:48Z</time></trkpt>
      <trkpt lat="56.797543" lon="-5.043187"><ele>631.3</ele><time>2026-05-12T09:18:00Z</time></trkpt>
      <trkpt lat="56.797520" lon="-5.043297"><ele>629.7</ele><time>2026-05-12T09:18:12Z</time></trkpt>
      <trkpt lat="56.797541" lon="-5.043383"><ele>628.1</ele><time>2026-05-12T09:18:24Z</time></trkpt>
      <trkpt lat="56.797483" lon="-5.043467"><ele>626.6</ele><time>2026-05-12T09:18:36Z</time></trkpt>
      <trkpt lat="56.797490" lon="-5.043550"><ele>625.3</ele><time>2026-05-12T09:18:48Z</time></trkpt>
      <trkpt lat="56.797451" lon="-5.043662"><ele>624.1</ele><time>2026-05-12T09:19:00Z</time></trkpt>
      <trkpt lat="56.797493" lon="-5.043679"><ele>623.0</ele><time>2026-05-12T09:19:12Z</time></trkpt>
      <trkpt lat="56.797489" lon="-5.043793"><ele>621.3</ele><time>2026-05-12T09:19:24Z</time></trkpt>
      <trkpt lat="56.797465" lon="-5.043849"><ele>620.0</ele><time>2026-05-12T09:19:36Z</time></trkpt>
      <trkpt lat="56.797444" lon="-5.043895"><ele>618.6</ele><time>2026-05-12T09:19:48Z</time></trkpt>
      <trkpt lat="56.797365" lon="-5.044034"><ele>617.1</ele><time>2026-05-12T09:20:00Z</time></trkpt>
      <trkpt lat="56.797394" lon="-5.044099"><ele>615.7</ele><time>2026-05-12T09:20:12Z</time></trkpt>
      <trkpt lat="56.797385" lon="-5.044186"><ele>614.2</ele><time>2026-05-12T09:20:24Z</time></trkpt>
      <trkpt lat="56.797389" lon="-5.044278"><ele>612.7</ele><time>2026-05-12T09:20:36Z</time></trkpt>
      <trkpt lat="56.797432" lon="-5.044397"><ele>611.2</ele><time>2026-05-12T09:20:48Z</time></trkpt>
    </trkseg>
  </trk>
</gpx>
