<?xml version="1.0" encoding="UTF-8"?>
<gpx version="1.1" creator="gpx2print sample" xmlns="http://www.topografix.com/GPX/1/1">
  <trk>
    <name>Glen loop - separate day</name>
    <trkseg>
      <trkpt lat="56.776918" lon="-5.126688"><ele>20.0</ele><time>2026-05-12T08:00:00Z</time></trkpt>
      <trkpt lat="56.776935" lon="-5.126612"><ele>20.0</ele><time>2026-05-12T08:00:12Z</time></trkpt>
      <trkpt lat="56.776897" lon="-5.126498"><ele>20.0</ele><time>2026-05-12T08:00:24Z</time></trkpt>
      <trkpt lat="56.776867" lon="-5.126393"><ele>20.0</ele><time>2026-05-12T08:00:36Z</time></trkpt>
      <trkpt lat="56.776882" lon="-5.126352"><ele>20.0</ele><time>2026-05-12T08:00:48Z</time></trkpt>
      <trkpt lat="56.776856" lon="-5.126252"><ele>20.0</ele><time>2026-05-12T08:01:00Z</time></trkpt>
      <trkpt lat="56.776884" lon="-5.126175"><ele>20.0</ele><time>2026-05-12T08:01:12Z</time></trkpt>
      <trkpt lat="56.776881" lon="-5.126099"><ele>20.0</ele><time>2026-05-12T08:01:24Z</time></trkpt>
      <trkpt lat="56.776844" lon="-5.126019"><ele>20.0</ele><time>2026-05-12T08:01:36Z</time></trkpt>
      <trkpt lat="56.776842" lon="-5.125946"><ele>20.0</ele><time>2026-05-12T08:01:48Z</time></trkpt>
      <trkpt lat="56.776842" lon="-5.125864"><ele>20.0</ele><time>2026-05-12T08:02:00Z</time></trkpt>
      <trkpt lat="56.776861" lon="-5.125768"><ele>20.0</ele><time>2026-05-12T08:02:12Z</time></trkpt>
      <trkpt lat="56.776875" lon="-5.125711"><ele>20.0</ele><time>2026-05-12T08:02:24Z</time></trkpt>
      <trkpt lat="56.776784" lon="-5.125615"><ele>20.0</ele><time>2026-05-12T08:02:36Z</time></trkpt>
      <trkpt lat="56.776789" lon="-5.125593"><ele>20.0</ele><time>2026-05-12T08:02:48Z</time></trkpt>
      <trkpt lat="56.776753" lon="-5.125466"><ele>20.0</ele><time>2026-05-12T08:03:00Z</time></trkpt>
      <trkpt lat="56.776806" lon="-5.125363"><ele>20.0</ele><time>2026-05-12T08:03:12Z</time></trkpt>
      <trkpt lat="56.776801" lon="-5.125308"><ele>20.0</ele><time>2026-05-12T08:03:24Z</time></trkpt>
      <trkpt lat="56.776783" lon="-5.125203"><ele>20.0</ele><time>2026-05-12T08:03:36Z</time></trkpt>
      <trkpt lat="56.776739" lon="-5.125144"><ele>20.0</ele><time>2026-05-12T08:03:48Z</time></trkpt>
      <trkpt lat="56.776692" lon="-5.125080"><ele>20.0</ele><time>2026-05-12T08:04:00Z</time></trkpt>
      <trkpt lat="56.776767" lon="-5.125030"><ele>20.0</ele><time>2026-05-12T08:04:12Z</time></trkpt>
      <trkpt lat="56.776721" lon="-5.124925"><ele>20.0</ele><time>2026-05-12T08:04:24Z</time></trkpt>
      <trkpt lat="56.776720" lon="-5.124791"><ele>20.0</ele><time>2026-05-12T08:04:36Z</time></trkpt>
      <trkpt lat="56.776706" lon="-5.124750"><ele>20.0</ele><time>2026-05-12T08:04:48Z</time></trkpt>
      <trkpt lat="56.776711" lon="-5.124707"><ele>20.0</ele><time>2026-05-12T08:05:00Z</time></trkpt>
      <trkpt lat="56.776698" lon="-5.124603"><ele>20.0</ele><time>2026-05-12T08:05:12Z</time></trkpt>
      <trkpt lat="56.776657" lon="-5.124511"><ele>20.0</ele><time>2026-05-12T08:05:24Z</time></trkpt>
      <trkpt lat="56.776635" lon="-5.124475"><ele>20.0</ele><time>2026-05-12T08:05:36Z</time></trkpt>
      <trkpt lat="56.776645" lon="-5.124367"><ele>20.0</ele><time>2026-05-12T08:05:48Z</time></trkpt>
      <trkpt lat="56.776639" lon="-5.124306"><ele>20.0</ele><time>2026-05-12T08:06:00Z</time></trkpt>
      <trkpt lat="56.776576" lon="-5.124190"><ele>20.0</ele><time>2026-05-12T08:06:12Z</time></trkpt>
      <trkpt lat="56.776597" lon="-5.124143"><ele>20.0</ele><time>2026-05-12T08:06:24Z</time></trkpt>
      <trkpt lat="56.776609" lon="-5.124067"><ele>20.0</ele><time>2026-05-12T08:06:36Z</time></trkpt>
      <trkpt lat="56.776562" lon="-5.123968"><ele>20.0</ele><time>2026-05-12T08:06:48Z</time></trkpt>
      <trkpt lat="56.776541" lon="-5.123894"><ele>20.0</ele><time>2026-05-12T08:07:00Z</time></trkpt>
      <trkpt lat="56.776515" lon="-5.123819"><ele>20.0</ele><time>2026-05-12T08:07:12Z</time></trkpt>
      <trkpt lat="56.776505" lon="-5.123774"><ele>20.0</ele><time>2026-05-12T08:07:24Z</time></trkpt>
      <trkpt lat="56.776504" lon="-5.123691"><ele>20.0</ele><time>2026-05-12T08:07:36Z</time></trkpt>
      <trkpt lat="56.776464" lon="-5.123591"><ele>20.0</ele><time>2026-05-12T08:07:48Z</time></trkpt>
      <trkpt lat="56.776468" lon="-5.123539"><ele>20.0</ele><time>2026-05-12T08:08:00Z</time></trkpt>
      <trkpt lat="56.776404" lon="-5.123410"><ele>20.0</ele><time>2026-05-12T08:08:12Z</time></trkpt>
      <trkpt lat="56.776424" lon="-5.123361"><ele>20.0</ele><time>2026-05-12T08:08:24Z</time></trkpt>
      <trkpt lat="56.776386" lon="-5.123303"><ele>20.0</ele><time>2026-05-12T08:08:36Z</time></trkpt>
      <trkpt lat="56.776375" lon="-5.123183"><ele>20.0</ele><time>2026-05-12T08:08:48Z</time></trkpt>
      <trkpt lat="56.776395" lon="-5.123146"><ele>20.0</ele><time>2026-05-12T08:09:00Z</time></trkpt>
      <trkpt lat="56.776368" lon="-5.123086"><ele>20.0</ele><time>2026-05-12T08:09:12Z</time></trkpt>
      <trkpt lat="56.776330" lon="-5.122983"><ele>20.0</ele><time>2026-05-12T08:09:24Z</time></trkpt>
      <trkpt lat="56.776337" lon="-5.122955"><ele>20.0</ele><time>2026-05-12T08:09:36Z</time></trkpt>
      <trkpt lat="56.776268" lon="-5.122850"><ele>20.0</ele><time>2026-05-12T08:09:48Z</time></trkpt>
      <trkpt lat="56.776279" lon="-5.122774"><ele>20.0</ele><time>2026-05-12T08:10:00Z</time></trkpt>
      <trkpt lat="56.776244" lon="-5.122703"><ele>20.0</ele><time>2026-05-12T08:10:12Z</time></trkpt>
      <trkpt lat="56.776228" lon="-5.122655"><ele>20.0</ele><time>2026-05-12T08:10:24Z</time></trkpt>
      <trkpt lat="56.776197" lon="-5.122537"><ele>20.0</ele><time>2026-05-12T08:10:36Z</time></trkpt>
      <trkpt lat="56.776183" lon="-5.122455"><ele>20.0</ele><time>2026-05-12T08:10:48Z</time></trkpt>
      <trkpt lat="56.776133" lon="-5.122386"><ele>20.0</ele><time>2026-05-12T08:11:00Z</time></trkpt>
      <trkpt lat="56.776152" lon="-5.122288"><ele>20.0</ele><time>2026-05-12T08:11:12Z</time></trkpt>
      <trkpt lat="56.776111" lon="-5.122232"><ele>20.0</ele><time>2026-05-12T08:11:24Z</time></trkpt>
      <trkpt lat="56.776102" lon="-5.122156"><ele>20.0</ele><time>2026-05-12T08:11:36Z</time></trkpt>
      <trkpt lat="56.776075" lon="-5.122081"><ele>20.0</ele><time>2026-05-12T08:11:48Z</time></trkpt>
      <trkpt lat="56.776065" lon="-5.122001"><ele>20.0</ele><time>2026-05-12T08:12:00Z</time></trkpt>
      <trkpt lat="56.776017" lon="-5.121927"><ele>20.0</ele><time>2026-05-12T08:12:12Z</time></trkpt>
      <trkpt lat="56.775956" lon="-5.121844"><ele>20.0</ele><time>2026-05-12T08:12:24Z</time></trkpt>
      <trkpt lat="56.775953" lon="-5.121768"><ele>20.0</ele><time>2026-05-12T08:12:36Z</time></trkpt>
      <trkpt lat="56.775933" lon="-5.121690"><ele>20.0</ele><time>2026-05-12T08:12:48Z</time></trkpt>
      <trkpt lat="56.775907" lon="-5.121620"><ele>20.0</ele><time>2026-05-12T08:13:00Z</time></trkpt>
      <trkpt lat="56.775895" lon="-5.121495"><ele>20.0</ele><time>2026-05-12T08:13:12Z</time></trkpt>
      <trkpt lat="56.775865" lon="-5.121466"><ele>20.0</ele><time>2026-05-12T08:13:24Z</time></trkpt>
      <trkpt lat="56.775826" lon="-5.121421"><ele>20.0</ele><time>2026-05-12T08:13:36Z</time></trkpt>
      <trkpt lat="56.775795" lon="-5.121341"><ele>20.0</ele><time>2026-05-12T08:13:48Z</time></trkpt>
      <trkpt lat="56.775791" lon="-5.121234"><ele>20.0</ele><time>2026-05-12T08:14:00Z</time></trkpt>
      <trkpt lat="56.775747" lon="-5.121166"><ele>20.0</ele><time>2026-05-12T08:14:12Z</time></trkpt>
      <trkpt lat="56.775712" lon="-5.121077"><ele>20.0</ele><time>2026-05-12T08:14:24Z</time></trkpt>
      <trkpt lat="56.775701" lon="-5.120973"><ele>20.0</ele><time>2026-05-12T08:14:36Z</time></trkpt>
      <trkpt lat="56.775635" lon="-5.120953"><ele>20.0</ele><time>2026-05-12T08:14:48Z</time></trkpt>
      <trkpt lat="56.775623" lon="-5.120836"><ele>20.0</ele><time>2026-05-12T08:15:00Z</time></trkpt>
      <trkpt lat="56.775588" lon="-5.120764"><ele>20.0</ele><time>2026-05-12T08:15:12Z</time></trkpt>
      <trkpt lat="56.775588" lon="-5.120687"><ele>20.0</ele><time>2026-05-12T08:15:24Z</time></trkpt>
      <trkpt lat="56.775533" lon="-5.120594"><ele>20.0</ele><time>2026-05-12T08:15:36Z</time></trkpt>
      <trkpt lat="56.775469" lon="-5.120520"><ele>20.0</ele><time>2026-05-12T08:15:48Z</time></trkpt>
      <trkpt lat="56.775450" lon="-5.120417"><ele>20.0</ele><time>2026-05-12T08:16:00Z</time></trkpt>
      <trkpt lat="56.775445" lon="-5.120350"><ele>20.0</ele><time>2026-05-12T08:16:12Z</time></trkpt>
      <trkpt lat="56.775408" lon="-5.120217"><ele>20.0</ele><time>2026-05-12T08:16:24Z</time></trkpt>
      <trkpt lat="56.775378" lon="-5.120212"><ele>20.0</ele><time>2026-05-12T08:16:36Z</time></trkpt>
      <trkpt lat="56.775352" lon="-5.120138"><ele>20.0</ele><time>2026-05-12T08:16:48Z</time></trkpt>
      <trkpt lat="56.775291" lon="-5.120010"><ele>20.0</ele><time>2026-05-12T08:17:00Z</time></trkpt>
      <trkpt lat="56.775292" lon="-5.119969"><ele>20.0</ele><time>2026-05-12T08:17:12Z</time></trkpt>
      <trkpt lat="56.775246" lon="-5.119844"><ele>20.0</ele><time>2026-05-12T08:17:24Z</time></trkpt>
      <trkpt lat="56.775213" lon="-5.119784"><ele>20.0</ele><time>2026-05-12T08:17:36Z</time></trkpt>
      <trkpt lat="56.775167" lon="-5.119665"><ele>20.0</ele><time>2026-05-12T08:17:48Z</time></trkpt>
      <trkpt lat="56.775154" lon="-5.119628"><ele>20.0</ele><time>2026-05-12T08:18:00Z</time></trkpt>
      <trkpt lat="56.775139" lon="-5.119519"><ele>20.0</ele><time>2026-05-12T08:18:12Z</time></trkpt>
      <trkpt lat="56.775060" lon="-5.119439"><ele>20.0</ele><time>2026-05-12T08:18:24Z</time></trkpt>
      <trkpt lat="56.775070" lon="-5.119362"><ele>20.0</ele><time>2026-05-12T08:18:36Z</time></trkpt>
      <trkpt lat="56.774993" lon="-5.119262"><ele>20.0</ele><time>2026-05-12T08:18:48Z</time></trkpt>
      <trkpt lat="56.774943" lon="-5.119228"><ele>20.0</ele><time>2026-05-12T08:19:00Z</time></trkpt>
      <trkpt lat="56.774927" lon="-5.119108"><ele>20.0</ele><time>2026-05-12T08:19:12Z</time></trkpt>
      <trkpt lat="56.774894" lon="-5.119015"><ele>20.0</ele><time>2026-05-12T08:19:24Z</time></trkpt>
      <trkpt lat="56.774841" lon="-5.118950"><ele>20.0</ele><time>2026-05-12T08:19:36Z</time></trkpt>
      <trkpt lat="56.774863" lon="-5.118833"><ele>20.0</ele><time>2026-05-12T08:19:48Z</time></trkpt>
      <trkpt lat="56.774756" lon="-5.118694"><ele>20.0</ele><time>2026-05-12T08:20:00Z</time></trkpt>
      <trkpt lat="56.774715" lon="-5.118678"><ele>20.0</ele><time>2026-05-12T08:20:12Z</time></trkpt>
      <trkpt lat="56.774697" lon="-5.118558"><ele>20.0</ele><time>2026-05-12T08:20:24Z</time></trkpt>
      <trkpt lat="56.774663" lon="-5.118481"><ele>20.0</ele><time>2026-05-12T08:20:36Z</time></trkpt>
      <trkpt lat="56.774643" lon="-5.118349"><ele>20.0</ele><time>2026-05-12T08:20:48Z</time></trkpt>
      <trkpt lat="56.774590" lon="-5.118337"><ele>20.0</ele><time>2026-05-12T08:21:00Z</time></trkpt>
      <trkpt lat="56.774594" lon="-5.118217"><ele>20.0</ele><time>2026-05-12T08:21:12Z</time></trkpt>
      <trkpt lat="56.774532" lon="-5.118159"><ele>20.0</ele><time>2026-05-12T08:21:24Z</time></trkpt>
      <trkpt lat="56.774525" lon="-5.118046"><ele>20.0</ele><time>2026-05-12T08:21:36Z</time></trkpt>
      <trkpt lat="56.774492" lon="-5.117970"><ele>20.0</ele><time>2026-05-12T08:21:48Z</time></trkpt>
      <trkpt lat="56.774398" lon="-5.117863"><ele>20.0</ele><time>2026-05-12T08:22:00Z</time></trkpt>
      <trkpt lat="56.774357" lon="-5.117734"><ele>20.0</ele><time>2026-05-12T08:22:12Z</time></trkpt>
      <trkpt lat="56.774338" lon="-5.117694"><ele>20.0</ele><time>2026-05-12T08:22:24Z</time></trkpt>
      <trkpt lat="56.774304" lon="-5.117589"><ele>20.0</ele><time>2026-05-12T08:22:36Z</time></trkpt>
      <trkpt lat="56.774254" lon="-5.117467"><ele>20.0</ele><time>2026-05-12T08:22:48Z</time></trkpt>
      <trkpt lat="56.774218" lon="-5.117404"><ele>20.0</ele><time>2026-05-12T08:23:00Z</time></trkpt>
      <trkpt lat="56.774205" lon="-5.117287"><ele>20.0</ele><time>2026-05-12T08:23:12Z</time></trkpt>
      <trkpt lat="56.774139" lon="-5.117235"><ele>20.0</ele><time>2026-05-12T08:23:24Z</time></trkpt>
      <trkpt lat="56.774101" lon="-5.117098"><ele>20.0</ele><time>2026-05-12T08:23:36Z</time></trkpt>
      <trkpt lat="56.774059" lon="-5.116998"><ele>20.0</ele><time>2026-05-12T08:23:48Z</time></trkpt>
      <trkpt lat="56.774012" lon="-5.116921"><ele>20.0</ele><time>2026-05-12T08:24:00Z</time></trkpt>
      <trkpt lat="56.773999" lon="-5.116809"><ele>20.0</ele><time>2026-05-12T08:24:12Z</time></trkpt>
      <trkpt lat="56.773957" lon="-5.116724"><ele>20.0</ele><time>2026-05-12T08:24:24Z</time></trkpt>
      <trkpt lat="56.773910" lon="-5.116607"><ele>20.0</ele><time>2026-05-12T08:24:36Z</time></trkpt>
      <trkpt lat="56.773890" lon="-5.116522"><ele>20.0</ele><time>2026-05-12T08:24:48Z</time></trkpt>
      <trkpt lat="56.773822" lon="-5.116469"><ele>20.0</ele><time>2026-05-12T08:25:00Z</time></trkpt>
      <trkpt lat="56.773782" lon="-5.116297"><ele>20.0</ele><time>2026-05-12T08:25:12Z</time></trkpt>
      <trkpt lat="56.773710" lon="-5.116233"><ele>20.0</ele><time>2026-05-12T08:25:24Z</time></trkpt>
      <trkpt lat="56.773697" lon="-5.116111"><ele>20.0</ele><time>2026-05-12T08:25:36Z</time></trkpt>
      <trkpt lat="56.773682" lon="-5.116027"><ele>20.0</ele><time>2026-05-12T08:25:48Z</time></trkpt>
      <trkpt lat="56.773615" lon="-5.115912"><ele>20.0</ele><time>2026-05-12T08:26:00Z</time></trkpt>
      <trkpt lat="56.773577" lon="-5.115815"><ele>20.0</ele><time>2026-05-12T08:26:12Z</time></trkpt>
      <trkpt lat="56.773534" lon="-5.115732"><ele>20.0</ele><time>2026-05-12T08:26:24Z</time></trkpt>
      <trkpt lat="56.773512" lon="-5.115628"><ele>20.0</ele><time>2026-05-12T08:26:36Z</time></trkpt>
      <trkpt lat="56.773475" lon="-5.115472"><ele>20.0</ele><time>2026-05-12T08:26:48Z</time></trkpt>
      <trkpt lat="56.773389" lon="-5.115393"><ele>20.0</ele><time>2026-05-12T08:27:00Z</time></trkpt>
      <trkpt lat="56.773331" lon="-5.115328"><ele>20.0</ele><time>2026-05-12T08:27:12Z</time></trkpt>
      <trkpt lat="56.773295" lon="-5.115195"><ele>20.0</ele><time>2026-05-12T08:27:24Z</time></trkpt>
      <trkpt lat="56.773276" lon="-5.115086"><ele>20.0</ele><time>2026-05-12T08:27:36Z</time></trkpt>
      <trkpt lat="56.773222" lon="-5.114998"><ele>20.0</ele><time>2026-05-12T08:27:48Z</time></trkpt>
      <trkpt lat="56.773181" lon="-5.114873"><ele>20.0</ele><time>2026-05-12T08:28:00Z</time></trkpt>
      <trkpt lat="56.773108" lon="-5.114772"><ele>20.0</ele><time>2026-05-12T08:28:12Z</time></trkpt>
      <trkpt lat="56.773098" lon="-5.114670"><ele>20.0</ele><time>2026-05-12T08:28:24Z</time></trkpt>
      <trkpt lat="56.773068" lon="-5.114564"><ele>20.0</ele><time>2026-05-12T08:28:36Z</time></trkpt>
      <trkpt lat="56.772988" lon="-5.114439"><ele>20.0</ele><time>2026-05-12T08:28:48Z</time></trkpt>
      <trkpt lat="56.772960" lon="-5.114361"><ele>20.0</ele><time>2026-05-12T08:29:00Z</time></trkpt>
      <trkpt lat="56.772905" lon="-5.114232"><ele>20.0</ele><time>2026-05-12T08:29:12Z</time></trkpt>
      <trkpt lat="56.772875" lon="-5.114116"><ele>20.0</ele><time>2026-05-12T08:29:24Z</time></trkpt>
      <trkpt lat="56.772835" lon="-5.114028"><ele>20.0</ele><time>2026-05-12T08:29:36Z</time></trkpt>
      <trkpt lat="56.772810" lon="-5.113931"><ele>20.0</ele><time>2026-05-12T08:29:48Z</time></trkpt>
      <trkpt lat="56.772752" lon="-5.113807"><ele>20.0</ele><time>2026-05-12T08:30:00Z</time></trkpt>
      <trkpt lat="56.772729" lon="-5.113707"><ele>20.0</ele><time>2026-05-12T08:30:12Z</time></trkpt>
      <trkpt lat="56.772635" lon="-5.113553"><ele>20.0</ele><time>2026-05-12T08:30:24Z</time></trkpt>
      <trkpt lat="56.772609" lon="-5.113471"><ele>20.0</ele><time>2026-05-12T08:30:36Z</time></trkpt>
      <trkpt lat="56.772560" lon="-5.113369"><ele>20.0</ele><time>2026-05-12T08:30:48Z</time></trkpt>
      <trkpt lat="56.772512" lon="-5.113216"><ele>20.0</ele><time>2026-05-12T08:31:00Z</time></trkpt>
      <trkpt lat="56.772477" lon="-5.113149"><ele>20.0</ele><time>2026-05-12T08:31:12Z</time></trkpt>
      <trkpt lat="56.772445" lon="-5.113008"><ele>20.0</ele><time>2026-05-12T08:31:24Z</time></trkpt>
      <trkpt lat="56.772377" lon="-5.112877"><ele>20.0</ele><time>2026-05-12T08:31:36Z</time></trkpt>
      <trkpt lat="56.772345" lon="-5.112780"><ele>20.0</ele><time>2026-05-12T08:31:48Z</time></trkpt>
      <trkpt lat="56.772292" lon="-5.112642"><ele>20.0</ele><time>2026-05-12T08:32:00Z</time></trkpt>
      <trkpt lat="56.772271" lon="-5.112539"><ele>20.0</ele><time>2026-05-12T08:32:12Z</time></trkpt>
      <trkpt lat="56.772257" lon="-5.112423"><ele>20.0</ele><time>2026-05-12T08:32:24Z</time></trkpt>
      <trkpt lat="56.772174" lon="-5.112303"><ele>20.0</ele><time>2026-05-12T08:32:36Z</time></trkpt>
      <trkpt lat="56.772163" lon="-5.112211"><ele>20.0</ele><time>2026-05-12T08:32:48Z</time></trkpt>
      <trkpt lat="56.772060" lon="-5.112070"><ele>20.0</ele><time>2026-05-12T08:33:00Z</time></trkpt>
      <trkpt lat="56.772055" lon="-5.111984"><ele>20.0</ele><time>2026-05-12T08:33:12Z</time></trkpt>
      <trkpt lat="56.772041" lon="-5.111829"><ele>20.0</ele><time>2026-05-12T08:33:24Z</time></trkpt>
      <trkpt lat="56.771949" lon="-5.111721"><ele>20.0</ele><time>2026-05-12T08:33:36Z</time></trkpt>
      <trkpt lat="56.771864" lon="-5.111608"><ele>20.0</ele><time>2026-05-12T08:33:48Z</time></trkpt>
      <trkpt lat="56.771852" lon="-5.111494"><ele>20.0</ele><time>2026-05-12T08:34:00Z</time></trkpt>
      <trkpt lat="56.771796" lon="-5.111363"><ele>20.0</ele><time>2026-05-12T08:34:12Z</time></trkpt>
      <trkpt lat="56.771758" lon="-5.111264"><ele>20.0</ele><time>2026-05-12T08:34:24Z</time></trkpt>
      <trkpt lat="56.771698" lon="-5.111140"><ele>20.0</ele><time>2026-05-12T08:34:36Z</time></trkpt>
      <trkpt lat="56.771673" lon="-5.111009"><ele>20.0</ele><time>2026-05-12T08:34:48Z</time></trkpt>
      <trkpt lat="56.771637" lon="-5.110890"><ele>20.0</ele><time>2026-05-12T08:35:00Z</time></trkpt>
      <trkpt lat="56.771579" lon="-5.110752"><ele>20.0</ele><time>2026-05-12T08:35:12Z</time></trkpt>
      <trkpt lat="56.771564" lon="-5.110661"><ele>20.0</ele><time>2026-05-12T08:35:24Z</time></trkpt>
      <trkpt lat="56.771530" lon="-5.110477"><ele>20.0</ele><time>2026-05-12T08:35:36Z</time></trkpt>
      <trkpt lat="56.771468" lon="-5.110374"><ele>20.0</ele><time>2026-05-12T08:35:48Z</time></trkpt>
      <trkpt lat="56.771475" lon="-5.110272"><ele>20.0</ele><time>2026-05-12T08:36:00Z</time></trkpt>
      <trkpt lat="56.771384" lon="-5.110136"><ele>20.0</ele><time>2026-05-12T08:36:12Z</time></trkpt>
      <trkpt lat="56.771384" lon="-5.110037"><ele>20.0</ele><time>2026-05-12T08:36:24Z</time></trkpt>
      <trkpt lat="56.771306" lon="-5.109894"><ele>20.0</ele><time>2026-05-12T08:36:36Z</time></trkpt>
      <trkpt lat="56.771273" lon="-5.109764"><ele>20.0</ele><time>2026-05-12T08:36:48Z</time></trkpt>
      <trkpt lat="56.771197" lon="-5.109650"><ele>20.0</ele><time>2026-05-12T08:37:00Z</time></trkpt>
      <trkpt lat="56.771170" lon="-5.109510"><ele>20.0</ele><time>2026-05-12T08:37:12Z</time></trkpt>
      <trkpt lat="56.771157" lon="-5.109390"><ele>20.0</ele><time>2026-05-12T08:37:24Z</time></trkpt>
      <trkpt lat="56.771103" lon="-5.109276"><ele>20.0</ele><time>2026-05-12T08:37:36Z</time></trkpt>
      <trkpt lat="56.771073" lon="-5.109130"><ele>20.0</ele><time>2026-05-12T08:37:48Z</time></trkpt>
      <trkpt lat="56.770961" lon="-5.109031"><ele>20.0</ele><time>2026-05-12T08:38:00Z</time></trkpt>
      <trkpt lat="56.770941" lon="-5.108886"><ele>20.0</ele><time>2026-05-12T08:38:12Z</time></trkpt>
      <trkpt lat="56.770916" lon="-5.108781"><ele>20.0</ele><time>2026-05-12T08:38:24Z</time></trkpt>
      <trkpt lat="56.770849" lon="-5.108631"><ele>20.0</ele><time>2026-05-12T08:38:36Z</time></trkpt>
      <trkpt lat="56.770803" lon="-5.108497"><ele>20.0</ele><time>2026-05-12T08:38:48Z</time></trkpt>
      <trkpt lat="56.770812" lon="-5.108338"><ele>20.0</ele><time>2026-05-12T08:39:00Z</time></trkpt>
      <trkpt lat="56.770763" lon="-5.108277"><ele>20.0</ele><time>2026-05-12T08:39:12Z</time></trkpt>
      <trkpt lat="56.770677" lon="-5.108118"><ele>20.0</ele><time>2026-05-12T08:39:24Z</time></trkpt>
      <trkpt lat="56.770632" lon="-5.107998"><ele>20.0</ele><time>2026-05-12T08:39:36Z</time></trkpt>
      <trkpt lat="56.770624" lon="-5.107826"><ele>20.0</ele><time>2026-05-12T08:39:48Z</time></trkpt>
      <trkpt lat="56.770546" lon="-5.107751"><ele>20.0</ele><time>2026-05-12T08:40:00Z</time></trkpt>
      <trkpt lat="56.770531" lon="-5.107615"><ele>20.0</ele><time>2026-05-12T08:40:12Z</time></trkpt>
      <trkpt lat="56.770521" lon="-5.107491"><ele>20.0</ele><time>2026-05-12T08:40:24Z</time></trkpt>
      <trkpt lat="56.770459" lon="-5.107329"><ele>20.0</ele><time>2026-05-12T08:40:36Z</time></trkpt>
      <trkpt lat="56.770410" lon="-5.107250"><ele>20.0</ele><time>2026-05-12T08:40:48Z</time></trkpt>
      <trkpt lat="56.770323" lon="-5.107111"><ele>20.0</ele><time>2026-05-12T08:41:00Z</time></trkpt>
      <trkpt lat="56.770313" lon="-5.106978"><ele>20.0</ele><time>2026-05-12T08:41:12Z</time></trkpt>
      <trkpt lat="56.770240" lon="-5.106834"><ele>20.0</ele><time>2026-05-12T08:41:24Z</time></trkpt>
      <trkpt lat="56.770207" lon="-5.106696"><ele>20.0</ele><time>2026-05-12T08:41:36Z</time></trkpt>
      <trkpt lat="56.770216" lon="-5.106542"><ele>20.0</ele><time>2026-05-12T08:41:48Z</time></trkpt>
      <trkpt lat="56.770091" lon="-5.106483"><ele>20.0</ele><time>2026-05-12T08:42:00Z</time></trkpt>
      <trkpt lat="56.770145" lon="-5.106323"><ele>20.0</ele><time>2026-05-12T08:42:12Z</time></trkpt>
      <trkpt lat="56.770071" lon="-5.106213"><ele>20.0</ele><time>2026-05-12T08:42:24Z</time></trkpt>
      <trkpt lat="56.770053" lon="-5.106023"><ele>20.0</ele><time>2026-05-12T08:42:36Z</time></trkpt>
      <trkpt lat="56.769998" lon="-5.105940"><ele>20.0</ele><time>2026-05-12T08:42:48Z</time></trkpt>
      <trkpt lat="56.769969" lon="-5.105757"><ele>20.0</ele><time>2026-05-12T08:43:00Z</time></trkpt>
      <trkpt lat="56.769895" lon="-5.105663"><ele>20.0</ele><time>2026-05-12T08:43:12Z</time></trkpt>
      <trkpt lat="56.769859" lon="-5.105542"><ele>20.0</ele><time>2026-05-12T08:43:24Z</time></trkpt>
      <trkpt lat="56.769822" lon="-5.105348"><ele>20.0</ele><time>2026-05-12T08:43:36Z</time></trkpt>
      <trkpt lat="56.769771" lon="-5.105270"><ele>20.0</ele><time>2026-05-12T08:43:48Z</time></trkpt>
      <trkpt lat="56.769719" lon="-5.105142"><ele>20.0</ele><time>2026-05-12T08:44:00Z</time></trkpt>
      <trkpt lat="56.769737" lon="-5.104992"><ele>20.0</ele><time>2026-05-12T08:44:12Z</time></trkpt>
      <trkpt lat="56.769667" lon="-5.104868"><ele>20.0</ele><time>2026-05-12T08:44:24Z</time></trkpt>
      <trkpt lat="56.769638" lon="-5.104734"><ele>20.0</ele><time>2026-05-12T08:44:36Z</time></trkpt>
      <trkpt lat="56.769601" lon="-5.104603"><ele>20.0</ele><time>2026-05-12T08:44:48Z</time></trkpt>
      <trkpt lat="56.769580" lon="-5.104448"><ele>20.0</ele><time>2026-05-12T08:45:00Z</time></trkpt>
      <trkpt lat="56.769532" lon="-5.104331"><ele>20.0</ele><time>2026-05-12T08:45:12Z</time></trkpt>
      <trkpt lat="56.769518" lon="-5.104158"><ele>20.0</ele><time>2026-05-12T08:45:24Z</time></trkpt>
      <trkpt lat="56.769478" lon="-5.104052"><ele>20.0</ele><time>2026-05-12T08:45:36Z</time></trkpt>
      <trkpt lat="56.769400" lon="-5.103902"><ele>20.0</ele><time>2026-05-12T08:45:48Z</time></trkpt>
      <trkpt lat="56.769367" lon="-5.103805"><ele>20.0</ele><time>2026-05-12T08:46:00Z</time></trkpt>
      <trkpt lat="56.769349" lon="-5.103741"><ele>20.0</ele><time>2026-05-12T08:46:12Z</time></trkpt>
      <trkpt lat="56.769307" lon="-5.103549"><ele>20.0</ele><time>2026-05-12T08:46:24Z</time></trkpt>
      <trkpt lat="56.769286" lon="-5.103410"><ele>20.0</ele><time>2026-05-12T08:46:36Z</time></trkpt>
      <trkpt lat="56.769211" lon="-5.103299"><ele>20.0</ele><time>2026-05-12T08:46:48Z</time></trkpt>
      <trkpt lat="56.769187" lon="-5.103152"><ele>20.0</ele><time>2026-05-12T08:47:00Z</time></trkpt>
      <trkpt lat="56.769147" lon="-5.103030"><ele>20.0</ele><time>2026-05-12T08:47:12Z</time></trkpt>
      <trkpt lat="56.769098" lon="-5.102898"><ele>20.0</ele><time>2026-05-12T08:47:24Z</time></trkpt>
      <trkpt lat="56.769079" lon="-5.102767"><ele>20.0</ele><time>2026-05-12T08:47:36Z</time></trkpt>
      <trkpt lat="56.769077" lon="-5.102639"><ele>20.0</ele><time>2026-05-12T08:47:48Z</time></trkpt>
      <trkpt lat="56.769028" lon="-5.102521"><ele>20.0</ele><time>2026-05-12T08:48:00Z</time></trkpt>
      <trkpt lat="56.768992" lon="-5.102363"><ele>20.0</ele><time>2026-05-12T08:48:12Z</time></trkpt>
      <trkpt lat="56.768995" lon="-5.102215"><ele>20.0</ele><time>2026-05-12T08:48:24Z</time></trkpt>
      <trkpt lat="56.768924" lon="-5.102104"><ele>20.0</ele><time>2026-05-12T08:48:36Z</time></trkpt>
      <trkpt lat="56.768913" lon="-5.101981"><ele>20.0</ele><time>2026-05-12T08:48:48Z</time></trkpt>
      <trkpt lat="56.768855" lon="-5.101820"><ele>20.0</ele><time>2026-05-12T08:49:00Z</time></trkpt>
      <trkpt lat="56.768824" lon="-5.101712"><ele>20.0</ele><time>2026-05-12T08:49:12Z</time></trkpt>
      <trkpt lat="56.768823" lon="-5.101562"><ele>20.0</ele><time>2026-05-12T08:49:24Z</time></trkpt>
      <trkpt lat="56.768803" lon="-5.101476"><ele>20.0</ele><time>2026-05-12T08:49:36Z</time></trkpt>
      <trkpt lat="56.768741" lon="-5.101307"><ele>20.0</ele><time>2026-05-12T08:49:48Z</time></trkpt>
      <trkpt lat="56.768713" lon="-5.101204"><ele>20.0</ele><time>2026-05-12T08:50:00Z</time></trkpt>
      <trkpt lat="56.768665" lon="-5.101041"><ele>20.0</ele><time>2026-05-12T08:50:12Z</time></trkpt>
      <trkpt lat="56.768640" lon="-5.100925"><ele>20.0</ele><time>2026-05-12T08:50:24Z</time></trkpt>
      <trkpt lat="56.768601" lon="-5.100784"><ele>20.0</ele><time>2026-05-12T08:50:36Z</time></trkpt>
      <trkpt lat="56.768616" lon="-5.100686"><ele>20.0</ele><time>2026-05-12T08:50:48Z</time></trkpt>
      <trkpt lat="56.768567" lon="-5.100578"><ele>20.0</ele><time>2026-05-12T08:51:00Z</time></trkpt>
      <trkpt lat="56.768521" lon="-5.100437"><ele>20.0</ele><time>2026-05-12T08:51:12Z</time></trkpt>
      <trkpt lat="56.768465" lon="-5.100305"><ele>20.0</ele><time>2026-05-12T08:51:24Z</time></trkpt>
      <trkpt lat="56.768440" lon="-5.100168"><ele>20.0</ele><time>2026-05-12T08:51:36Z</time></trkpt>
      <trkpt lat="56.768465" lon="-5.099985"><ele>20.0</ele><time>2026-05-12T08:51:48Z</time></trkpt>
      <trkpt lat="56.768403" lon="-5.099890"><ele>20.0</ele><time>2026-05-12T08:52:00Z</time></trkpt>
      <trkpt lat="56.768372" lon="-5.099749"><ele>20.0</ele><time>2026-05-12T08:52:12Z</time></trkpt>
      <trkpt lat="56.768389" lon="-5.099687"><ele>20.0</ele><time>2026-05-12T08:52:24Z</time></trkpt>
      <trkpt lat="56.768317" lon="-5.099553"><ele>20.0</ele><time>2026-05-12T08:52:36Z</time></trkpt>
      <trkpt lat="56.768320" lon="-5.099450"><ele>20.0</ele><time>2026-05-12T08:52:48Z</time></trkpt>
      <trkpt lat="56.768283" lon="-5.099297"><ele>20.0</ele><time>2026-05-12T08:53:00Z</time></trkpt>
      <trkpt lat="56.768289" lon="-5.099157"><ele>20.0</ele><time>2026-05-12T08:53:12Z</time></trkpt>
      <trkpt lat="56.768221" lon="-5.099019"><ele>20.0</ele><time>2026-05-12T08:53:24Z</time></trkpt>
      <trkpt lat="56.768180" lon="-5.098939"><ele>20.0</ele><time>2026-05-12T08:53:36Z</time></trkpt>
      <trkpt lat="56.768124" lon="-5.098767"><ele>20.0</ele><time>2026-05-12T08:53:48Z</time></trkpt>
    </trkseg>
  </trk>
</gpx>
